REGISTRY_ID,PRIMARY_NAME,LOCATION_ADDRESS,ZIP_CODE,latlon_src,geometry,n_fac_overlaps
110000599406,LYONDELL CHEMICAL CO - CHOCOLATE BAYOU CHEMICALS PLANT,2 MILE WEST FM 2917 ON FM 2004,77511,facilities_20220311.csv,"c(-95.2249013, 29.2950372)",5
110000747318,MHBA CB LLLP,FM 2917,775110000,Google geocoding API - GS,"c(-95.2249013, 29.2950372)",5
110027376337,EASTMAN CHOCOLATE BAYOU,FM 2917,77511,facilities_20220311.csv,"c(-95.2249013, 29.2950372)",5
110061084829,MHBA CHOCOLATE BAYOU PLANT,FM 2917 FROM STATE RD 35 HEAD SE,77512,facilities_20220311.csv,"c(-95.2249013, 29.2950372)",5
110067426529,MONSANTO CHOCOLATE BAYOU,FM 2917,77511,facilities_20220311.csv,"c(-95.2249013, 29.2950372)",5
110017867281,PRAXAIR VALERO REFINERY,1301 LOOP 197 STE B,77590,facilities_20220311.csv,"c(-94.9133607, 29.3688933)",4
110032911669,VALERO TEXAS CITY REFINERY,1301 LOOP 197 S,77592,facilities_20220311.csv,"c(-94.9133607, 29.3688933)",4
110070244519,VALERO TEXAS CITY REFINERY FIRE,1301 LOOP 197 SOUTH,77590,facilities_20220311.csv,"c(-94.9133607, 29.3688933)",4
110070337042,VALERO TEXAS CITY REFINERY FIRE,1301 LOOP 197 SOUTH,77590,Google geocoding API - GS,"c(-94.9133607, 29.3688933)",4
110000503937,EL DORADO NITROGEN LP,8490 WEST BAY ROAD,77523,facilities_20220311.csv,"c(-94.9134738, 29.7462506)",4
110000743811,FIRST CHEMICAL TEXAS LP,8480 W. BAY RD.,77520,facilities_20220311.csv,"c(-94.9134738, 29.7462506)",4
110000756361,MOMENTIVE SPECIALTY CHEMICALS INC.- BAYTOWN TX,8450 WEST BAY ROAD,77523,facilities_20220311.csv,"c(-94.9134738, 29.7462506)",4
110070060013,HEXION BAYTOWN,8450 W BAY RD,77523,facilities_20220311.csv,"c(-94.9134738, 29.7462506)",4
110000462847,TOTAL PETROCHEMICALS USA INC - BAYPORT HDPE PLANT,12212 PORT DR,77507,facilities_20220311.csv,"c(-95.0158487, 29.6027969)",4
110000462874,HNA HOLDINGS INC.,12212 C PORT ROAD,77507,facilities_20220311.csv,"c(-95.0158487, 29.6027969)",4
110070059174,TOTAL SPECIALTIES USA BAYPORT,12212 PORT RD,77507,facilities_20220311.csv,"c(-95.0158487, 29.6027969)",4
110071162173,BAYPORT PLANT,12212 PORT ROAD,77507,Google geocoding API - GS,"c(-95.0158487, 29.6027969)",4
110033536573,AIR LIQUIDE - LA PORTE ASU,11450 W FAIRMONT PKWY,77571,facilities_20220311.csv,"c(-95.0559451, 29.6477264)",4
110063955420,LA PORTE SMR,11450 W FARIRMONT PKWY,77507,facilities_20220311.csv,"c(-95.0559451, 29.6477264)",4
110067130660,LA PORTE SMR,11450 W. FAIRMONT PARKWAY,77571,Google geocoding API - GS,"c(-95.0559451, 29.6477264)",4
110070375269,AIR LIQUIDE LA PORTE SMR,11450 W FAIRMONT PKWY,77571-6000,Google geocoding API - GS,"c(-95.0559451, 29.6477264)",4
110020478990,HOUSTON POLYMERS TERMINAL,10925 HIGHWAY 225,77571-8718,Google geocoding API - GS,"c(-95.0618207, 29.6975454)",4
110020480095,RYTON ENGINEERING PLASTIC,10925 HIGHWAY 225,77571,facilities_20220311.csv,"c(-95.0618207, 29.6975454)",4
110033939246,HOUSTON POLYMERS TERMINAL,10925 HIGHWAY 225,775718718,Google geocoding API - GS,"c(-95.0618207, 29.6975454)",4
110070191337,EQUISTAR CHEMICALS AT KATOEN NATIE,10925 STATE HIGHWAY 225,77571,Google geocoding API - GS,"c(-95.0618207, 29.6975454)",4
110000506079,EQUISTAR CHEMICALS BAYPORT CHEMICALS PLANT,5761 UNDERWOOD ROAD,77507,facilities_20220311.csv,"c(-95.0796976, 29.6260882)",4
110015743720,OCCIDENTAL CHEMICALS PLANT,5761 UNDERWOOD RD.,77507,facilities_20220311.csv,"c(-95.0796976, 29.6260882)",4
110045433090,SUNOCO BAYPORT BPT1,5761 UNDERWOOD RD,77507,facilities_20220311.csv,"c(-95.0796976, 29.6260882)",4
110067200460,SOLVAY USA INC.,5761 UNDERWOOD ROAD,77507,facilities_20220311.csv,"c(-95.0796976, 29.6260882)",4
110069449270,INEOS POLYMERS,1230 INDEPENDENCE PKWY S,77571,Google geocoding API - GS,"c(-95.089072, 29.7191601)",4
110070082913,GEMINI HDPE LLC - LA PORTE PLANT,1230 INDEPENDENCE PARKWAY SOUTH,77571,facilities_20220311.csv,"c(-95.089072, 29.7191601)",4
110070158362,GEMINI HDPE UNIT,1230 INDEPENDENCE PKWY S STE 4,77571,facilities_20220311.csv,"c(-95.089072, 29.7191601)",4
110070864284,INEOS POLYETHYLENE,"1230 INDEPENDENCE PARKWAY, S.",77571,Google geocoding API - GS,"c(-95.089072, 29.7191601)",4
110001867784,CHANNELVIEW TERMINAL,16514A DE ZAVALLA RD,77530,facilities_20220311.csv,"c(-95.1031095, 29.762704)",4
110034384057,DTX OIL ZAVALLA ROAD FACILITY,16514 DE ZAVALLA RD,77530,facilities_20220311.csv,"c(-95.1031095, 29.762704)",4
110037445468,DTX OIL CHANNELVIEW,16514 DE ZAVALLA RD STE A,77530,facilities_20220311.csv,"c(-95.1031095, 29.762704)",4
110070225682,CHANNELVIEW SPLITTER,16514 DE ZAVALLA ROAD,77530,facilities_20220311.csv,"c(-95.1031095, 29.762704)",4
110022431206,SAN JACINTO RIVER WASTE PITS,"W BANK OF SAN JACINTO RIVER, N OF HWY 10",77530,facilities_20220311.csv,"c(-95.1119407, 29.7945258)",4
110041004659,CHANNELVIEW TERMINAL,16514 A DEZAVALA RD,77530,Google geocoding API - GS,"c(-95.1119407, 29.7945258)",4
110071161725,LYONDELL CHEMICAL CHANNELVIEW,NA,77530,Google geocoding API - GS,"c(-95.1119407, 29.7945258)",4
110071162497,CHANNELVIEW COMPLEX,NA,77530,Google geocoding API - GS,"c(-95.1119407, 29.7945258)",4
110037198868,AIRGAS CARBONIC DEER PARK PLANT,5900 HIGHWAY 225,77536,facilities_20220311.csv,"c(-95.1185025, 29.711353)",4
110064203730,OCCIDENTAL CHEMICAL CORP. - DEER PARK VCM SITE 3,5900 HWY 225,77536,facilities_20220311.csv,"c(-95.1185025, 29.711353)",4
110067040847,EQUILON LUBRICANTS CO DEER PARK,5900 HWY 225,77536,facilities_20220311.csv,"c(-95.1185025, 29.711353)",4
110070827819,OXY VINYLS DEER PARK VCM PLANT,5900 HWY 225 GATE 8A,77536,facilities_20220311.csv,"c(-95.1185025, 29.711353)",4
110009495894,GREENS PORT CRUDE BY RAIL TERMINAL,13609 INDUSTRIAL ROAD,77015-6835,Google geocoding API - GS,"c(-95.210032, 29.7570639)",4
110033367336,HELMERICH & PAYNE IDC GREENSPORT PROJECT,13609 INDUSTRIAL RD,77015,facilities_20220311.csv,"c(-95.210032, 29.7570639)",4
110058289784,GREENS PORT CRUDE BY RAIL TERMINAL,13609 INDUSTRIAL ROAD,77015,facilities_20220311.csv,"c(-95.210032, 29.7570639)",4
110061715791,TEXAS DISTRIBUTION SERVICES,13609 INDUSTRIAL ROAD,77015,Google geocoding API - GS,"c(-95.210032, 29.7570639)",4
110063210350,KMCC SPLITTER FACILITY,407 CLINTON DRIVE,77547,facilities_20220311.csv,"c(-95.2227526, 29.7367977)",4
110069234661,KINDER MORGAN CRUDE AND CONDENSATE LLC,407 CLINTON DR,77547,Google geocoding API - GS,"c(-95.2227526, 29.7367977)",4
110070887227,SPLITTER FACILITY,407 CLINTON DR,77547,Google geocoding API - GS,"c(-95.2227526, 29.7367977)",4
110071159860,GP CONDENSATE SPLITTER,407 CLINTON DRIVE,77547,Google geocoding API - GS,"c(-95.2227526, 29.7367977)",4
110005180525,ALLIED PETROCHEMICAL PLANT,2330 FM 2917,77511,facilities_20220311.csv,"c(-95.2563633, 29.316337)",4
110038427333,ALLIED PETROCHEMICAL LLC,2330 FM 2917,77511,facilities_20220311.csv,"c(-95.2563633, 29.316337)",4
110046382419,CHOCOLATE BAYOU PLANT,2330 FM 2917 RD,77511,facilities_20220311.csv,"c(-95.2563633, 29.316337)",4
110070158531,ALLIED PETROCHEMICAL,2330 FM 2917 RD,77511,Google geocoding API - GS,"c(-95.2563633, 29.316337)",4
110000463098,BAYER MATERIALSCIENCE BAYTOWN,8500 W BAY RD,77523,facilities_20220311.csv,"c(-94.9151186, 29.7458275)",3
110069408876,COVESTRO LLC,8500 W BAY RD,77523,Google geocoding API - GS,"c(-94.9151186, 29.7458275)",3
110070671732,AIR PRODUCTS BAYTOWN 3 FACILITY,8500 WEST BAY ROAD,77520,Google geocoding API - GS,"c(-94.9151186, 29.7458275)",3
110000463846,INTERCOASTAL TERMINAL INCORPORATED,159 LEVEE RD.,77592,facilities_20220311.csv,"c(-94.9240083, 29.3952791)",3
110031443196,WAYNE E GLENN ASSOCIATES INC,201 DOCK RD TANKS 511 AND 4002,77592,facilities_20220311.csv,"c(-94.9240083, 29.3952791)",3
110033392905,BLANCHARD REFINING LAND TREATMENT FACILITY,PO BOX 401,775920401,Google geocoding API - GS,"c(-94.9240083, 29.3952791)",3
110000755344,MONT BELVIEU SOUTH RAIL TERMINAL,9853 HWY 146 N,77520,facilities_20220311.csv,"c(-94.9571199, 29.7518333)",3
110017714767,MONT BELVIEU EAST PRODUCT HANDLING TERMINAL,9434 HWY 146 N,77523,facilities_20220311.csv,"c(-94.9571199, 29.7518333)",3
110070122971,SOUTH RAIL TERMINAL,9853 N HIGHWAY 146,77523,facilities_20220311.csv,"c(-94.9571199, 29.7518333)",3
110000462909,INEOS STYROLUTION AMERICA BAYPORT PLANT,12222 PORT RD,77507,facilities_20220311.csv,"c(-95.0166614, 29.6024049)",3
110037566185,PASADENA SMR PLANT,12222 PORT RD,775071800,Google geocoding API - GS,"c(-95.0166614, 29.6024049)",3
110071161653,INEOS NOVA LLC BAYPORT SITE,12222 PORT RD.,77507,Google geocoding API - GS,"c(-95.0166614, 29.6024049)",3
110002456351,PRAXAIR INC.,100 STRANG ROAD,77571,facilities_20220311.csv,"c(-95.0356901, 29.6917795)",3
110070365318,PRAXAIR,100 STRANG RD,77571-7524,Google geocoding API - GS,"c(-95.0356901, 29.6917795)",3
110070935626,"LINDE - LA PORTE, TX",100 STRANG ROAD,77571,Google geocoding API - GS,"c(-95.0356901, 29.6917795)",3
110042005503,PENNZOIL PRODUCTS CO.,4401 PARK AVE,77539,facilities_20220311.csv,"c(-95.0432201, 29.4607468)",3
110063186403,CALUMET PENRECO DICKINSON,4401 PARK AVENUE,77539,Google geocoding API - GS,"c(-95.0432201, 29.4607468)",3
110067107151,CALUMET PENRECO DICKINSON PLANT,4401 PARK AVENUE,77539,Google geocoding API - GS,"c(-95.0432201, 29.4607468)",3
110000504142,SOUTH COAST TERMINALS,10900 STRANG RD.,77571,facilities_20220311.csv,"c(-95.0613429, 29.700555)",3
110013314387,NIPPON PIGMENT USA INC,10900 STRANG ROAD,77571,facilities_20220311.csv,"c(-95.0613429, 29.700555)",3
110070363214,SOUTH COAST TERMINALS STRANG ROAD FACILITY,10900 STRANG RD,77571-9735,Google geocoding API - GS,"c(-95.0613429, 29.700555)",3
110000757752,DEER PARK TERMINAL,2759 INDEPENDENCE PARKWAY SOUTH,77536,Google geocoding API - GS,"c(-95.0908621, 29.7429171)",3
110012497618,HOECHST CELANESE CHEMICAL INC,2759 INDEDPENDENCE PKWY BLDG B,77536,facilities_20220311.csv,"c(-95.0908621, 29.7429171)",3
110064118244,THE LUBRIZOL CORPORATION,2759 INDEPENDENCE PKWY S STE A,77536,facilities_20220311.csv,"c(-95.0908621, 29.7429171)",3
110000463374,AKZO NOBEL POLYMER CHEMICALS LLC,730 BATTLEGROUND RD.,775360600,Google geocoding API - GS,"c(-95.0938191, 29.7027321)",3
110024422409,SOLVAY CHEMICALS DEER PARK PLANT,1130 BATTLEGROUND RD,77571,facilities_20220311.csv,"c(-95.0938191, 29.7027321)",3
110038705817,INEOS POLYMERS,1230 BATTLEGROUND RD,77571,facilities_20220311.csv,"c(-95.0938191, 29.7027321)",3
110031267064,SHELL CHEMICAL,5900 HIGHWAY 225,77536,Google geocoding API - GS,"c(-95.1220456, 29.7128849)",3
110070827820,MOMENTIVE SPECIALTY CHEMICALS INC - DEER PARK SITE,5900 HWY 225 E,77536,Google geocoding API - GS,"c(-95.1220456, 29.7128849)",3
110071159899,OXY VINYLS LP - DEER PARK VCM FACILITY,"5900 HWY 225, GATE 8A",77536,Google geocoding API - GS,"c(-95.1220456, 29.7128849)",3
110070070787,CHEMSTATION TEXAS GULF COAST,2701 APPELT DR,77015,Google geocoding API - GS,"c(-95.148447, 29.769687)",3
110070135427,CHEMSTATION OF SOUTH TEXAS,2701 APPELT DR,77015,Google geocoding API - GS,"c(-95.148447, 29.769687)",3
110071043824,CHEMSTATION HOUSTON,2701 APPELT DR,77015,Google geocoding API - GS,"c(-95.148447, 29.769687)",3
110070168607,EASTMAN CHEMICAL SORBIC UNIT CHOCOLATE BAYOU,7 MI SE OF ALVIN ON FM,77512,Google geocoding API - GS,"c(-95.2390673, 29.4187707)",3
110070676912,MHBA CHOCOLATE BAYOU PLANT,FROM STATE RD 35 HEAD SE ON FM ROAD FOR 7.0 MI TAK,77512,Google geocoding API - GS,"c(-95.2390673, 29.4187707)",3
110071159763,INDORAMA VENTURES OXIDES LLC,P.O. 711,77512,Google geocoding API - GS,"c(-95.2390673, 29.4187707)",3
110000824671,SOUTH COAST,9317 EAST AVENUE S,77012,facilities_20220311.csv,"c(-95.2623223, 29.7244962)",3
110064116987,SOUTH COAST PTF,9317 E AVENUE S,77012,facilities_20220311.csv,"c(-95.2623223, 29.7244962)",3
110064117012,PORT FACILITY,9317 E AVENUE S,77001,Google geocoding API - GS,"c(-95.2623223, 29.7244962)",3
110001877185,HYDRIL ELASTOMER & INDUS,18000 EASTEX FREEWAY,77396,facilities_20220311.csv,"c(-95.2923717, 29.9472309)",3
110054864009,HYDRIL USA DISTRIBUTION HUMBLE,18000 EASTEX FWY,77396,facilities_20220311.csv,"c(-95.2923717, 29.9472309)",3
110061552831,GE OIL & GAS- HYDRIL HUMBLE PLANT,18000 EASTEX FREEWAY,77396,facilities_20220311.csv,"c(-95.2923717, 29.9472309)",3
110000907948,FORCE ROAD OIL & VACUUM TRUCK COMPANY,1722 COUNTY ROAD 573,77011,facilities_20220311.csv,"c(-95.3154784, 29.7461065)",3
110005184521,FEDERAL CONTAINER CORPORATION,1525A N 75TH ST,77011,Google geocoding API - GS,"c(-95.3154784, 29.7461065)",3
110012491721,NORMCO LEASING INC,1525 N 75TH ST,77011,Google geocoding API - GS,"c(-95.3154784, 29.7461065)",3
110005030545,TUBOSCOPE VETCO INTERNATIONAL PLANT 3,2811 HOLMES RD,77051,facilities_20220311.csv,"c(-95.3858294, 29.6747485)",3
110034799289,TUBOSCOPE A DIV  OF VARCO PLANT 3,2811 HOLMES RD,77051,facilities_20220311.csv,"c(-95.3858294, 29.6747485)",3
110041624267,NOV TUBOSCOPE PLANT 3,2811 HOMES ROAD,77051,facilities_20220311.csv,"c(-95.3858294, 29.6747485)",3
110022523964,MIDSTREAM FUEL SERVICE LLC (GALVESTON),1300 COASTWIDE DR,77554,facilities_20220311.csv,"c(-94.7853214, 29.3236537)",2
110033685563,GALVESTON DEEP WATER FACILITY,1300 COASTWIDE DR,77554,facilities_20220311.csv,"c(-94.7853214, 29.3236537)",2
110070801660,PALMER LOGISTICS,5121 5121 AMERIPORT PKWY,77523-4400,Google geocoding API - GS,"c(-94.8875256, 29.7739286)",2
110070863213,HONEYWELL INTERNATIONAL PALMER BAYTOWN WAREHOUSE,5121 5121 AMERIPORT PKWY STE H,77523-4400,Google geocoding API - GS,"c(-94.8875256, 29.7739286)",2
110037527575,ONEOK MONT BELVIEU STORAGE,1802 NORTH MAIN ST,77523,facilities_20220311.csv,"c(-94.893154, 29.8530421)",2
110054865213,VALERO REFINING MONT BELVIEU UDGD,1802 N LOOP 207 MONT BELVIEU TX 77580,77580,Google geocoding API - GS,"c(-94.893154, 29.8530421)",2
110000463864,EASTMAN CHEMICAL TEXAS CITY OPERATIONS,201 BAY ST S,77590,facilities_20220311.csv,"c(-94.893266, 29.3826315)",2
110070188870,TEXAS CITY CRUDE OIL TERMINAL,201 BAY ST S,77590,facilities_20220311.csv,"c(-94.893266, 29.3826315)",2
110000463132,DEGUSSA ENGINEERED CARBONS LP,9300 NEEDLEPOINT RD.,77521,facilities_20220311.csv,"c(-94.9179539, 29.8147449)",2
110070100257,RAVEN PLANT,9300 NEEDLEPOINT RD,77521,facilities_20220311.csv,"c(-94.9179539, 29.8147449)",2
110070081647,ENTERPRISE PRODUCTS - HATCHERVILLE ROAD COMPLEX,12901 HATCHERVILLE ROAD,77521,Google geocoding API - GS,"c(-94.919414, 29.8684459)",2
110070125941,ENTERPRISE MONT BELVIEU HATCHERVILLE COMPLEX,12901 HATCHERVILLE RD,77521,facilities_20220311.csv,"c(-94.919414, 29.8684459)",2
110034221624,POL-TEX,13830 HATCHERVILLE RD,77580,facilities_20220311.csv,"c(-94.9217979, 29.8794425)",2
110070365617,POL-TEX MONT BELVIEU,13830 HATCHERVILLE RD,77521,facilities_20220311.csv,"c(-94.9217979, 29.8794425)",2
110000506505,DOME PETROCHEMICAL CHAMBERS PLANT,6655 WEST BAY RD,77523,facilities_20220311.csv,"c(-94.9232355, 29.7447009)",2
110014439848,VERTEX PROCESSING LP,6655 W BAY RD STE B,77523,facilities_20220311.csv,"c(-94.9232355, 29.7447009)",2
110005032534,BLENPAC SERVICES LLC,21 21ST ST S,77590,facilities_20220311.csv,"c(-94.9238556, 29.3830909)",2
110037908510,MALONE SERVICE DBA STE SWAN LAKE FACILITY,21 21ST ST S,77590,facilities_20220311.csv,"c(-94.9238556, 29.3830909)",2
110028042589,POWER STATION 3,2023 5TH AVE SOUTH,77590,Google geocoding API - GS,"c(-94.9239202, 29.3782154)",2
110028042598,POWER STATION 4,2023 5TH AVE SOUTH,77590-8465,Google geocoding API - GS,"c(-94.9239202, 29.3782154)",2
110005181524,CEDAR MARINE TERMINALS,200 ATLANTIC PIPELINE RD,77523,facilities_20220311.csv,"c(-94.9270196, 29.6712388)",2
110005186388,VERTEX RECOVERY,200 ATLANTIC PIPE LINE RD SUITE A,77523,facilities_20220311.csv,"c(-94.9270196, 29.6712388)",2
110022411530,PRAXAIR HYDROGEN PLANT HU-4 FACILITY,"1720 GRANT AVE, GATE 16",77590,facilities_20220311.csv,"c(-94.9415197, 29.3665727)",2
110034205991,ROYCHEM ASSOCIATES,"GRANT AVENUE, TEXAS CITY, TX",77590,Google geocoding API - GS,"c(-94.9415197, 29.3665727)",2
110000619466,ISP TECHNOLOGIES  INC,4501 ATTWATER AVE,77591,facilities_20220311.csv,"c(-94.9699144, 29.4278408)",2
110070198458,SOLENIS AT ISP TECHNOLOGIES,4501 ATTWATER AVE TEXAS CITY TX 77590,NA,Google geocoding API - GS,"c(-94.9699144, 29.4278408)",2
110055499571,NA INDUSTRIES PASADENA,4631 OLD HWY 146 SUITE A,77586,Google geocoding API - GS,"c(-95.0202776, 29.6029461)",2
110064212276,AMERICAN ACRYL LP,4631 OLD HIGHWAY 146,77586,Google geocoding API - GS,"c(-95.0202776, 29.6029461)",2
110037445235,REG HOUSTON,11815 PORT RD,77586,facilities_20220311.csv,"c(-95.024527, 29.6068)",2
110064118253,CELANESE LTD  BAYPORT TERMINAL BARGE SLIP,11807 PORT RD.,77586,facilities_20220311.csv,"c(-95.024527, 29.6068)",2
110000463178,EXXONMOBIL BAYTOWN CHEMICAL PLANT,5000 BAYWAY DRIVE P.O. BOX 4004,775224004,Google geocoding API - GS,"c(-95.024826, 29.7404465)",2
110070835766,EXXONMOBIL BT SITE,5000 BAYWAY DR,77520,Google geocoding API - GS,"c(-95.024826, 29.7404465)",2
110033488330,ARISTECH CHEMICAL,8811 SPRANG ROAD,77572,Google geocoding API - GS,"c(-95.0272789, 29.6522813)",2
110039498772,ZACH SYSTEM,914 S MAIN ST,77572,facilities_20220311.csv,"c(-95.0272789, 29.6522813)",2
110000501341,PPG INDUSTRIES INC,1901 AVENUE H AND 16TH STREET,77571,facilities_20220311.csv,"c(-95.0356117, 29.6477003)",2
110064034922,"AXIALL EAGEL US 2 LLC - LA PORTE - LA PORTE, TX",1901 AVENUE H AT 16TH STREET,77571,Google geocoding API - GS,"c(-95.0356117, 29.6477003)",2
110059809989,KURARAY AMERICA VINYLS,12342 STRANG ROAD,77571,facilities_20220311.csv,"c(-95.03946, 29.7022777)",2
110070148927,KURARAY LA PORTE,12342 STRANG RD,77571,facilities_20220311.csv,"c(-95.03946, 29.7022777)",2
110064847652,POLY VINYL ALCOHOL PLANT,13100 BAY AREA BLVD,77571,Google geocoding API - GS,"c(-95.0449071, 29.6432918)",2
110069266261,"KURARAY AMERICA INC., POVAL BU",13100 BAY AREA BLVD.,77507,facilities_20220311.csv,"c(-95.0449071, 29.6432918)",2
110069639564,ASHLAND FOR CANAL CARTAGE,1445 SENS RD,77571,Google geocoding API - GS,"c(-95.045915, 29.6883384)",2
110070225316,ASHLAND AT CANAL CARTAGE,1445 1445 SENS RD,77571-9669,Google geocoding API - GS,"c(-95.045915, 29.6883384)",2
110001867846,BAYOU COGENERATION PLANT,11777 BAY AREA BLVD.,77507,facilities_20220311.csv,"c(-95.046208, 29.6230117)",2
110046424598,AIR LIQUIDE - SMR FACILITY,11777 BAY AREA BLVD,77507,facilities_20220311.csv,"c(-95.046208, 29.6230117)",2
110001869354,SOONER PIPE CROSBY YARD,1919 CROSBY-DAYTON HIGHWAY,77532,facilities_20220311.csv,"c(-95.0479789, 29.9287447)",2
110039114375,M D TOTCO ALICE FACILITY,1919 CROSBY DAYTON RD,77532,facilities_20220311.csv,"c(-95.0479789, 29.9287447)",2
110057205162,PALMER LOGISTICS BAY AREA,13001 BAY AREA BLVD,77507,Google geocoding API - GS,"c(-95.049135, 29.6420476)",2
110059441037,PALMER LOGISTICS,13001 BAY AREA BLVD,77507,Google geocoding API - GS,"c(-95.049135, 29.6420476)",2
110000463249,KMCO CROSBY PLANT,16503 RAMSEY RD,77532,facilities_20220311.csv,"c(-95.0540138, 29.9229839)",2
110070889524,"ALTIVIA OXIDE CHEMICALS, LLC",16503 RAMSEY RD,77532,Google geocoding API - GS,"c(-95.0540138, 29.9229839)",2
110024422418,LINDE GAS NORTH AMERICA LLC,11603 STRANG RD,77571,facilities_20220311.csv,"c(-95.0551116, 29.7051581)",2
110043788719,LAPORTE METHANOL COMPANY,11603 STRANGE RD,77571,facilities_20220311.csv,"c(-95.0551116, 29.7051581)",2
110000463016,EFFECTIVE ENVIRONMENTAL PASADENA FACILITY,9950 CHEMICAL RD,77507,facilities_20220311.csv,"c(-95.0557214, 29.6185859)",2
110001148856,PRAXAIR DISTRIBUTION INC,9950 CHEMICAL RD,77507,facilities_20220311.csv,"c(-95.0557214, 29.6185859)",2
110005186510,ARKEMA INC,4923 BAYPORT ROAD (OLD HIGHWAY 146),77507,facilities_20220311.csv,"c(-95.0558124, 29.6087906)",2
110012703271,AMERICAN ACRYL PASADENA,4923 BAYPORT RD.,77507,facilities_20220311.csv,"c(-95.0558124, 29.6087906)",2
110005021207,PRAXAIR,9408 IH 10 E GATE 6,77520,Google geocoding API - GS,"c(-95.0592913, 29.7917632)",2
110034205189,15025 EAST FREEWAY,15025 INTERSTATE 10 E,775208744,Google geocoding API - GS,"c(-95.0592913, 29.7917632)",2
110000462767,CALGON CORPORATION SUB MERCK AND CO,9640 BAYPORT BOULEVARD,77507,facilities_20220311.csv,"c(-95.0616174, 29.6178649)",2
110034920815,REAGENS USA BAYPORT PLANT,9640 BAYPORT BLVD,77507,facilities_20220311.csv,"c(-95.0616174, 29.6178649)",2
110000462981,BAKER PETROLITE BAYPORT FACILI TY,13200 BAY PARK ROAD,77507,facilities_20220311.csv,"c(-95.0637726, 29.6476317)",2
110064116264,BAYPORT PLANT,"13200 BAYPARK RD, PASADENA, TX",77507,facilities_20220311.csv,"c(-95.0637726, 29.6476317)",2
110056494217,BATTLEGROUND OIL SPECIALITY TERMINAL,1836 MILLER CUT OFF RD,77571,facilities_20220311.csv,"c(-95.0654315, 29.7206221)",2
110070180654,BOSTCO,1836 MILLER CUT OFF RD,77571,facilities_20220311.csv,"c(-95.0654315, 29.7206221)",2
110000463597,MILLENNIUM PETROCHEMICALS INCORPORATED LA PORTE PLANT,1350 MILLER CUT-OFF ROAD,77571,facilities_20220311.csv,"c(-95.0664565, 29.7153318)",2
110015743276,USI DIVISION,1350 MILLER CUT OFF RD,77571,facilities_20220311.csv,"c(-95.0664565, 29.7153318)",2
110035420746,CALPINE CLEAR LAKE COGENERATION,9602 BAYPORT RD,77507,facilities_20220311.csv,"c(-95.067727, 29.626104)",2
110070935704,LINDE HYCO CLEAR LAKE PLANT,9602 BAYPORT BLVD,77507,Google geocoding API - GS,"c(-95.067727, 29.626104)",2
110060241331,BAKER HUGHES - SPECIALTY POLYMERS AND AQUANESS,13103 BAYPARK RD,77507,facilities_20220311.csv,"c(-95.0678392, 29.6440451)",2
110070180005,TR INTERNATIONAL,13103 BAYPARK RD,775071105,Google geocoding API - GS,"c(-95.0678392, 29.6440451)",2
110034641635,EQUISTAR CHEMICALS LP,1515 MILLER CUT OFF RD,77571,facilities_20220311.csv,"c(-95.0690796, 29.7177815)",2
110044957543,LA PORTE PLANT,1515 MILLER CUT OFF RD # GATE1,77571,facilities_20220311.csv,"c(-95.0690796, 29.7177815)",2
110012534659,GULBRANDSEN TECHNOLOGIES,9401 STRANG RD,77571,facilities_20220311.csv,"c(-95.0747939, 29.7025116)",2
110070207300,G20 TECHNOLOGIES,9401 STRANG RD,77571,facilities_20220311.csv,"c(-95.0747939, 29.7025116)",2
110060241019,KEMIRA CHEMICALS,11505 KEM HIGHWAY 225,77571,Google geocoding API - GS,"c(-95.0749422, 29.6990724)",2
110060241126,DOW CHEMICAL,119 HIGHWAY 225,77571,Google geocoding API - GS,"c(-95.0749422, 29.6990724)",2
110000462776,SYNGENTA CROP PROTECTION - BAY PORT SITE,5757 UNDERWOOD ROAD,77507,facilities_20220311.csv,"c(-95.0805698, 29.6334897)",2
110033255288,BOC GASES,5757A UNDERWOOD RD,77507,facilities_20220311.csv,"c(-95.0805698, 29.6334897)",2
110000463677,METTON AMERICA LA PORTE PLANT,2727 MILLER CUT-OFF ROAD,77571,facilities_20220311.csv,"c(-95.0859394, 29.7254626)",2
110069453184,METTON AMERICA,2727 MILLER CUT OFF RD,77571,Google geocoding API - GS,"c(-95.0859394, 29.7254626)",2
110038912727,JOHNS MANVILLE LA PORTE,550 550 INDEPENDENCE PKWY S BLDG L8,77571-9768,Google geocoding API - GS,"c(-95.090041, 29.7101919)",2
110039074961,ITW LA PORTE TX,550 INDEPENDENCE PKWY S,77571,facilities_20220311.csv,"c(-95.090041, 29.7101919)",2
110069525909,"NOVVI, LLC",2525 INDEPENDENCE PARKWAY,77571,facilities_20220311.csv,"c(-95.0920623, 29.7363509)",2
110071042124,NOVVI LLC,2525 INDEPENDENCE PARKWAY,77571,Google geocoding API - GS,"c(-95.0920623, 29.7363509)",2
110000504268,"INTERCONTINENTAL TERMINALS COMPANY, LLC",1943 BATTLEGROUND RD.,77536,facilities_20220311.csv,"c(-95.0920803, 29.694691)",2
110037542914,11012387001 DP1 WRTP 12387,1943 BATTLEGROUND RD,775719801,Google geocoding API - GS,"c(-95.0920803, 29.694691)",2
110000463686,DOW CHEMICAL LA PORTE SITE,550 BATTLEGROUND ROAD,77571,facilities_20220311.csv,"c(-95.0938635, 29.7027399)",2
110038205037,LUBRIZOL ADVANCED MATERIALS LA PORTE,550 BATTLEGROUND RD,77571,Google geocoding API - GS,"c(-95.0938635, 29.7027399)",2
110069639680,DOW CHEMICAL,1251 CLAY CT,77536,facilities_20220311.csv,"c(-95.0945394, 29.7017868)",2
110070182036,OXEA,1251 CLAY CT,77536,facilities_20220311.csv,"c(-95.0945394, 29.7017868)",2
110000463301,GLOBAL OCTANES DEER PARK FACILITY,2621 TIDAL ROAD,77536,facilities_20220311.csv,"c(-95.0961739, 29.7342885)",2
110040892157,M T B E  PRODUCTION FACILITY,2621 TIDAL ROAD,77536,Google geocoding API - GS,"c(-95.0961739, 29.7342885)",2
110005139251,"K-SOLV, LP TERMINAL FACILITY",1015 LAKESIDE DRIVE,77530,facilities_20220311.csv,"c(-95.1033333, 29.7676352)",2
110061654856,K-SOLV,1015 LAKESIDE DR,77530,Google geocoding API - GS,"c(-95.1033333, 29.7676352)",2
110070144053,THE DOW CHEMICAL COMPANY,1900 TIDAL RD,77536,Google geocoding API - GS,"c(-95.1041234, 29.731585)",2
110071159352,ROHM AND HAAS TEXAS DEER PARK PLANT,1900 TIDAL RD,77536,Google geocoding API - GS,"c(-95.1041234, 29.731585)",2
110013314626,THE GEON COMPANY,1105 TIDAL ROAD,77536,facilities_20220311.csv,"c(-95.1076998, 29.7313168)",2
110070827818,OXY VINYLS DEER PARK VCM PLANT,851 TIDAL RD,77536,facilities_20220311.csv,"c(-95.1076998, 29.7313168)",2
110015685873,DEER PARK PLANT,41 TIDAL RD STE A,77536,facilities_20220311.csv,"c(-95.1118593, 29.7114249)",2
110056537804,LUBRIZOL - DEER PARK,41 TIDAL ROAD,77536,facilities_20220311.csv,"c(-95.1118593, 29.7114249)",2
110000461839,CRAY VALLEY USA LLC,17335 WALLISVILLE RD.,77049,facilities_20220311.csv,"c(-95.1134873, 29.8255836)",2
110041502282,CRAY VALLEY WALLISVILLE RD,17335 WALLISVILLE RD,77530,Google geocoding API - GS,"c(-95.1134873, 29.8255836)",2
110000497775,CAMO CHEMICAL,16950 WALLISVILLE RD.,77049,facilities_20220311.csv,"c(-95.1236838, 29.8205224)",2
110070626827,STREAMLINE POLYMERS,16950 WALLISVILLE ROAD,77049,Google geocoding API - GS,"c(-95.1236838, 29.8205224)",2
110012255040,MARTIN MIDSTREAM MEGA LUBRICANTS,15155 JACINTOPORT BLVD,77015,Google geocoding API - GS,"c(-95.1408246, 29.7554953)",2
110034524717,MEGA LUBRICANTS,15155 JACINTOPORT BLVD,77015,facilities_20220311.csv,"c(-95.1408246, 29.7554953)",2
110002134048,POLYONE CORPORATION,4402 PASADENA FREEWAY,77503,facilities_20220311.csv,"c(-95.1591404, 29.7122448)",2
110070190741,PASADENA TERMINAL,3443 PASADENA FREEWAY,77503,facilities_20220311.csv,"c(-95.1591404, 29.7122448)",2
110063890847,INTERCONTINENTAL TERMINALS PASADENA TERMINAL,1030 ETHYL RD,77503,facilities_20220311.csv,"c(-95.1642439, 29.724627)",2
110070177758,INTERCONTINENTAL TERMINALS PASADENA TERMINAL,1030 ETHYL ROAD,77503,facilities_20220311.csv,"c(-95.1642439, 29.724627)",2
110067263071,AFTON CHEMICAL CORPORATION,1000 N SOUTH ST,77503,facilities_20220311.csv,"c(-95.1714752, 29.7345653)",2
110070135413,ETHYL CORPORATION,1000 N. SOUTH STREET,77503,Google geocoding API - GS,"c(-95.1714752, 29.7345653)",2
110000460947,"GEORGIA PACIFIC RESINS, INC.",1503 HADEN RD.,77015,facilities_20220311.csv,"c(-95.1861039, 29.7663584)",2
110000461045,REICHHOLD REACTIVE POLYMERS DIVISION HOUSTON PLANT,1503 HADEN RD.,77015,facilities_20220311.csv,"c(-95.1861039, 29.7663584)",2
110000503839,BRENNTAG SOUTHWEST,1632 HADEN ROAD,77015,facilities_20220311.csv,"c(-95.1875811, 29.7623925)",2
110033838774,ALTIVIA HADEN ROAD COMPLEX,1632 HADEN RD,77015,facilities_20220311.csv,"c(-95.1875811, 29.7623925)",2
110070813779,INEOS OLIGOMERS CHOCOLATE BAYOU,15916 FM 2004,77511,Google geocoding API - GS,"c(-95.1920061, 29.2269949)",2
110070887513,CHOCOLATE BAYOU,15916 FM 2004,77511,Google geocoding API - GS,"c(-95.1920061, 29.2269949)",2
110043799958,PASADENA PLANT,1423 PASADENA FWY,77506,Google geocoding API - GS,"c(-95.1934805, 29.7147547)",2
110061712687,"SEKISUI SPECIALTY CHEMICALS AMERICA, LLC. - PASADENA PLANT",1423 PASADENA FWY,77506,facilities_20220311.csv,"c(-95.1934805, 29.7147547)",2
110001995440,"BRIO REFINING, INC.",2501 DIXIE FARM ROAD,77546,facilities_20220311.csv,"c(-95.1999411, 29.5707303)",2
110015744578,FRIENDSWOOD REFINING BRIO SITE TASK FORCE,2501 DIXIE FARM ROAD,77089,facilities_20220311.csv,"c(-95.1999411, 29.5707303)",2
110034061299,GYPSUM PILE,ON THE HOUSTON SHIP CHANNEL AT THE POINT WHERE JEF,77506,Google geocoding API - GS,"c(-95.2005729, 29.7160112)",2
110069525785,PHILLIPS 66 PASADENA TERMINAL,233 N PHILLIPS RD,77506,Google geocoding API - GS,"c(-95.2005729, 29.7160112)",2
110070055384,EVONIK CORPORATION - PASADENA PMD PLANT,1431 PASADENA FREEWAY,77506,facilities_20220311.csv,"c(-95.2018657, 29.7119133)",2
110070122975,PASADENA PMD FACILITY,1431 PASADENA FWY,77506,facilities_20220311.csv,"c(-95.2018657, 29.7119133)",2
110000462703,PASADENA REFINING SYSTEM INC,111 RED BLUFF ROAD,77506,facilities_20220311.csv,"c(-95.2064511, 29.7178032)",2
110070058559,PRSI FIRE,111 RED BLUFF ROAD,77506,facilities_20220311.csv,"c(-95.2064511, 29.7178032)",2
110032992563,SHELL OIL COMPANY,1313 W PASADENA FWY,77506,facilities_20220311.csv,"c(-95.2220244, 29.712281)",2
110070164942,PASADENA OFFICE,1313 W PASADENA FWY,77506,facilities_20220311.csv,"c(-95.2220244, 29.712281)",2
110015585614,SOPUS PRODUCTS,780 CLINTON DRIVE,77547,facilities_20220311.csv,"c(-95.2232271, 29.7315484)",2
110031481750,HOUSTON PLANT,780 CLINTON DRIVE,77547,facilities_20220311.csv,"c(-95.2232271, 29.7315484)",2
110001867551,DEEPWATER ELECTRIC GENERATING STATION,901 LIGHT COMPANY RD,77506,facilities_20220311.csv,"c(-95.2251484, 29.7198628)",2
110069719665,KINDER MORGAN EXPORT TERMINAL,901 LIGHT COMPANY RD,775061068,Google geocoding API - GS,"c(-95.2251484, 29.7198628)",2
110001867677,MARTIN ASPHALT-SOUTH HOUSTON,300 CHRISTI PL,77587,Google geocoding API - GS,"c(-95.2350735, 29.6633152)",2
110042351683,SOUTH HOUSTON ASPHALT,300 CHRISTI PLACE,77587,Google geocoding API - GS,"c(-95.2350735, 29.6633152)",2
110000500609,THIRD COAST PACKAGING INC FRIENDSWOOD,18410 WEST CLOVER LN.,77549,facilities_20220311.csv,"c(-95.2358749, 29.5101047)",2
110064303828,THIRD COAST PACKAGING,18410 W CLOVER LANE,77546,facilities_20220311.csv,"c(-95.2358749, 29.5101047)",2
110001867588,UNITED STATES GYPSUM,1201 MAYO SHELL ROAD,77547,Google geocoding API - GS,"c(-95.2436265, 29.7239263)",2
110041046114,GYPSUM PRODUCTION OPERATIONS,1201 MAYO SHELL RD,77547,facilities_20220311.csv,"c(-95.2436265, 29.7239263)",2
110001869443,GALENA PARK YARD,922 MAYO SHELL ROAD,77547,facilities_20220311.csv,"c(-95.2460141, 29.7235846)",2
110017867030,MARTIN MARIETTA MATERIALS INC,922 MAYO SHELL,77017,Google geocoding API - GS,"c(-95.2460141, 29.7235846)",2
110070541426,SUMMIT REFRIGERANTS,8541 E NORTH BELT,77396,facilities_20220311.csv,"c(-95.2592627, 29.9401188)",2
110070716064,SUMMIT REFRIGERANTS,8541 E. NORTH BELT DRIVE,77396,Google geocoding API - GS,"c(-95.2592627, 29.9401188)",2
110000461116,BAYER HOUSTON PLANT,8701 PARK PL. BLVD.,77017,facilities_20220311.csv,"c(-95.260001, 29.70072)",2
110034025828,KEMIRA WATER SOLUTIONS,8701 PARK PLACE BLVD,77017,facilities_20220311.csv,"c(-95.260001, 29.70072)",2
110000823725,HYDRIL GENERAL LLC,8641 MOERS RD,77075,facilities_20220311.csv,"c(-95.2611115, 29.6408708)",2
110037907245,FUTURE PIPE INDUSTRIES,8641 MOERS RD,77075,facilities_20220311.csv,"c(-95.2611115, 29.6408708)",2
110008060472,CENTURY ASPHALT BENDER PLANT,15409 OLD HUMBLE RD.,77396,facilities_20220311.csv,"c(-95.2821582, 29.9457789)",2
110059708678,CEMEX HUMBLE READY MIX PLANT,15409 OLD HUMBLE RD,77396,Google geocoding API - GS,"c(-95.2821582, 29.9457789)",2
110022266135,SUPERIOR PACKAGING AND DISTRIBUTING,7707 WALLISVILLE ROAD,77020-3607,facilities_20220311.csv,"c(-95.2871006, 29.7894095)",2
110060260140,PRINCE ENERGY LLC,7707 WALLISVILLE RD,77020,facilities_20220311.csv,"c(-95.2871006, 29.7894095)",2
110000461955,CIM INDUSTRIES,6900 NELMS AVENUE,77061,facilities_20220311.csv,"c(-95.3023481, 29.640067)",2
110037916574,CIM INDUSTRIES COATINGS FACILITY,6900 NELMS ST,77061,facilities_20220311.csv,"c(-95.3023481, 29.640067)",2
110005117809,SUNBELT ASPHALT & MATERIALS INC,5303 NAVIGATION BLDG A,77011,facilities_20220311.csv,"c(-95.3195726, 29.7498917)",2
110015771422,CENTURY ASPHALT LTD NAVIGATION FACILITY,5303 NAVIGATION BOULEVARD,77011,facilities_20220311.csv,"c(-95.3195726, 29.7498917)",2
110000599479,"KEESHAN AND BOST CHEMICAL CO., INC.",22102 HIGHWAY 6,77578,facilities_20220311.csv,"c(-95.3252574, 29.456281)",2
110041231985,ALCOHOL PURIFICATION & ESTERS,22102 SH 6,77578,facilities_20220311.csv,"c(-95.3252574, 29.456281)",2
110002063980,CES ENVIRONMENTAL,4904 GRIGGS ROAD,77021-3208,facilities_20220311.csv,"c(-95.3428939, 29.6996638)",2
110039512319,HOUSTON METHANOL EXPLOSION,4904 GRIGGS,77021-3208,facilities_20220311.csv,"c(-95.3428939, 29.6996638)",2
110002133511,TEXAS LIQUID FERTILIZER CO HOUSTON PLANT,3508 CHERRY ST,77026,facilities_20220311.csv,"c(-95.3437341, 29.7939094)",2
110002378070,HOUSTON PRODUCTS TERMINAL,3508 CHERRY STREET,77026,facilities_20220311.csv,"c(-95.3437341, 29.7939094)",2
110002133496,TEXAS BLENDING & WAREHOUSE,2505 COLLINGSWORTH,77026,facilities_20220311.csv,"c(-95.3448, 29.7938925)",2
110009501949,BRUCE CROZIER DBA SW TRADING INDUSTRIES,2505 COLLINGSWORTH ST STE W,77026,Google geocoding API - GS,"c(-95.3448, 29.7938925)",2
110000495161,INDUSTRIAL CHEMICAL & SCIENTIFIC CO INC,11722 CHARLES ST.,77041,facilities_20220311.csv,"c(-95.3586581, 29.8624792)",2
110002133628,GUARDSMAN PRODS INC,11502 CHARLES STREET,77041,facilities_20220311.csv,"c(-95.3586581, 29.8624792)",2
110002371790,ROYAL BATHS MANUFACTURING,14635 CHRISMAN ROAD,77039,facilities_20220311.csv,"c(-95.3641051, 29.9292334)",2
110040873196,CHRISMAN RD FACILITY,14635 CHRISMAN RD,77039,facilities_20220311.csv,"c(-95.3641051, 29.9292334)",2
110008060551,ROYAL BATHS BUSCHONG ROAD FACILITY,1144 BUSCHONG RD.,77039,facilities_20220311.csv,"c(-95.3695221, 29.929254)",2
110021360285,BUSCHONG RD FACILITY,1144 BUSCHONG,77039,facilities_20220311.csv,"c(-95.3695221, 29.929254)",2
110005078110,W MENGDEN,13410 RIVER TRAIL,77001,Google geocoding API - GS,"c(-95.37, 29.77)",2
110021081979,HOBBY AIRPORT JET FUEL,MONROE @ BRYANT,77001,Google geocoding API - GS,"c(-95.37, 29.77)",2
110022832746,CENTRAL GREEN FACILITY HOUSTON,16602 CENTRAL GREEN BLVD,77032,Google geocoding API - GS,"c(-95.375389, 29.9619247)",2
110057651606,"ENDURO COMPOSITES, INC.",16602 CENTRAL GREEN BLVD.,77032,Google geocoding API - GS,"c(-95.375389, 29.9619247)",2
110000461214,JOHNS MANVILLE HOUSTON METALS,1370 EAST 40TH STREET,77022,facilities_20220311.csv,"c(-95.3804594, 29.8198749)",2
110009498258,FERRO CORPORATION,1370 E 40TH ST,77022,facilities_20220311.csv,"c(-95.3804594, 29.8198749)",2
110000462295,CONTAINMENT SOLUTIONS,5150 JEFFERSON CHEMICAL RD.,77301,facilities_20220311.csv,"c(-95.3906831, 30.3184916)",2
110041220979,CONROE MANUFACTURING FAC,5150 JEFFERSON CHEMICAL RD,77301,Google geocoding API - GS,"c(-95.3906831, 30.3184916)",2
110000461857,CCP COMPOSITES US,2434 HOLMES ROAD,77051,facilities_20220311.csv,"c(-95.3910891, 29.6715079)",2
110054317422,POLYNT COMPOSITES USA - HOUSTON,2434 HOLMES RD,77051,facilities_20220311.csv,"c(-95.3910891, 29.6715079)",2
110008153871,JOHN L ARMITAGE & CO,HIGHWAY 105 E,77303,Google geocoding API - GS,"c(-95.3939878, 30.3251535)",2
110064215745,CONROE CREOSOTING CO.,HWY 105 EAST,77301,facilities_20220311.csv,"c(-95.3939878, 30.3251535)",2
110070225321,WARREN GULF COAST,910 RANKIN RD,77073,facilities_20220311.csv,"c(-95.3951004, 29.9644532)",2
110070557810,WARREN GULF COAST,910 RANKIN RD,77073-4604,Google geocoding API - GS,"c(-95.3951004, 29.9644532)",2
110000461465,EXXON COMPANY USA HOUSTON,8700 NORTH FREEWAY,77037,facilities_20220311.csv,"c(-95.4107577, 29.8871115)",2
110064203115,"WHITE OAK OPERATING COMPANY, LLC",8700 N. FREEWAY,77037,facilities_20220311.csv,"c(-95.4107577, 29.8871115)",2
110057780977,CLOCK SPRING,621 LOCKHAVEN DRIVE,77077,facilities_20220311.csv,"c(-95.4148184, 29.9903927)",2
110070123005,CLOCK SPRING,621 LOCKHAVEN DR,77073,facilities_20220311.csv,"c(-95.4148184, 29.9903927)",2
110007196809,US OIL NORTH HOUSTON TERMINAL,12325 NORTH FREEWAY,77060,facilities_20220311.csv,"c(-95.4176297, 29.9486514)",2
110064068093,HOUSTON TERMINAL,12325 N. FREEWAY,77032,facilities_20220311.csv,"c(-95.4176297, 29.9486514)",2
110062912503,FLOWCRETE NORTH AMERICA,616 SPRING HILL DR STE 100,77386,facilities_20220311.csv,"c(-95.4317469, 30.1223243)",2
110067659064,FLOWCRETE NORTH AMERICA - SPRING,616 SPRING HILL DR,77386,Google geocoding API - GS,"c(-95.4317469, 30.1223243)",2
110057068523,UTEX INDUSTRIES,116A INDUSTRIAL CT,77301,facilities_20220311.csv,"c(-95.4338474, 30.3145088)",2
110069265066,"UTEX INDUSTRIES, INC.",116 A INDUSTRIAL COURT,77301,Google geocoding API - GS,"c(-95.4338474, 30.3145088)",2
110002133995,SMITH CORROSION SERVICES INCORPORATED,8320 HEMPSTEAD HIGHWAY,77008,facilities_20220311.csv,"c(-95.4371598, 29.7862517)",2
110012703501,PLASTOMO INC,8320 HEMPSTEAD HIGHWAY,77008,facilities_20220311.csv,"c(-95.4371598, 29.7862517)",2
110034017294,HOUSTON CRYOGENICS DIVISION ALAC,3543 W 12TH ST,77008,facilities_20220311.csv,"c(-95.4413175, 29.7909015)",2
110044993709,"BIG THREE INDUSTRIAL GAS, INC.",3543 W. 12TH HOUSTON,77008,facilities_20220311.csv,"c(-95.4413175, 29.7909015)",2
110000463454,CHAMPION TECHNOLOGIES INC,3130 FM 521,77545,facilities_20220311.csv,"c(-95.4495743, 29.5397231)",2
110067353170,CHAMPION TECHNOLOGIES ANHYDROUS AMMONIA RELEASE,3130 FM 521,77584,facilities_20220311.csv,"c(-95.4495743, 29.5397231)",2
110000462428,POLYFOAM PRODS  INC,2400 SPRING STUEBNER RD.,77389,facilities_20220311.csv,"c(-95.4527171, 30.0857243)",2
110009497455,BAYER MATERIALSCIENCE LLC,2400 SPRING STUEBNER,77389,facilities_20220311.csv,"c(-95.4527171, 30.0857243)",2
110038317915,FLOWCRETE NORTH AMERICA - CONROE,11133 INTERSTATE 45 S STE K,77302,facilities_20220311.csv,"c(-95.4544078, 30.2646893)",2
110045564000,FLOWCRETE NORTH AMERICA,"11133 I-45 SOUTH, STE. K",77302,Google geocoding API - GS,"c(-95.4544078, 30.2646893)",2
110032992135,TRELLEBORG OFFSHORE US WEST LITTLE YORK FACILITY,3131 W LITTLE YORK RD,77091,facilities_20220311.csv,"c(-95.4552881, 29.8612873)",2
110034232060,CRP BALMORAL,3131 W LITTLE YORK RD,77091,facilities_20220311.csv,"c(-95.4552881, 29.8612873)",2
110005120476,STAR ENTERPRISES,5910 WEST LOOP S,77401,facilities_20220311.csv,"c(-95.4608875, 29.7170816)",2
110070165120,FOURNACE SERVICE CENTER,5910 WEST LOOP S,77401,facilities_20220311.csv,"c(-95.4608875, 29.7170816)",2
110069463155,CUSTOM PACKAGING,8960 SPRING BRANCH DR,77080,facilities_20220311.csv,"c(-95.5119191, 29.8035142)",2
110070058563,A-1 CUSTOM PACKAGING FIRE RESPONSE,8960 SPRING BRANCH DR,77080,facilities_20220311.csv,"c(-95.5119191, 29.8035142)",2
110005125569,SONOCO FIBRE DRUM INC,9280 BAYTHORNE DR,77041,facilities_20220311.csv,"c(-95.5205686, 29.8440247)",2
110061575576,"GREIF, INC",9280 BAYTHORNE DR,77041,Google geocoding API - GS,"c(-95.5205686, 29.8440247)",2
110034453062,PRO PLASTICS INC,9530 BAYTHORNE DR,770417712,Google geocoding API - GS,"c(-95.5281134, 29.8439937)",2
110062913245,PRO-PLASTICS BAYTHORNE FACILITY,9530 BAYTHORNE DR,77041,facilities_20220311.csv,"c(-95.5281134, 29.8439937)",2
110017613377,STARPAK HOUSTON FACILITY,9690 W WINGFOOT RD,77041,facilities_20220311.csv,"c(-95.5320152, 29.8409509)",2
110057254028,STARPAK CORP,9690 W. WINGFOOT,77041,facilities_20220311.csv,"c(-95.5320152, 29.8409509)",2
110001870075,"SIMPRO, INC","4949 WINFERN DRIVE, HOUSTON, T",77001,facilities_20220311.csv,"c(-95.5384231, 29.8426389)",2
110064303677,BPX FILMS LP,4949 WINDFERN,77041,facilities_20220311.csv,"c(-95.5384231, 29.8426389)",2
110002134039,FLOATEC CORP,9803 MULA RD,77477,facilities_20220311.csv,"c(-95.5497712, 29.632514)",2
110009499131,NL SHAFFER,9803 MULA ROAD,77477,facilities_20220311.csv,"c(-95.5497712, 29.632514)",2
110005120083,STAR ENTERPRISES,11019 BRIAR FOREST DR,77042,facilities_20220311.csv,"c(-95.5715323, 29.7475471)",2
110070170409,TEXACO SERVICE STATION,11019 BRIAR FOREST DR,770422211,Google geocoding API - GS,"c(-95.5715323, 29.7475471)",2
110000461642,QUEST CHEMICAL CORP,12255 FM 529,77041,facilities_20220311.csv,"c(-95.5737895, 29.8796588)",2
110033745918,FIBERSPAR HOUSTON SITE,12239 FM 529 RD,77041,facilities_20220311.csv,"c(-95.5737895, 29.8796588)",2
110034274112,DE NEEF CONSTRUCTION CHEMICALS,5610 BRYSTONE DR,77041,facilities_20220311.csv,"c(-95.5793688, 29.8491391)",2
110046371699,W.R. GRACE & CO. - CONN. DENEEF,5610 BRYSTONE DR,77041,facilities_20220311.csv,"c(-95.5793688, 29.8491391)",2
110008060542,MELENDY RAIL YARD,11913 FM 529,77041,facilities_20220311.csv,"c(-95.5850582, 29.8800155)",2
110041043849,MELENDY OPERATIONS SITE,11913 FM 529,77347,Google geocoding API - GS,"c(-95.5850582, 29.8800155)",2
110000461571,BASF CORP - HOUSTON EBN SITE,7100 WRIGHT RD.,77041,facilities_20220311.csv,"c(-95.5882419, 29.881272)",2
110037569486,SKW-MBT OPERATIONS,7100 WRIGHT RD,77041,facilities_20220311.csv,"c(-95.5882419, 29.881272)",2
110000599291,SHELL TECHNOLOGY CENTER HOUSTON,3333 HWY. 6 S.,77082,facilities_20220311.csv,"c(-95.6434226, 29.7259651)",2
110014029443,KRATON POLYMERS US WESTHOLLOW TECHNOLOGY CTR,3333C HIGHWAY 6 SOUTH,77082,facilities_20220311.csv,"c(-95.6434226, 29.7259651)",2
110034538034,PULTRUSION MANUFACTURING FACILITY BROOKSHIRE,608 PEDERSON,77494,facilities_20220311.csv,"c(-95.8829576, 29.7842613)",2
110035842817,FIBER PRODUCTS,608 PEDERSON ROAD,77494,Google geocoding API - GS,"c(-95.8829576, 29.7842613)",2
110000873779,IGLOO PRODUCTS CORPORATION,30603 KATY BROOKSHIRE ROAD,77494,facilities_20220311.csv,"c(-95.8862702, 29.7855628)",2
110033810927,KATY PLANT,30603 HIGHWAY BLVD,77494,facilities_20220311.csv,"c(-95.8862702, 29.7855628)",2
110005188019,PPG ARCHITECTURAL FINISHES WALLER,19914 GH CIRCLE,77484,facilities_20220311.csv,"c(-95.9448928, 30.055706)",2
110064036715,FLOTEK CHEMISTRY,19914 GH CIRCLE,77484,facilities_20220311.csv,"c(-95.9448928, 30.055706)",2
110034476243,NASA ELLINGTON FIELD,12400 BRANTLY AVE,770345522,facilities_20220311.csv,"c(-81.8818333, 26.5611224)",1
110040883808,BIG HILL STRATEGIC PETROLEUM RESERVE,25 MI SW OF PORT ARTHUR,77665,facilities_20220311.csv,"c(-94.3840777, 29.8202205)",1
110008171389,HIGH ISLAND PETROCHEMICALS,2500 HIGHWAY 124,77623,facilities_20220311.csv,"c(-94.3858157, 29.7990737)",1
110006129661,KENDON,RR 2 BOX 21633,77665,Google geocoding API - GS,"c(-94.4182089, 29.8310204)",1
110001140391,ARCO CHEMICAL CO TURTLE BAYOU,1003 COUNTY ROAD 126,77575,Google geocoding API - GS,"c(-94.6771031, 29.9194833)",1
110041103187,DAISETTA UNDERGROUND STORAGE,DAISETTA  77561,77533,Google geocoding API - GS,"c(-94.739079, 30.1589385)",1
110064303748,PLACID REFINING,12927 HIGHWAY 146 N,77580,facilities_20220311.csv,"c(-94.7438692, 30.1849655)",1
110000606942,CENTRAL INTL CORP,FARM MARKET ROAD 1011,775752250,Google geocoding API - GS,"c(-94.7691586, 30.0265679)",1
110005104706,ALPHA PROCESSING,2301 MIZELL RD,77575,facilities_20220311.csv,"c(-94.7713362, 30.0799461)",1
110020515726,U.S. COAST GUARD BASE GALVESTON,1 FERRY RD,775531912,facilities_20220311.csv,"c(-94.77181, 29.3260126)",1
110064013099,MARTIN OPERATING PARTNERSHIP LP GALVESTON DOCK,200 PENNZOIL ROAD,77553,facilities_20220311.csv,"c(-94.7860695, 29.3214314)",1
110070516875,TODD SHIPYARDS CORP-PELICAN ISLAND WORKS,2920 TODD ROAD,77554,facilities_20220311.csv,"c(-94.799503, 29.3128981)",1
110032912258,PELICAN ISLAND STORAGE TERMINAL,3801 GTI BLVD. PELICAN ISLAND,77554,facilities_20220311.csv,"c(-94.8106964, 29.3162175)",1
110037446546,BAZE CHEMICAL,1502 FORT WORTH ST,77575,facilities_20220311.csv,"c(-94.8163239, 30.049017)",1
110045617285,TEXAS INTERNATIONAL TERMINALS,4800 PORT INDUSTRIAL BLVD,77551,facilities_20220311.csv,"c(-94.8202075, 29.3019341)",1
110070368589,TEXAS INTERNATIONAL TERMINALS,4800 OLD PORT INDUSTRIAL BLVD GALVESTON TX 77554,77554,Google geocoding API - GS,"c(-94.8217965, 29.3071319)",1
110033898094,GALVESTON BAY BIODIESEL,4828 OLD PORT INDUSTRIAL BLVD,77551,facilities_20220311.csv,"c(-94.8293731, 29.2995866)",1
110033385414,BIODIESEL PLANT,4800 OLD PORT RD,77550,facilities_20220311.csv,"c(-94.8300614, 29.2985049)",1
110045016781,GALVESTON BAY BIOFUELS TANK FIRE,4900 BLK. OF OLD PORT INDUSTRIAL ROAD,77554,facilities_20220311.csv,"c(-94.8300619, 29.2983777)",1
110040963053,CEDAR BAYOU PLANT,9500 IH 10 E IN BAYTOWN,77521,facilities_20220311.csv,"c(-94.852165, 29.8255701)",1
110006452141,BELL POINT REFINING LLC,20121 NEEDLE POINT ROAD,77523,facilities_20220311.csv,"c(-94.8723718, 29.8177779)",1
110070151869,PALMER LOGISTICS,4505 AMERIPORT PKWY.,77523,Google geocoding API - GS,"c(-94.8830229, 29.7658016)",1
110067249267,SYNTHETIC OILS & LUBRICANTS OF TEXAS,300B DELTA PKWY,77523,Google geocoding API - GS,"c(-94.8867249, 29.7755774)",1
110045464519,DELTA PETROLEUM COMPANY,233 DELTA PARKWAY,77523,facilities_20220311.csv,"c(-94.8872102, 29.7712807)",1
110031338513,POLYONE,5110 HIGHWAY 146,77586,facilities_20220311.csv,"c(-94.8895938, 30.6617235)",1
110008166965,CHAMPION TECHNOLOGIES,HIGHWAY 321 1.5 MILE NORTH,77535,facilities_20220311.csv,"c(-94.8900689, 30.0442211)",1
110015679595,MONT BELVIEU UNDERGROUND STORAGE FACILITY,1802 N. LOOP 207,77523,facilities_20220311.csv,"c(-94.890872, 29.8477018)",1
110033595312,DIAMOND SHAMROCK REFINING & MARKETING,819 MAIN,77580,Google geocoding API - GS,"c(-94.8908817, 29.8485897)",1
110041056184,TEXAS CITY TERMINAL 2 STOP,201 DOCK RD,77590,Google geocoding API - GS,"c(-94.8914256, 29.3737509)",1
110006533359,ENTERPRISE PRODUCTS EAST STORAGE / SPLITTER III,316 S MAIN ST,77580,facilities_20220311.csv,"c(-94.8914563, 29.8407742)",1
110010922298,NUSTAR TEXAS CITY NO 2 TERMINAL,159 LEVEE ROAD,77590,facilities_20220311.csv,"c(-94.8920672, 29.3921959)",1
110002400642,TEXAS CITY TERMINAL 1,201 MAIN DOCK ROAD,77590,facilities_20220311.csv,"c(-94.8932285, 29.3703966)",1
110031291288,COVESTRO GULF COAST DISTRIBUTION CENTER,8406 FM 1405,77523-9913,Google geocoding API - GS,"c(-94.8933707, 29.7614643)",1
110027922657,FLOMIN INC,7500 FM 1405,77523,facilities_20220311.csv,"c(-94.8933993, 29.7536789)",1
110040890818,MONT BELVIEU WEST STORAGE FACILITY,HIGHWAY 146,77580,Google geocoding API - GS,"c(-94.893978, 30.0336633)",1
110002436203,TARGA RESOURCES - MONT BELVIEU FRACTIONATOR,10119 HWY 146 N,77580,facilities_20220311.csv,"c(-94.8951236, 29.8371044)",1
110054864036,MONT BELVIEU TERMINAL,10319 HWY 146,77580,Google geocoding API - GS,"c(-94.8951714, 29.8451342)",1
110017284473,MONT BELVIEU FACILITY,10902 FITZGERALD RD,77580,facilities_20220311.csv,"c(-94.8995024, 29.8561082)",1
110000463775,DALLAS GROUP OF AMERICA,301 DOCK RD,77590,facilities_20220311.csv,"c(-94.8998641, 29.375164)",1
110028211888,BP CHEMICAL CO  TEXAS CITY PLANT A,FOOT OF 6TH STREET,77590,facilities_20220311.csv,"c(-94.9022697, 29.3902519)",1
110000825037,PRAXAIR TEXAS CITY,703 6TH ST S,77590,facilities_20220311.csv,"c(-94.9024086, 29.3781207)",1
110005030572,STYROLUTION AMERICA LLC,LOOP 197 AND 6TH STREET SOUTH,77590,facilities_20220311.csv,"c(-94.9027817, 29.3770061)",1
110025330602,BP AMOCO CHEMICAL TEXAS CITY PLANT,INDUSTRIAL CANAL RD  PO BOX  568,77592,facilities_20220311.csv,"c(-94.907035, 29.364828)",1
110031337202,WAL-MART DISTRIBUTION CENTER 7042,"4554 OSCAR NELSON, JR. DR",77521,Google geocoding API - GS,"c(-94.9071864, 29.7149056)",1
110056967368,MARATHON PETROLEUM COMPANY LP,502 10TH ST. SOUTH,77590,facilities_20220311.csv,"c(-94.9089301, 29.3771247)",1
110041225288,TEXAS CITY REFINERY,10TH ST. SOUTH,77590,facilities_20220311.csv,"c(-94.9092789, 29.3809203)",1
110056961480,ENTERPRISE PRODUCTS - MONT BELVIEU FACILITY,10207 FM 1942 RD,77523,Google geocoding API - GS,"c(-94.9122392, 29.8561295)",1
110031285231,TRIFECTA TRADING LLC,9400 FM 1405 RD,77523,facilities_20220311.csv,"c(-94.9136978, 29.6737332)",1
110070550891,"RAVEN BUTENE-1, LLC",9520 EAST FREEWAY,77521,facilities_20220311.csv,"c(-94.9139872, 29.8206484)",1
110000503054,TEXAS CITY TERMINAL,700 14TH STREET SOUTH,77590,facilities_20220311.csv,"c(-94.9143316, 29.377365)",1
110025334056,DUNA USA INC,4210 FM 1405,77523,facilities_20220311.csv,"c(-94.9148512, 29.7152991)",1
110008141705,SOLUTIA INC,CAMPBELL BAYOU ROAD,77590,facilities_20220311.csv,"c(-94.9150218, 29.3367297)",1
110000463702,MONT BELVIEU PLASTICS PLANT,13330 HATCHERVILLE RD,77535,facilities_20220311.csv,"c(-94.9160679, 29.8748599)",1
110000463855,SEA LION TECH  INC,1500 LOOP 197,77592,facilities_20220311.csv,"c(-94.916518, 29.3674338)",1
110070200837,"AIR PRODUCTS, BAYTOWN III",7714 WEST BAY RD.,77523,facilities_20220311.csv,"c(-94.9186448, 29.746359)",1
110009115545,CHEMICALS INCORPORATED,12321 HATCHERVILLE RD,77521,facilities_20220311.csv,"c(-94.919191, 29.8584669)",1
110009313484,MALONE SERVICE CO - SWAN LAKE PLANT,LOOP 197 S,77590,facilities_20220311.csv,"c(-94.9196323, 29.3633371)",1
110025334047,CENTURY ASPHALT LTD BAYTOWN FACILITY,4008 HWY 146,77520,facilities_20220311.csv,"c(-94.9209047, 29.7612518)",1
110013763775,BLANCHARD REFINING LAND TREATMENT FACILITY,LOOP 197 S LANDFARMS 1 & 2 BET,77592,facilities_20220311.csv,"c(-94.9215144, 29.3602159)",1
110040144331,"HP GAS PRODUCTS, INC.",6701 WEST BAY RD,77523-8712,facilities_20220311.csv,"c(-94.9221317, 29.7456067)",1
110070032056,TOPSAIL ENERGY BAYTOWN,6651 W BAY RD,77523,facilities_20220311.csv,"c(-94.9230646, 29.7444439)",1
110043457791,MONT BELVIEU EXPLOSION,9602 FM 1942,77523,facilities_20220311.csv,"c(-94.9269497, 29.8529477)",1
110063678079,PRAXAIR TEXAS CITY HYDROGEN COMPLEX,2401 5TH AVE S,77590,facilities_20220311.csv,"c(-94.9285206, 29.3779876)",1
110071160743,INEOS US CHEMICALS COMPANY,2800 FM 519E,77592,Google geocoding API - GS,"c(-94.9288976, 29.3604985)",1
110028187049,BP AMOCO CHEMICAL COMPANY,2800 FM 519 E,77592,facilities_20220311.csv,"c(-94.9291697, 29.3593223)",1
110070507074,"LONE STAR NGL FRAC 6,8",8774 FM 1942,77521,facilities_20220311.csv,"c(-94.929291, 29.8468517)",1
110059763536,GALVESTON BAY REFINERY,2401 FIFTH AVENUE SOUTH,77592,Google geocoding API - GS,"c(-94.9298188, 29.3786636)",1
110055499553,BLENPAC SERVICES,226 TEXAS CITY WYE,77568,facilities_20220311.csv,"c(-94.929981, 29.3341319)",1
110000463828,OILTANKING TEXAS CITY TERMINAL,2800 TX-197-LOOP S,77590,facilities_20220311.csv,"c(-94.936026, 29.4082464)",1
110037287637,PINE LAKE ROAD DUMPING,8000 PINE LAKE LANE,77521-9569,facilities_20220311.csv,"c(-94.9387242, 29.8304345)",1
110063678060,SOUTH HOUSTON GREEN POWER,2501 5TH AVENUE SOUTH,77590,facilities_20220311.csv,"c(-94.9406891, 29.3791517)",1
110000505524,UNION CARBIDE CORP TEXAS CITY PLANT,3301 5TH AVE S,77590,facilities_20220311.csv,"c(-94.9432078, 29.3784407)",1
110071071864,INEOS US CHEMICALS COMPANY,FM-519,77590,Google geocoding API - GS,"c(-94.9450881, 29.3584312)",1
110038299953,ASPHALT PLANT SN 09 113,EAST OF HATCHERVILLE RD APPROX 2.5 MI NORTH OF THE,77535,facilities_20220311.csv,"c(-94.945446, 29.9063647)",1
110070049106,OILTANKING GALVESTON COUNTY,2301 HIGHWAY 146 N,77590,Google geocoding API - GS,"c(-94.9468177, 29.3609979)",1
110040927067,ISP TEXAS CITY,HWY 146 & INDUSTRIAL RD,77539,facilities_20220311.csv,"c(-94.9519936, 29.391303)",1
110038856182,AIR SEPARATION FACILITY UCC,1720 HWY 146 SOUTH,77590,Google geocoding API - GS,"c(-94.9520011, 29.4011069)",1
110000607576,HUNTSMAN PETROCHEMICAL LLC,3892 US HIGHWAY 90 EAST,77535,facilities_20220311.csv,"c(-94.9531909, 29.9995195)",1
110000495214,CLEAN HARBORS SAN LEON,2700  AVE. 'S',77539,facilities_20220311.csv,"c(-94.9652792, 29.4683586)",1
110009313616,TEX-TIN CORP.,STATE HGWY 146 & FARM RD 519,77590,facilities_20220311.csv,"c(-94.9655778, 29.4390043)",1
110005175318,UNITED CHEMICAL TESTING,204 WYE DR STE A,77521,facilities_20220311.csv,"c(-94.9657737, 29.7562317)",1
110027151935,BAYER FACILITY EXPLOSION,8500 WEST RD.,77521,facilities_20220311.csv,"c(-94.9751701, 29.7880489)",1
110007177768,CHEVRON PHILLIPS CHEMICAL CO LP,9500 IH-10 EAST,77521,facilities_20220311.csv,"c(-94.9757892, 29.8058837)",1
110009320804,"MOTCO, INC.",JCT HIGHWAYS 3 6 & 75,77568,facilities_20220311.csv,"c(-94.9818357, 29.3904509)",1
110034388856,PROCESS SOLUTIONS,4415 E GREENWOOD ST,775209744,Google geocoding API - GS,"c(-94.9870491, 29.7299827)",1
110000463123,SOLVAY - BAYTOWN PLANT,3439 PARK ST,77520,facilities_20220311.csv,"c(-94.9890466, 29.7474492)",1
110000502901,EXXONMOBIL REFINING & SUPPLY BAYTOWN REFINERY,2800 DECKER DR,77520,facilities_20220311.csv,"c(-94.9916788, 29.756252)",1
110039512284,EXXON MOBIL BAYTOWN FIRE,500 BAYWARD DR,77520,facilities_20220311.csv,"c(-94.9950934, 29.8237029)",1
110000463114,BOC GASES BAYTOWN CO2 PLANT,100 SOUTH AIRHART ROAD,77520,facilities_20220311.csv,"c(-94.9975006, 29.7357529)",1
110008060677,KOCH MATERIALS CO,1220 AIRHART RD.,77520,facilities_20220311.csv,"c(-95.0005331, 29.7292948)",1
110070605436,EXXON-MOBIL BOP,3625 DECKER DRIVE,77520,facilities_20220311.csv,"c(-95.006082, 29.76389)",1
110043696685,SATELITE CHEMICAL TRAILER FIRE,"THE PORT OF HOUSTON, 12619 PORT RD.",77586,facilities_20220311.csv,"c(-95.0060993, 29.6051733)",1
110001867329,SEAWAY TEXAS CITY STATION,E SIDE ST HWY 3 BETWN INTX 197,77590,facilities_20220311.csv,"c(-95.0061841, 29.4175514)",1
110000463105,"NATURAL GAS ODORIZING, INC.",3601 DECKER DRIVE,77520,facilities_20220311.csv,"c(-95.0098357, 29.7616585)",1
110000463169,EXXONMOBIL CHEMICAL CO BAYTOWN OLEFINS PLANT (PART),3525 DECKER DR,77520,Google geocoding API - GS,"c(-95.010567, 29.7605481)",1
110055415242,TOTAL SPECIALTIES USA BAYPORT,12212 PORT RD HDA,77507,facilities_20220311.csv,"c(-95.0155767, 29.6029416)",1
110057185479,"LAYNE INLINER, LLC - BAYTOWN",4701 DECKER,77520,facilities_20220311.csv,"c(-95.016214, 29.7715688)",1
110000504419,ODFJELL TERMINALS (HOUSTON) INC,12211 PORT RD,77586,facilities_20220311.csv,"c(-95.0169661, 29.6066618)",1
110008143963,ENTERPRISE MORGAN'S POINT COMPLEX,1200 N BROADWAY,77571,facilities_20220311.csv,"c(-95.0191805, 29.6822362)",1
110000501519,SI GROUP BAYTOWN,4604 W BAKER RD,77520,facilities_20220311.csv,"c(-95.0191805, 29.7698774)",1
110000463070,ADVANCED AROMATICS LLC,5501 BAKER RD,77520,facilities_20220311.csv,"c(-95.0195869, 29.7670648)",1
110000463800,SEA LION TECHNOLOGY INC,5700 CENTURY BOULEVARD,77590,facilities_20220311.csv,"c(-95.0198205, 29.4241992)",1
110000505588,LCY ELASTOMERS LP,4803 DECKER DRIVE,77520,facilities_20220311.csv,"c(-95.0198713, 29.7745882)",1
110000463258,ARKEMA CROSBY PLANT,18000 CROSBY EASTGATE RD,77532,facilities_20220311.csv,"c(-95.0234126, 29.948928)",1
110012710423,AIR PRODUCTS BAYTOWN PLANT,5503 WEST BAKER ROAD,77520,facilities_20220311.csv,"c(-95.0235568, 29.7693608)",1
110045656848,LEAGUE CITY PAVING,2514 ANDERS,77565,facilities_20220311.csv,"c(-95.0243818, 29.5209678)",1
110061565747,EXXONMOBIL - BTEC,5200 BAYWAY DR,77520,Google geocoding API - GS,"c(-95.0245037, 29.7423785)",1
110000504240,"LBC HOUSTON, L.P.",11666 PORT ROAD,77586,facilities_20220311.csv,"c(-95.0282018, 29.6079314)",1
110000599488,POLY ONE CORP,5306 HIGHWAY 146,77586,Google geocoding API - GS,"c(-95.0296014, 29.5921886)",1
110005024286,UNITED SURVEYORS OF CHEMICALS,7501 BAYWAY DR,77520,facilities_20220311.csv,"c(-95.0322049, 29.7725192)",1
110005162796,UNITED CHEMICAL TESTING,7503 BAYWAY DR,77520,facilities_20220311.csv,"c(-95.0322049, 29.7726996)",1
110033874911,GAS INNOVATIONS,18005 E HIGHWAY 225,77571,facilities_20220311.csv,"c(-95.0326317, 29.6897174)",1
110021001253,UNION PACIFIC SEABROOK DERAILMENT,MILEPOSE 6.08,77586,facilities_20220311.csv,"c(-95.033851, 29.5837324)",1
110040905358,LA PORTE PLANT,6 MI N E OF DEER PARK E OF TX HWY 134 N OF TX HWY 225,77571,facilities_20220311.csv,"c(-95.0359192, 29.6879968)",1
110009770667,D.B. WESTERN - TEXAS,12511 STRANG RD,77572,facilities_20220311.csv,"c(-95.0361067, 29.6949798)",1
110033481006,A SCHULMAN LA PORTE,1300 MCCABE RD,77571,facilities_20220311.csv,"c(-95.0362287, 29.6285157)",1
110033019301,AMPAC FINE CHEMICALS,914 S 16TH ST,77571,facilities_20220311.csv,"c(-95.0363034, 29.6546788)",1
110000463668,LAUREL INDUSTRIES,780 S 16TH ST,77571,facilities_20220311.csv,"c(-95.0363404, 29.6563505)",1
110017874736,INVISTA SA RL - LA PORTE PL ANT,12455 STRANG RD,77571,facilities_20220311.csv,"c(-95.0371144, 29.7027448)",1
110017836831,"MC KENZIE TANK LINES, INC.",11500 CHOATE ROAD,77507,facilities_20220311.csv,"c(-95.037401, 29.619015)",1
110000463542,E I DUPONT DE NEMOURS - LA PORTE PLANT,12501 STRANG RD,77571,facilities_20220311.csv,"c(-95.0378545, 29.7025417)",1
110000463579,MATHESON TRI-GAS INC,1920 W. FAIRMONT PKY.,77571,facilities_20220311.csv,"c(-95.0381593, 29.6528493)",1
110064375260,CHEMOURS LA PORTE PLANT,12350 STRANG ROAD,77571,facilities_20220311.csv,"c(-95.0382685, 29.7025633)",1
110001145528,ZEON CHEMICALS TEXAS PLANT,11235 CHOATE ROAD,77507,facilities_20220311.csv,"c(-95.0390739, 29.6206403)",1
110070062322,LA PORTE PLANT,12342 STRANG RD & SENS RD,77571,facilities_20220311.csv,"c(-95.0394602, 29.702256)",1
110005172357,NISSAN CHEMICAL AMERICA PASADENA PLANT,12330 BAY AREA BLVD,77507,facilities_20220311.csv,"c(-95.0399478, 29.6372484)",1
110012141529,SEPTON COMPANY OF AMERICA,11414 CHOATE ROAD,77507,facilities_20220311.csv,"c(-95.0402527, 29.6187439)",1
110046248208,DHL WAREHOUSE SECTION HP,11935 HIGHWAY 225 SENS RD ROOM 2,77571,facilities_20220311.csv,"c(-95.0404205, 29.6913814)",1
110000462838,PEROXYCHEM LLC BAYPORT PLANT,12000 BAY AREA BLVD.,77507,facilities_20220311.csv,"c(-95.0410476, 29.6260787)",1
110005184987,BASF CORPORATION,12502 BAY AREA BLVD,77507,facilities_20220311.csv,"c(-95.0412689, 29.6394787)",1
110000757734,LA PORTE SENS ROAD FACILITY,11935 HWY 225,77571-9756,Google geocoding API - GS,"c(-95.0414762, 29.6914508)",1
110000462990,SSI CHUSEI INC,12500 BAY AREA BLVD.,77507,facilities_20220311.csv,"c(-95.0414937, 29.6380184)",1
110000463034,"ATHLON SOLUTIONS, LLC",11200 BAY AREA BOULEVARD,77507,facilities_20220311.csv,"c(-95.0423461, 29.6180549)",1
110041043634,KURARAY AMERICA EVALBU,11500 BAY AREA BLVD BAY AREA & CHOATE RD,77507,facilities_20220311.csv,"c(-95.0429152, 29.6220979)",1
110000495241,NOLTEX,12220 STRANG RD,77571,facilities_20220311.csv,"c(-95.0441957, 29.7015788)",1
110000462758,AIR LIQUIDE LARGE INDUSTRIES USLP,11400 BAY AREA BOULEVARD,77507,facilities_20220311.csv,"c(-95.044746, 29.6216249)",1
110005079066,LEAGUE CITY PETROLEUM BLENDING,FM 1266 HOUSTON GULF AIRPORT,77573,Google geocoding API - GS,"c(-95.0447785, 29.5024404)",1
110009495698,"TRIGAS, INC. (PASADENA)",13440 BAY AREA BLVD,77507,facilities_20220311.csv,"c(-95.04509, 29.650261)",1
110021106435,HUISH DETERGENTS,12400 BAY AREA BLVD.,77507,facilities_20220311.csv,"c(-95.0453288, 29.6284474)",1
110012702753,SUN PRODUCTS CORPORATION TEXAS,12700 BAY AREA BLVD,77507,facilities_20220311.csv,"c(-95.0459354, 29.6404053)",1
110014363624,SUPERIOR CARRIERS,12520 BAY AREA BLVD,77507,facilities_20220311.csv,"c(-95.045964, 29.6382846)",1
110000463613,ROHM AND HAAS CHEMICALS BAYPORT PLANT,13300 BAY AREA BLVD,77507,facilities_20220311.csv,"c(-95.0461607, 29.6462121)",1
110000462794,E R CARPENTER - ROGER W POWELL PLANT,11002 CHOATE RD,77507,facilities_20220311.csv,"c(-95.0462893, 29.6176796)",1
110034008776,LA PORT WEST PLANT,APPROX 0.5 MI W OF SENS RD ON HWY 225 W-BOUND FEED,77571,facilities_20220311.csv,"c(-95.0467605, 29.6835947)",1
110000462936,LUBRIZOL CORP BAYPORT FACILITY,12801 BAY AREA BOULEVARD,77507,facilities_20220311.csv,"c(-95.0468098, 29.6394714)",1
110002343642,CENTAURI TECHNOLOGIES LP,13000 BAY AREA BLVD,77507,facilities_20220311.csv,"c(-95.0468587, 29.6449194)",1
110043418655,INTERGULF MARINE TERMINAL,12003 STRANG RD,775719734,Google geocoding API - GS,"c(-95.0471226, 29.7044014)",1
110000462856,THE GOODYEAR TIRE & RUBBER CO BAYPORT CHEMICAL PLANT,13441 BAY AREA BOULEVARD,77507,facilities_20220311.csv,"c(-95.0476308, 29.6475683)",1
110009313359,HIGHLANDS ACID PIT,611 BATTLEBELL - CLEAR LAKE ROAD,77562,facilities_20220311.csv,"c(-95.0478691, 29.8107963)",1
110000463588,INDUSTRIAL PIPE AND PLASTICS SSA,11807 NORTH D STREET,77571,facilities_20220311.csv,"c(-95.0479303, 29.6704438)",1
110037985240,AMERICAN ACRYL PASADENA,STATE HIGHWAY 146 AND PORT RD,77586,facilities_20220311.csv,"c(-95.048346, 29.610515)",1
110000463007,LYONDELL CHEMICAL CO BAYPORT FACILITY,10801 CHOATE RD,77507,facilities_20220311.csv,"c(-95.0484032, 29.620851)",1
110021001262,UNION PACIFIC SHOREACRES DERAILMENT,BAY AREA BLVD. & PORT RD.,77571,facilities_20220311.csv,"c(-95.0485669, 29.6109141)",1
110037850974,AIRGAS DRY ICE,11900 STRANG RD,77571,facilities_20220311.csv,"c(-95.0495841, 29.700603)",1
110000462829,DIXIE CHEMICAL COMPANY INC,10701 BAY AREA BLVD,77507,facilities_20220311.csv,"c(-95.0498668, 29.6114015)",1
110000463524,ZXP TECHNOLOGIES LTD,409 E. WALLISVILLE RD.,77562,facilities_20220311.csv,"c(-95.0501717, 29.8175733)",1
110009313331,SIKES DISPOSAL PITS,US HWY 90,77532,facilities_20220311.csv,"c(-95.0508545, 29.9064042)",1
110017713125,JACOBSON WAREHOUSE COMPANY,11505 HIGHWAY 225,77571,Google geocoding API - GS,"c(-95.0512491, 29.6956009)",1
110031409973,DIXIE CHEMICAL PLANT B,10601 BAY AREA BLVD,77507,facilities_20220311.csv,"c(-95.0519199, 29.6102171)",1
110000462892,"EQUISTAR CHEMICALS, LP.",12001 BAY AREA BLVD,77507,facilities_20220311.csv,"c(-95.0520622, 29.6321826)",1
110000462963,JX NIPPON CHEMICAL TEXAS INC,10500 BAY AREA BLVD,77507,Google geocoding API - GS,"c(-95.0527988, 29.6070311)",1
110034105091,JACOBSON WAREHOUSE COMPANY,11427 HWY 225,77571,Google geocoding API - GS,"c(-95.0538511, 29.6951408)",1
110000462801,GRACE PASADENA CATALYST SITE,10001 CHEMICAL RD,77507,Google geocoding API - GS,"c(-95.0539597, 29.6174024)",1
110016668319,AIR LIQUIDE AMERICA SPECIALTY GASES LA PORTE,11426 FAIRMOUNT PARKWAY,77571,facilities_20220311.csv,"c(-95.053962, 29.647753)",1
110034380195,PLASTIPAK PACKAGING,222 KERRY RD,775623804,Google geocoding API - GS,"c(-95.0540951, 29.8177619)",1
110002134146,HENKEL CORP,16615 RAMSEY RD.,77532,facilities_20220311.csv,"c(-95.0543078, 29.9236181)",1
110005125587,NOVA MOLECULAR TECHNOLOGIES I NC,10200 BAY AREA BOULEVARD,77507,facilities_20220311.csv,"c(-95.054777, 29.6068)",1
110070557969,MESSER LLC,11605 STRANG ROAD,77571,Google geocoding API - GS,"c(-95.0550286, 29.7024365)",1
110002134084,ALPHACHEM INC,11011 FAIRMONT PKY,77507,facilities_20220311.csv,"c(-95.0551929, 29.6521574)",1
110061671043,ROCKWOOD LITHIUM INC,10150 BAY AREA BLVD,77507,facilities_20220311.csv,"c(-95.0563937, 29.6066368)",1
110059775989,RUSSS OIL FILTER DISPOSAL,307 307 FONTAINE ST,77532-6283,Google geocoding API - GS,"c(-95.0574901, 29.882175)",1
110005179975,HOUSTON MARINE SERVICE INC.,850 S LYNCHBURG RD,77520,facilities_20220311.csv,"c(-95.0575823, 29.7906951)",1
110055045892,NORTH HIGHLANDS GROUNDWATER,N. MAIN ST. & HIGHLAND SHORES RD.,77562,facilities_20220311.csv,"c(-95.0578575, 29.8374252)",1
110005184601,INTERGULF CORPORATION,10020 BAYPORT BLVD,77507,facilities_20220311.csv,"c(-95.0580289, 29.6101317)",1
110000462883,HALDOR TOPSOE INC,10010 BAYPORT RD.,77507,facilities_20220311.csv,"c(-95.0586897, 29.6113825)",1
110005029851,DUPONT BAYPORT PLANT,9701 BAYPORT BLVD,77507,facilities_20220311.csv,"c(-95.058893, 29.6185557)",1
110000504507,AMOCO CHEMICALS,9548 INTERSATE 10 EAST,77520,facilities_20220311.csv,"c(-95.0593682, 29.7916051)",1
110000462810,DIANAL AMERICA INCORPORATED,9675 BAYPORT BOULEVARD,77507,facilities_20220311.csv,"c(-95.0595435, 29.6170857)",1
110071175656,PRAXAIR CLEAR LAKE PLANT,NW CORNER OF CELANESE INDUSTRIAL COMPLEX ON FAR N END OF BAYPORT BLVD,77507,Google geocoding API - GS,"c(-95.0599018, 29.6160395)",1
110070366998,UMICORE CATALYST USA,9900 BAYPORT BLVD,77507,Google geocoding API - GS,"c(-95.0603568, 29.6136224)",1
110000462945,GULF BAYPORT CHEMICALS LP,9700 BAYPORT BOULEVARD,77507,facilities_20220311.csv,"c(-95.0604178, 29.6150427)",1
110005174337,OXITENO PASADENA PLANT,9801 BAY AREA BLVD,77507,facilities_20220311.csv,"c(-95.0608041, 29.6080502)",1
110060259704,CHEMQUEST CHEMICALS LLC,9730 BAY AREA BLVD,77507,facilities_20220311.csv,"c(-95.061292, 29.6045991)",1
110009313340,"FRENCH, LTD.",SAN JACINTO RIVER CROSSING,77532,facilities_20220311.csv,"c(-95.0621512, 29.9118885)",1
110022810573,BAYPORT PLANT,13000 BAYPARK RD,77507,facilities_20220311.csv,"c(-95.0646672, 29.6433532)",1
110044232773,AKZO NOBEL POLYMER CHEMICALS,12900 BAY PARK ROAD,77507,facilities_20220311.csv,"c(-95.0652437, 29.6464028)",1
110059674115,AIRGAS USA LA PORTE REGION,616 MILLER CUT OFF RD,77571,facilities_20220311.csv,"c(-95.0660092, 29.7028471)",1
110045563528,NIPPON SHOKUBAI AMERICA INDUSTRIES PASADENA,SOUTHEAST CORNER OF PORT ROAD,77507,Google geocoding API - GS,"c(-95.0663543, 29.626112)",1
110008160337,"INEOS USA, LLC - LAPORTE PAO FACILITY",1230 MILLER CUT-OFF RD GATE 10,77571,Google geocoding API - GS,"c(-95.0667713, 29.7103018)",1
110070100753,"INEOS USA, LLC - LAPORTE PAO FACILITY",1514 MILLER CUT OFF RD,77571,facilities_20220311.csv,"c(-95.0669215, 29.7135895)",1
110034210262,OCCIDENTAL CHEMICAL LA PORTE,"N OF MILLER CUT OFF, E OF BATTLE GROUND, LA PORTE,",77571,facilities_20220311.csv,"c(-95.0669472, 29.7080067)",1
110060261185,KIOR CORP,13001 BAY PARK RD,77507,facilities_20220311.csv,"c(-95.0670462, 29.6410274)",1
110070819603,"AIR PRODUCTS AND CHEMICALS LAPORTE, LYH",10207 STRANG ROAD,77571,Google geocoding API - GS,"c(-95.0682052, 29.7016801)",1
110070882039,BATTLEGROUND OIL SPECIALTY TERMINAL,APPROX 1.7 MI N OF THE INTX OF MILLER CUT OFF RD A,77571,Google geocoding API - GS,"c(-95.0686127, 29.7136299)",1
110066988120,BOSTCO TERMINAL,1836 MILLER CUT OFF ROAD,77571,Google geocoding API - GS,"c(-95.0693346, 29.7209209)",1
110067040703,CELANESE LTD CLEAR LAKE PLANT,9502 BAYPORT BLVD,77507,facilities_20220311.csv,"c(-95.0696915, 29.6187198)",1
110070191352,PRAXAIR CLEAR LAKE PLANT,NW CORNER OF CELANESE INDUSTRIAL COMPLEX ON FAR N,77507,facilities_20220311.csv,"c(-95.0696915, 29.6187199)",1
110000702151,SOUTHERN IONICS INC.,12901 BAY PARK RD,77507,facilities_20220311.csv,"c(-95.0701675, 29.6404005)",1
110060240957,CELANESE,GUN RANGE,77507,Google geocoding API - GS,"c(-95.0702794, 29.6343793)",1
110000463622,AIR PRODUCTS LLC,10202 STRANG RD,77571,facilities_20220311.csv,"c(-95.0708691, 29.7007434)",1
110064118761,HOUSTON MARINE SERVICES BAYTOWN TERMINAL,850 INDEPENDENCE PKWY N,77520,facilities_20220311.csv,"c(-95.0715027, 29.7662243)",1
110070946720,AMAZONCOM SERVICES STX4,10611 10611 RED BLUFF RD,77507-1168,Google geocoding API - GS,"c(-95.073572, 29.6092595)",1
110032744653,INTERGULF STRANG ROAD FACILITY,9400 STRANG RD,77571,facilities_20220311.csv,"c(-95.074861, 29.700688)",1
110017769734,OXY VINYLS LP - LA PORTE VCM PLANT,2400 MILLER CUT OFF RD,77571,facilities_20220311.csv,"c(-95.0779767, 29.7257562)",1
110017613304,PATTY OIL SERVICE,17022 SCUTTLE WAY,77532,facilities_20220311.csv,"c(-95.078597, 29.9294543)",1
110000463631,BRASKEM AMERICA INC LAPORTE SITE,8811 STRANG RD,77571,facilities_20220311.csv,"c(-95.0804274, 29.7039887)",1
110000462954,BAYPORT POLYETHYLENE PLANT,9802 FAIRMONT PARKWAY,77507,facilities_20220311.csv,"c(-95.0807497, 29.6374921)",1
110005113705,FRENCH PROJECT,1024 GULF PUMP RD,77532,facilities_20220311.csv,"c(-95.0811563, 29.8797294)",1
110040516689,HITCH TRAIN,12000 BLOCK OF HIGHWAY 6 NEAR F.M. 646,78069,facilities_20220311.csv,"c(-95.0822277, 29.3702995)",1
110000462918,KANEKA NORTH AMERICA LLC,6161 UNDERWOOD RD,77507,facilities_20220311.csv,"c(-95.0836817, 29.6227814)",1
110070189812,INTERNATIONAL DISTRIBTION,4331 UNDERWOOD RD STE 400,775071085,Google geocoding API - GS,"c(-95.0841527, 29.6488428)",1
110001869620,CHANNELVIEW ASPHALT FACILITY,17310 MARKET STREET,77530,facilities_20220311.csv,"c(-95.0861123, 29.7896899)",1
110012183216,CENTAURI TECHNOLOGIES LP,5200 UNDERWOOD RD,77507,facilities_20220311.csv,"c(-95.0868548, 29.6361168)",1
110033019338,KANEKA TEXAS CPVC PLANT,5800 UNDERWOOD RD,77507,facilities_20220311.csv,"c(-95.0870823, 29.6282365)",1
110000756717,OXY VINYLS LP BATTLEGROUND PLANT,2800 PARK RD,77571,facilities_20220311.csv,"c(-95.0872733, 29.7344596)",1
110005186716,"BRENNTAG SOUTHWEST, PASADENA",5100 UNDERWOOD RD,77507,facilities_20220311.csv,"c(-95.0873633, 29.6386034)",1
110070165316,EXEL LOGISTICS,9705 HWY 225,77571,facilities_20220311.csv,"c(-95.0873633, 29.7083041)",1
110055948122,CLEARWATER INTERNATIONAL PASADENA WAREHOUSE,9770 NEW CENTURY DR STE 800,775071844,Google geocoding API - GS,"c(-95.0876275, 29.647452)",1
110035012223,AMERICAN RECONTAINER HOUSTON,5000 UNDERWOOD RD,775071001,Google geocoding API - GS,"c(-95.0880142, 29.6403847)",1
110033940118,JACOBSON WAREHOUSE COMPANY,9770 NEW CENTURY DR,775071844,Google geocoding API - GS,"c(-95.0883397, 29.6475966)",1
110022925557,KANEKA TEXAS,6250 UNDERWOOD RD,77507,facilities_20220311.csv,"c(-95.08836, 29.6209767)",1
110032955853,VOPAK TERMINAL DEER PARK,2759 BATTLEGROUND RD,77536,Google geocoding API - GS,"c(-95.0886921, 29.6906701)",1
110070368851,"TOTAL PETROCHEMICALS & REFINING USA, INC.",1818 INDEPENDENCE PKWY S,77571-9803,Google geocoding API - GS,"c(-95.0892669, 29.7282872)",1
110009313643,GENEVA INDUSTRIES/FUHRMANN ENERGY,9334 CANIFF RD,77017,facilities_20220311.csv,"c(-95.0897792, 29.6538649)",1
110041626443,LUBRIZOL ADVANCED MATERIALS LAPORTE FACILITY,600 INDEPENDENCE PKWY,77571,Google geocoding API - GS,"c(-95.0898389, 29.7106952)",1
110070550374,ITC 80S TANK FARM,1943 INDEPENDENCE PARKWAY SOUTH,77571,facilities_20220311.csv,"c(-95.0899438, 29.7294006)",1
110070164098,SONGWON INTERNATIONAL AMERICAS INC. - LA PORTE,102 OLD UNDERWOOD RD,77571,Google geocoding API - GS,"c(-95.089967, 29.7020662)",1
110064116781,TECHNO SYSTEMS,552 INDEPENDENCE PKWY,77571,Google geocoding API - GS,"c(-95.0900375, 29.7102005)",1
110006133576,RAPID MARINE FUELS,7815 HIGHWAY 225,77571,facilities_20220311.csv,"c(-95.0905759, 29.7046808)",1
110017743281,BATTLEGROUND RD FACILITY,2525 BATTLEGROUND RD,77536,facilities_20220311.csv,"c(-95.0908621, 29.7338927)",1
110033235513,AIR PRODUCTS BATTLEGROUND ROAD,2210 S BATTLEGROUND RD,77571,facilities_20220311.csv,"c(-95.0912826, 29.692117)",1
110000499050,GEO SPECIALTY CHEMICALS (FORMERLY HAMPSHIRE),739 INDEPENDENCE PARKWAY,77536,facilities_20220311.csv,"c(-95.0925709, 29.7164084)",1
110000619652,TOTAL PETROCHEMICALS & REFINING USA INC,1818 BATTLEGROUND ROAD,77536,facilities_20220311.csv,"c(-95.0931075, 29.6955313)",1
110001867775,GATX TERMINAL CORPORATION,1777 BATTLEGROUND ROAD,77536,facilities_20220311.csv,"c(-95.0931982, 29.6958851)",1
110000463383,VALVOLINE DEER PARK,2627 TIDAL RD.,77536,facilities_20220311.csv,"c(-95.093233, 29.7333161)",1
110000495189,NASA LYNDON B. JOHNSON SPACE CENTER,2101 NASA ROAD 1,77058-3691,facilities_20220311.csv,"c(-95.0933748, 29.552908)",1
110000755193,"ROHM AND HAAS CHEMICALS LLC, LONE STAR PLANT",1800 TIDAL ROAD,77536,facilities_20220311.csv,"c(-95.0976536, 29.7327934)",1
110002343303,AQUA SOLUTIONS,6913 B HIGHWAY 225,77536,facilities_20220311.csv,"c(-95.0978196, 29.7070455)",1
110070293489,AQUA SOLUTIONS,6913 HIGHWAY 225,77536-2414,Google geocoding API - GS,"c(-95.0980044, 29.7075508)",1
110005064688,AIR LIQUIDE DEER PARK,2300 TIDAL RD,77536,facilities_20220311.csv,"c(-95.0988775, 29.7316446)",1
110070789259,HARTREE CHANNELVIEW FACILITY,16518 DE ZAVALLA ROAD,77530,Google geocoding API - GS,"c(-95.0990971, 29.7620291)",1
110070225688,HOUSTON MARINE TERMINAL,2345 TIDAL ROAD,77536,Google geocoding API - GS,"c(-95.0991904, 29.7323886)",1
110035362318,ROHMAX USA LP,1700 TIDAL RD,77536,facilities_20220311.csv,"c(-95.1005682, 29.731447)",1
110000460983,JOHANN HALTERMANN,16717 JACINTOPORT BOULEVARD,77015,facilities_20220311.csv,"c(-95.1009324, 29.755231)",1
110031302365,K-SOLV,1007 LAKESIDE DR,77530,Google geocoding API - GS,"c(-95.1028702, 29.7683751)",1
110000842820,VICKERS INDUSTRIAL COATINGS INC,16537 SHADY LANE,77530,facilities_20220311.csv,"c(-95.1054698, 29.8097938)",1
110008060436,CONTROL SOLUTIONS,5903 GENOA RED BLUFF,77507,facilities_20220311.csv,"c(-95.1064058, 29.6376928)",1
110034102450,GENERAL CARGO TERMINAL,16800 PENINSULA ST,770156568,Google geocoding API - GS,"c(-95.1076165, 29.7437507)",1
110009780371,HOUSTON FUEL OIL TERMINAL,"16642 JACINTOPORT BLVD, N.",77015,facilities_20220311.csv,"c(-95.107778, 29.752057)",1
110054094868,HALDOR TOPSOE INC,"17629 EL CAMINO REAL, SUITE 300",77058,Google geocoding API - GS,"c(-95.108115, 29.548828)",1
110035301768,VALERO CORNER STORE 2385,2404 BAY AREA BLVD,77058,facilities_20220311.csv,"c(-95.1087458, 29.5725447)",1
110070135261,DELL DALE FIRE,DELL DALE EXIT OF I-10,77530,facilities_20220311.csv,"c(-95.1094927, 29.7838814)",1
110043782788,OXY VINYLS LP - DEER PARK PVC,1000 TIDAL ROAD,77536,facilities_20220311.csv,"c(-95.1116965, 29.7294818)",1
110009312671,PATRICK BAYOU,"N 29 43'55""""/W 95 06'52.5""""",77536,facilities_20220311.csv,"c(-95.1119407, 29.6790149)",1
110000461063,SOUTH ATLANTIC SERVICES,16530 PENINSULA BLVD,77015,facilities_20220311.csv,"c(-95.1120463, 29.7427386)",1
110002345828,PRAXAIR DEER PARK PLANT,622 TIDAL ROAD,77536,facilities_20220311.csv,"c(-95.112213, 29.718838)",1
110000463285,DELTA DEER PARK,334 TIDAL RD.,77536,facilities_20220311.csv,"c(-95.1122663, 29.7140267)",1
110005193352,AIR PRODUCTS AND CHEMICALS INC,17403 WALLISVILE RD,77530,Google geocoding API - GS,"c(-95.1124494, 29.824611)",1
110005188493,FLEX OIL SERVICES LLC,16514A DEZAVALA RD,77530,facilities_20220311.csv,"c(-95.1153339, 29.7792552)",1
110002133735,EXXON CHEMICAL CO CHANNELVIEW PLANT,17402 WALLISVILLE RD.,77049,facilities_20220311.csv,"c(-95.1160414, 29.8214378)",1
110000751758,EVAL BUSINESS UNIT,1150 BAY AREA BLVD,77507,facilities_20220311.csv,"c(-95.116829, 29.5573634)",1
110005138350,SEAMASTER MARINE COATINGS INC,1223 BECKER ST,77530,facilities_20220311.csv,"c(-95.1177204, 29.7999856)",1
110033482540,ALLEN GENOA ASPHALT PLANT,ALONG GALVESTON RD (SH 3) BETWEEN SHAVER ST AND GE,77034,facilities_20220311.csv,"c(-95.1181169, 29.5376556)",1
110009493654,AIR LIQUIDE LARGE INDUSTRIES CHANNELVIEW,2000 SHELDON RD,77530,facilities_20220311.csv,"c(-95.1191043, 29.8122892)",1
110013293211,TOTAL CRAY VALLEY CV2,8280 SHELDON RD SMA CONTROL BUILDIN,77530,facilities_20220311.csv,"c(-95.1191702, 29.8351664)",1
110000463212,EQUISTAR CHEMICALS,8280 SHELDON RD.,77530,facilities_20220311.csv,"c(-95.1191745, 29.8351449)",1
110070888286,VOPAK MODA HOUSTON TERMINAL,6601 STATE HIGHWAY 225,77536,Google geocoding API - GS,"c(-95.121986, 29.7114642)",1
110070498744,HFOTCO LLC,15855 JACINTOPORT BLVD,77015,Google geocoding API - GS,"c(-95.1227679, 29.7498101)",1
110024271786,OILTANKING HOUSTON INC,15602 JACINTOPORT BOULEVARD,77015,facilities_20220311.csv,"c(-95.1228172, 29.7463393)",1
110064465289,PETROMAX SHELDON ROAD,1519 S SHELDON RD,77015,facilities_20220311.csv,"c(-95.1233733, 29.7514681)",1
110021138295,POLYPROPYLENE PLANT,2 MI N OF HWY 225 ON BATTLEGROUND RD,77571,facilities_20220311.csv,"c(-95.1237883, 29.7114231)",1
110000463221,LYONDELL CHEMICAL CO,2502 SHELDON RD.,77530,facilities_20220311.csv,"c(-95.1240909, 29.8189734)",1
110000463196,DOW HALTERMANN PLANT 2,1201 SOUTH SHELDON ROAD,77530,facilities_20220311.csv,"c(-95.1240928, 29.7993968)",1
110005122081,JOHN CRANE,17080 MILL FOREST RD,77598,facilities_20220311.csv,"c(-95.1247, 29.5461981)",1
110041043992,BAKER PETROLITE CHANNELVIEW,16950 WALLISVILLE ROAD,77530,Google geocoding API - GS,"c(-95.1247321, 29.819749)",1
110013797221,WEBSTER - GULF NUCLEAR,202 MEDICAL CENTER BLVD.,77598,facilities_20220311.csv,"c(-95.1250069, 29.5428025)",1
110005011343,DIAGNOSTIC SYSTEMS LABORATORIES,445 MEDICAL CENTER BLVD,77598,facilities_20220311.csv,"c(-95.1250824, 29.5402486)",1
110002049275,CHEVRON CHEMICAL CO,1515 SHELDON ROAD,77530,facilities_20220311.csv,"c(-95.1250966, 29.808846)",1
110070180922,PRAXAIR CHANNELVIEW PSA,17155 WALLISVILLE RD,77049,facilities_20220311.csv,"c(-95.1255933, 29.8210895)",1
110060257617,BAKER HUGHES OILFIELD OPERATIONS INC,9902 SHELDON RD,77049,facilities_20220311.csv,"c(-95.1272256, 29.8592957)",1
110000463230,"TEX-TRUDE, INC",2001 SHELDON ROAD,77530,facilities_20220311.csv,"c(-95.128894, 29.8129797)",1
110040962768,BULK LIQUIDS STORAGE & DISTRIBUTION TERMINAL,15602 JACINTOPORT BLVD,77015,Google geocoding API - GS,"c(-95.1293066, 29.7371051)",1
110034210636,CEDAR PROCESSING INC,3215 LONG BOUGH CT,770592825,Google geocoding API - GS,"c(-95.1333231, 29.6072785)",1
110000822511,SGS NORTH AMERICA,1201 W 8TH                 ST,77536,facilities_20220311.csv,"c(-95.1333529, 29.7053604)",1
110000461731,EVANS HOUSTON CORPORATION,10521 SHELDON RD.,77044,facilities_20220311.csv,"c(-95.1334343, 29.8680033)",1
110033706648,JAM DISTRIBUTING COMPANY,711 W BAY AREA BLVD,77598,facilities_20220311.csv,"c(-95.1351968, 29.5431501)",1
110070180646,GARNER DEER PARK OFFICE,1717 W 13TH ST,77536,facilities_20220311.csv,"c(-95.1387276, 29.7002783)",1
110031374572,PORTRAIT INNOVATIONS,19419 GULF FWY STE 2,77598,facilities_20220311.csv,"c(-95.1393993, 29.5424848)",1
110041716220,VALERO CORNER STORE 2184,6335 SPENCER HWY,77505,facilities_20220311.csv,"c(-95.1412074, 29.6659481)",1
110064847206,APPELT TERMINAL,2500 APPELT DR,77015,Google geocoding API - GS,"c(-95.1427114, 29.7643449)",1
110070887225,HOUSTON TANK TERMINAL,7101 MILLER RD 2 POSITIONED AT THE N SIDE OF MOORE RD W OF THE CORNER OF THE INTX OF MOORE RD AND MI,77049,Google geocoding API - GS,"c(-95.1430639, 29.8254082)",1
110005085772,BAYSHORE PETROLEUM CO,6224 SPENCER HWY LOT C,77505,facilities_20220311.csv,"c(-95.1432272, 29.6654161)",1
110000822628,CORE LABORATORIES INC - SAYBOLT,2216 CATALINA,77503-3521,Google geocoding API - GS,"c(-95.1443878, 29.6786199)",1
110005067612,CHEMICAL PROCESS AND PRODUCTION,15133 LINDA LANE,77517,facilities_20220311.csv,"c(-95.1445711, 29.3630858)",1
110000462605,OXY VINYLS LP HOUSTON OPERATIONS PASADENA PVC PLANT,4403 PASADENA FREEWAY,77503,facilities_20220311.csv,"c(-95.1448388, 29.7117523)",1
110005192255,TRI-GAS,4403 TENNECO RD,77502,Google geocoding API - GS,"c(-95.148759, 29.713349)",1
110006127173,T J S ENTERPRISE,16535 HIGHWAY 6,77517,facilities_20220311.csv,"c(-95.1506595, 29.3935416)",1
110071160421,PASADENA PLANT,3003 STATE HIGHWAY 225,77503,Google geocoding API - GS,"c(-95.1524181, 29.7120826)",1
110070379462,"MVP TERMINALLING, LLC - PASADENA TERMINAL",3449 PASADENA FWY,77503,Google geocoding API - GS,"c(-95.1540876, 29.7119671)",1
110063945085,APPELT TERMINAL,EAST OF BELTWAY 8 AND NORTH OF JACINTOPORT BOULEVARD NEAR THE HOUSTON SHIP CHANNEL,77015,Google geocoding API - GS,"c(-95.1550904, 29.7620012)",1
110005019078,QUALITEX NEWPARK,14380 TALCOTT,77015,facilities_20220311.csv,"c(-95.155257, 29.7673652)",1
110000462623,INEOS AMERICAS PASADENA SITE,3503 PASADENA FWY,77503,facilities_20220311.csv,"c(-95.1585405, 29.7149804)",1
110005024026,INDUSTRIAL PIPE AND PLASTICS,3414 LILAC STE B,77505,facilities_20220311.csv,"c(-95.1592945, 29.6606174)",1
110000462641,BAYER CROPSCIENCE,3310 PASADENA BLVD,77503,facilities_20220311.csv,"c(-95.1632254, 29.6798525)",1
110070061386,ITC PASADENA TERMINAL,1030 ETHYL ROAD,77503,Google geocoding API - GS,"c(-95.1642846, 29.7246255)",1
110000606933,INEOS USA LLC - CHOCOLATE BAYOU PLANT,2 MILES SOUTH OF INTERSECTION FM2004 & FM2917,77511,facilities_20220311.csv,"c(-95.1669232, 29.2500584)",1
110035162748,STARCHEM CLEVELAND,421 N FOSTORIA ROAD,77328,facilities_20220311.csv,"c(-95.1672344, 30.3313566)",1
110012703315,MARBLE PRODS  INC,12722 GALVESTON RD.,77598,facilities_20220311.csv,"c(-95.1681045, 29.5907819)",1
110000461054,ISK MAGNETICS INC,2237 HADEN RD.,77015,facilities_20220311.csv,"c(-95.168277, 29.7587591)",1
110000462687,SUNEDISON POLYSILICON FACILITY,3000 N SOUTH AVE,77503,facilities_20220311.csv,"c(-95.1704407, 29.7253279)",1
110000462678,PURITY ISOBUTYLENE PLANT,1500 NORTH SOUTH STREET,77503,facilities_20220311.csv,"c(-95.1710841, 29.7393398)",1
110064612762,BIGLER PASADENA FACILITY,1500 SOUTH ST,77503,facilities_20220311.csv,"c(-95.1714059, 29.6896057)",1
110056955987,ALBEMARLE CORP,2500 N. SOUTH ST.,77503,facilities_20220311.csv,"c(-95.1716937, 29.7392462)",1
110005149641,H & H,14510 BEAUMONT HWY,77049,facilities_20220311.csv,"c(-95.1731049, 29.8479757)",1
110005028120,PASADENA PERFORMANCE PRODUCTS,601 N SOUTH ST,77503,Google geocoding API - GS,"c(-95.1732949, 29.7222221)",1
110000460965,GB BIOSCIENCES CORP,2239 HADEN RD.,77015,facilities_20220311.csv,"c(-95.1744088, 29.7629634)",1
110011818603,KOPPERS CO,INDUSTRIAL RD @ ARMCO GATE 1 (PO BOX 961,77015,Google geocoding API - GS,"c(-95.1744903, 29.7690048)",1
110005025418,ELLINGTON FIELD 147 FIGHTER WING,1057 ELLINGTON FLD AIR FORCE BASE,77034-5512,facilities_20220311.csv,"c(-95.1757853, 29.6075942)",1
110056638526,ARKEMA INC. - HOUSTON TEXAS PLANT,2231 HADEN ROAD,77015,facilities_20220311.csv,"c(-95.1759638, 29.759278)",1
110000461009,MERISOL GREENS BAYOU PLANT,1914 HADEN RD,77015,Google geocoding API - GS,"c(-95.176798, 29.760511)",1
110055499465,BRENNTAG SOUTHWEST INC,1832 HADEN RD,77015,facilities_20220311.csv,"c(-95.1769884, 29.764151)",1
110009497400,PVS TECHNOLOGIES GREENS BAYOU PLANT,1777 HADEN ROAD,77015,facilities_20220311.csv,"c(-95.1781928, 29.7660371)",1
110015321855,USA ENVIRONMENT,1203 GENOA RED BLUFF RD,77504,facilities_20220311.csv,"c(-95.1792576, 29.631398)",1
110009496731,JOE D HUGHES,14035 INDUSTRIAL RD,77015,facilities_20220311.csv,"c(-95.1798102, 29.7482353)",1
110005149295,BARGAS,5904 KELLY MILL LN,77346,facilities_20220311.csv,"c(-95.181295, 30.002786)",1
110000462730,CHEVRON PHILLIPS CHEMICAL CO - PASADENA PLASTICS COMPLEX,1400 JEFFERSON RD,77506,facilities_20220311.csv,"c(-95.1818248, 29.7356955)",1
110009346243,HARRIS (FARLEY STREET),1000'S OF GENOA RED BLUFF RD,77034,facilities_20220311.csv,"c(-95.1823512, 29.6303969)",1
110000497800,PHILLIPS 66 PASADENA PRODUCT TERMINAL,100 JEFFERSON RD,77506,facilities_20220311.csv,"c(-95.1826501, 29.717924)",1
110000707192,"HOUSTON CHEMICAL DISTRIBUTORS, L.L.C.",18501 EAST HIGHWAY 6,77511,facilities_20220311.csv,"c(-95.1826583, 29.4045551)",1
110064119181,KOPPERS INDUSTRIES INC HOUSTON TAR PLANT,GREENSPORT INDL PARK GATE 5,77015,facilities_20220311.csv,"c(-95.1827161, 29.748706)",1
110009504526,PASADENA COLEX,404 JEFFERSON RD,77506,Google geocoding API - GS,"c(-95.1838216, 29.7156287)",1
110002344222,KINDER MORGAN LIQUID TERMINALS LLC,400 NORTH JEFFERSON,77506,facilities_20220311.csv,"c(-95.184251, 29.717382)",1
110000462712,TESSENDERLO KERLEY INC,1050 JEFFERSON RD.,77506,facilities_20220311.csv,"c(-95.184427, 29.740734)",1
110064386944,DIAMOND FIBERGLASS HOUSTON PLANT,13805 INDUSTRIAL RD,77015,facilities_20220311.csv,"c(-95.1844608, 29.752407)",1
110009782075,TARGA PATRIOT TERMINAL,1050 JEFFERSON RD,77501,facilities_20220311.csv,"c(-95.1854619, 29.741611)",1
110054864376,CHANNEL GREENHUNTER BIOREFINERY AND TERMINALS,13605 INDUSTRIAL RD,77015,facilities_20220311.csv,"c(-95.1856962, 29.7558009)",1
110005066169,"DIXIE OIL PROCESSORS, INC.",2801 CHOATE ROAD,77546,facilities_20220311.csv,"c(-95.1866516, 29.5854827)",1
110035162695,VALERO CORNER STORE 2258,3510 BURKE RD,77504,facilities_20220311.csv,"c(-95.1867354, 29.6581723)",1
110001132355,AQUA PROCESS INC,10801 GALVESTON RD.,77034,facilities_20220311.csv,"c(-95.1895616, 29.6138229)",1
110001870039,GAF MATERIALS CORPORATION,13530 INDUSTRIAL ROAD,77015,facilities_20220311.csv,"c(-95.1896049, 29.7553974)",1
110002343713,BELTWAY 90 BUSINESS PARK - CHEMICAL CLEANING,13301 BEAUMONT HWY BLDG 11,77049,facilities_20220311.csv,"c(-95.192082, 29.8406216)",1
110034634206,DIAMOND SHAMROCK 2237,14209 WALLISVILLE RD,77049,facilities_20220311.csv,"c(-95.1928895, 29.8064636)",1
110059763000,AIR PRODUCTS LLC - PASADENA SMR,1423 HWY 225,77506,Google geocoding API - GS,"c(-95.1930929, 29.7133472)",1
110002133726,COLE DISTRIBUTION INC,13301 OLD BEAUMONT HWY BLDG 8,77049,facilities_20220311.csv,"c(-95.1932488, 29.841509)",1
110056955521,AGRIFOS FERTILIZER L.L.C.,2001 JACKSON ROAD,77506,facilities_20220311.csv,"c(-95.1940757, 29.7081877)",1
110005017677,HOWARD INDUSTRIES TEXAS,13500 INDUSTRIAL RD,77015,facilities_20220311.csv,"c(-95.1943161, 29.7565237)",1
110002343848,CROWN CENTRAL PETROLEUM,1319 RED BLUFF ROAD,77506,facilities_20220311.csv,"c(-95.1953015, 29.7092578)",1
110002133593,"ARCHEM COMPANY, INC.",13103 CONKLIN,77034,facilities_20220311.csv,"c(-95.1993704, 29.6139287)",1
110005081570,SOUTHWEST PETRO-SYSTEMS INC,911 WESTFALL,77506,facilities_20220311.csv,"c(-95.2021627, 29.6976726)",1
110034101479,GENOA CONCRETE BATCH PLANT,9519 OLD GALVESTON RD,77034,facilities_20220311.csv,"c(-95.2025296, 29.6299928)",1
110032992215,GALENA PARK,12901 AMERICAN PETROLEUM ROAD,77547,facilities_20220311.csv,"c(-95.2028659, 29.7427787)",1
110000504892,KM LIQUIDS TERMINAL PASADENA,530 N WITTER ST,77506,facilities_20220311.csv,"c(-95.2058418, 29.7307736)",1
110002343795,COMTROL LABORATORIES,2718 WESTSIDE DR.,77502,facilities_20220311.csv,"c(-95.2067489, 29.6712476)",1
110033861220,GREENSPORT INDUSTRIAL PARK,1755 FEDERAL RD,77015,facilities_20220311.csv,"c(-95.2075847, 29.7545372)",1
110000503722,ASCEND PERFORMANCE MATERIALS - CHOCOLATE BAYOU PLANT,1 MONSANTO RD,77512,facilities_20220311.csv,"c(-95.2079984, 29.2504293)",1
110000913343,CHEVRON PRODUCTS COMPANY-GALENA PARK TERMINAL,12523 AMERICAN PETROLEUM ROAD,77547,facilities_20220311.csv,"c(-95.209117, 29.744849)",1
110015321748,RS USED OIL SERVICES,12725 NIMITZ STREET,77015,facilities_20220311.csv,"c(-95.2091389, 29.7699555)",1
110015666091,STAR ENTERPRISES,"US HIGHWAY 59, & FM 1485, NEW",77357,Google geocoding API - GS,"c(-95.2117486, 30.1544538)",1
110002134066,PASADENA PAPER CO LP,901 NORTH SHAVER STREET,77506,facilities_20220311.csv,"c(-95.211861, 29.7198234)",1
110023009689,GALENA PARK MARINE TERMINAL,12510 AMERICAN PETROLEUM RD.,77547,Google geocoding API - GS,"c(-95.2123787, 29.7416542)",1
110013285453,TEXAS WELDERS SUPPLY CO. INC,1806 FEDERAL RD,77015,facilities_20220311.csv,"c(-95.2134892, 29.7570529)",1
110039106883,EGF ENERGY PARTNERS,12238 KINDRED ST,77049,facilities_20220311.csv,"c(-95.2156574, 29.8270098)",1
110034285921,DEGAR FUEL SYSTEMS INC,23248 WOODY LN,77365,facilities_20220311.csv,"c(-95.2162101, 30.0836552)",1
110000462696,MACDERMID,223 NORTH BROCKMAN,77506,facilities_20220311.csv,"c(-95.2179, 29.7155568)",1
110032636002,WORLD ENERGY BIOX BIOFUELS,550 CLINTON DR,77547,facilities_20220311.csv,"c(-95.2183784, 29.730968)",1
110038312821,MCC RECYCLING,200 RICHEY ST,77506,facilities_20220311.csv,"c(-95.2196768, 29.715596)",1
110070605402,MCC RECYCLING,200 N. RICHEY STREET,77506,facilities_20220311.csv,"c(-95.220014, 29.7143597)",1
110015665528,U.S. OIL RECOVERY,400 N RICHEY ST,77506,facilities_20220311.csv,"c(-95.2213645, 29.7181814)",1
110005038057,TESSENDERLO KERLEY INC,1000 JEFFERSON AVE,77502,facilities_20220311.csv,"c(-95.2245682, 29.6740588)",1
110009505883,MOTIVA ENTERPRISES LLC PASADENA TERMINAL,1320 W SHAW AVE,77506,facilities_20220311.csv,"c(-95.2255348, 29.7130199)",1
110037844376,"KM LIQUIDS TERMINALS, L.P.",906 CLINTON DR,77547,facilities_20220311.csv,"c(-95.2259742, 29.7318433)",1
110006132504,CUSTOM SAFETY PRODUCTS INC,1030 COUNTY ROAD 129,77546,Google geocoding API - GS,"c(-95.2263617, 29.5027847)",1
110054867792,ROYAL PURPLE,1 ROYAL PURPLE LN,77365,facilities_20220311.csv,"c(-95.2274016, 30.1018412)",1
110000463490,TEXMARK CHEMICALS,900 CLINTON DR.,77547,facilities_20220311.csv,"c(-95.2286659, 29.7318275)",1
110006800989,NORTH PARK BUSINESS CENTER WWTF,1701 NORTHPARK STE 1,77339,Google geocoding API - GS,"c(-95.2287723, 30.0699886)",1
110034439383,EQUISTAR CHOCOLATE BAYOU POLYMERS PLANT,12 MILES SOUTH OF ALVIN ON FM 2917,77511,facilities_20220311.csv,"c(-95.2288723, 29.4232864)",1
110001867739,WEBSTER STATION,2004 OLD GALVESTON RD.,77598,facilities_20220311.csv,"c(-95.2311776, 29.657683)",1
110005009695,TEXAS ALUMINUM INDUSTRIES,2900 PATIO DR,77017,facilities_20220311.csv,"c(-95.2313924, 29.675274)",1
110000895568,GALENA PARK TERMINAL,1500 CLINTON DRIVE,77547,facilities_20220311.csv,"c(-95.234172, 29.7316555)",1
110006124381,PHILLIPS PETROLEUM,CR 169 5 MI SE OF ALVIN TX,77511,Google geocoding API - GS,"c(-95.2350181, 29.3390704)",1
110041501997,GULF STATES ASPHALT CO  SOUTH HOUSTON PLANT,300 CHRISTY PL.,77587,facilities_20220311.csv,"c(-95.2351244, 29.6633847)",1
110070240998,HOUSTON REFINING,12000 LAWNDALE AVENUE,77017,Google geocoding API - GS,"c(-95.235765, 29.709829)",1
110058113704,HOUSTON REFINING,12000 LAWNDALE ST,77017,facilities_20220311.csv,"c(-95.2366894, 29.7091683)",1
110028052461,POWER ISLAND,2.5 MI S OF FM 2917 ON FM 2004,77512,Google geocoding API - GS,"c(-95.2371228, 29.1848683)",1
110022307911,HOUSTON FACILITY,11010 WALLISVILLE RD,77013,facilities_20220311.csv,"c(-95.2378429, 29.7947504)",1
110005162983,SAFETY-KLEEN SYSTEMS GALENA PARK,900 N MAIN STREET S,77547,facilities_20220311.csv,"c(-95.2402207, 29.7383103)",1
110038318905,ARES USA INDUSTRIAL,502 S MAIN ST,77547,facilities_20220311.csv,"c(-95.2406167, 29.7286038)",1
110001132417,MARBLE PRODUCTS INC,1002 PENNSYLVANIA,77587,facilities_20220311.csv,"c(-95.2419534, 29.6594417)",1
110005120966,MOTIVA ENTERPRISES LLC,24549 LOOP 494,77339,facilities_20220311.csv,"c(-95.2419585, 30.0689003)",1
110000463481,AMERICAN PLANT FOOD,903 MAYO SHELL RD,77547,Google geocoding API - GS,"c(-95.2435862, 29.7260983)",1
110013285471,MAINLAND CUSTOM MARBLE INC,3520 N. GORDON,77511,facilities_20220311.csv,"c(-95.2446961, 29.4527772)",1
110034088314,KINDER MORGAN ARROW TERMINALS GALENA PARK FACILITY,920 MAYO SHELL RD,775473290,Google geocoding API - GS,"c(-95.2449774, 29.7245484)",1
110001132364,INX INTERNATIONAL INK CO,85 OATES RD. #2B,77013,facilities_20220311.csv,"c(-95.2458384, 29.7940733)",1
110070633528,INEOS OLIGOMERS CHOCOLATE BAYOU,15916 FM RD 2004,77511,Google geocoding API - GS,"c(-95.2470604, 29.4091639)",1
110022435952,PORTRAIT INNOVATIONS INC,502 KINGWOOD DR,77339,facilities_20220311.csv,"c(-95.2471643, 30.0501334)",1
110043816868,"MATHESON TRI-GAS, INC.",1407 PENNSYLVANIA AVE,77587,Google geocoding API - GS,"c(-95.2472459, 29.6564286)",1
110041740382,TNL SHELL,10230 EAST FWY,77029,facilities_20220311.csv,"c(-95.2478986, 29.773088)",1
110002134208,PARAGON PAINT & LACQUER INC,211 MAIN ST.,77587,facilities_20220311.csv,"c(-95.2480149, 29.6686193)",1
110005014073,REFRIGERANT RECOVERY CORPORATION OF AMER,5950 BERRYBROOK ST STE 100,77017,facilities_20220311.csv,"c(-95.248565, 29.670821)",1
110005188956,CATALYST AND CHEMICAL CONTAINERS,4935 TIMBER CREEK DR,77017,facilities_20220311.csv,"c(-95.2507341, 29.6733303)",1
110000461107,PL PROPYLENE,9822 LA PORTE FWY,77017,facilities_20220311.csv,"c(-95.2511785, 29.706192)",1
110013796721,GULF NUCLEAR - TAVENOR SITE,9320 TAVENOR STREET,77075-2332,facilities_20220311.csv,"c(-95.2515444, 29.63044)",1
110005153788,RECYCALYST TECHNOLOGIES,4208 FIDELITY RD BLDG 3,77029,facilities_20220311.csv,"c(-95.2529373, 29.7639352)",1
110000462231,GOODYEAR TIRE AND RUBBER COMPANY,2000 GOODYEAR DR,77017,facilities_20220311.csv,"c(-95.2539106, 29.7067604)",1
110005071796,COCA-COLA BOTTLING CO,5800 SURREY SQUARE,77017,Google geocoding API - GS,"c(-95.2540185, 29.6732681)",1
110000460885,VALERO REFINING - TEXAS LP HOUSTON REFINERY,9701 MANCHESTER ST,77012,facilities_20220311.csv,"c(-95.2544265, 29.7200491)",1
110043861452,INMAR SUPPLY CHAIN SOLUTIONS,9015 SPIKEWOOD DR,77078,Google geocoding API - GS,"c(-95.2545694, 29.8237581)",1
110034011593,HOUSTON EAST ASPHALT FACILITY,9704 CLINTON DR,77029,facilities_20220311.csv,"c(-95.2562551, 29.7307438)",1
110005013001,UNITEX BAG INC,9817 WALLISVILLE ROAD SUITE 100,77013,facilities_20220311.csv,"c(-95.2564543, 29.7938432)",1
110041740667,CHEVRON PHILLIPS CEDAR BAYOU PLANT,9548 EAST FWY,77521,facilities_20220311.csv,"c(-95.2566918, 29.7730113)",1
110063955411,HOUSTON ASPHALT TERMINAL,9702 CLINTON DR,77029,facilities_20220311.csv,"c(-95.2567885, 29.7324184)",1
110000461134,TPC GROUP LLC,8600 PARK PLACE BLVD,77017,facilities_20220311.csv,"c(-95.2569767, 29.7009288)",1
110015665760,INHANCE TECHNOLOGIES,9830 EAST FWY,77029,facilities_20220311.csv,"c(-95.2575044, 29.77326)",1
110070135386,VALERO ENERGY PARTNERS LP,9701 MANCHESTER,77012,Google geocoding API - GS,"c(-95.2578348, 29.7193217)",1
110005026854,BROWNING-FERRIS INDUSTRIES INC,1219 NEWMAN ST,77511,facilities_20220311.csv,"c(-95.2590898, 29.4334251)",1
110012555546,POLYMER CHEMISTRY CHOCOLATE BAYOU LLC,7302 COUNTY ROAD 171,77511,facilities_20220311.csv,"c(-95.2594724, 29.3115686)",1
110039516262,WESTWAY TRADING CORPORATION,9325 E AVENUE S,77012-2321,Google geocoding API - GS,"c(-95.2612806, 29.7225716)",1
110033729678,HOUSTON GLYCOL RECLAMATION FACILITY,3520 E BELT DR,77015,facilities_20220311.csv,"c(-95.2614438, 29.9386763)",1
110033279672,BEST PAK WAREHOUSE,1415 EAST LOOP N,770293439,Google geocoding API - GS,"c(-95.2632201, 29.7597385)",1
110012702539,VALERO HOBBY REFINED PRODUCTS TERMINAL,8673 MONROE,77061,facilities_20220311.csv,"c(-95.2637714, 29.6426106)",1
110000460910,HOUSTON PLANT,101 CONCRETE ST.,77012,facilities_20220311.csv,"c(-95.2647191, 29.723528)",1
110032884911,EAST SITE BULK FUEL STORAGE FACILITY,8376 MONROE ROAD,77061,facilities_20220311.csv,"c(-95.2651993, 29.647909)",1
110000619545,AZTEC MERCURY INC,401 CALLAWAY DRIVE,77511,Google geocoding API - GS,"c(-95.2656655, 29.419846)",1
110070435102,IRC RETURNS CENTER HOUSTON,1815 TURNING BASIN DR STE 240,77029-4034,Google geocoding API - GS,"c(-95.2668631, 29.752739)",1
110062913147,THERMO FLUIDS,8635 8635 HOWTON ST,77028-4813,Google geocoding API - GS,"c(-95.2675663, 29.8195221)",1
110070184812,EXCEL WAREHOUSE,8855 CITYPARK LOOP,77013,facilities_20220311.csv,"c(-95.2681173, 29.8053647)",1
110000460901,SOLVAY - HOUSTON PLANT,8615 MANCHESTER ST,77012,facilities_20220311.csv,"c(-95.2698926, 29.7187139)",1
110021001832,BNSF HASTINGS DERAILMENT,COUNTY RD 128 & AMOCO RD.,77511,facilities_20220311.csv,"c(-95.2701398, 29.50151)",1
110005072303,KROGER DISTRIBUTION - TEXAS BAKERY,701 GELLHORN DR,77029,Google geocoding API - GS,"c(-95.2713823, 29.7850323)",1
110005020645,ASHBURN INC,18401 AMOCO PRODUCTION ROAD,77511,Google geocoding API - GS,"c(-95.2713836, 29.5091083)",1
110005067961,SEWELL PLASTICS,8705 CITY PARK LOOP BUILDING 8,77013,facilities_20220311.csv,"c(-95.2718807, 29.8039671)",1
110067267638,KROGER MAINTENANCE,680 GELLHORN DR,77029-1404,Google geocoding API - GS,"c(-95.2721295, 29.7776435)",1
110043861443,WESTLAKE EPOXY CARE OF DHL,8609 8609 CITYPARK LOOP,77013-3642,Google geocoding API - GS,"c(-95.2728185, 29.8039206)",1
110005175764,CITY PARK EAST INDUSTRIAL INVESTCO,8503 CITY PARK E,77013,facilities_20220311.csv,"c(-95.2751373, 29.803462)",1
110070122961,"LUBREFINE, LLC",8502 CYPRESS ST.,77012,facilities_20220311.csv,"c(-95.2754901, 29.7221528)",1
110005068988,CONDOR SERVICES,8102 BRANIFF ST,77061,facilities_20220311.csv,"c(-95.2756257, 29.6340049)",1
110033761873,GE HYDRIL MANUFACTURING HUMBLE PLANT,18000 HIGHWAY 59 N,77396,facilities_20220311.csv,"c(-95.2759379, 29.9789812)",1
110000750143,EXXON CHEMICAL AMERICAS HOUSTON CHEMICAL PLANT,8230 STEDMAN STREET,77029,facilities_20220311.csv,"c(-95.2766025, 29.7540214)",1
110001148810,PLEXMAR INCORPORATED,959 PLEASANTVILLE DRIVE,77029,facilities_20220311.csv,"c(-95.2768537, 29.7699298)",1
110000873895,MG INDUSTRIES,8428 MARKET STREET RD,77029,facilities_20220311.csv,"c(-95.2779862, 29.7709748)",1
110002081942,BASF PASADENA PLANT,4403 LA PORTE ROAD,77501,facilities_20220311.csv,"c(-95.2781573, 29.7146358)",1
110008973263,TYSON FOODS,300 PORTWALL ST,77029,facilities_20220311.csv,"c(-95.278566, 29.7840248)",1
110000461410,OWENS CORNING,8360 MARKET ST. RD.,77029,facilities_20220311.csv,"c(-95.2787293, 29.7697666)",1
110000461349,BLENTECH,1305 RYE,77029,facilities_20220311.csv,"c(-95.2788109, 29.765704)",1
110009313439,EMCHEM CORPORATION,RT 3 W END OF RICE DRYER RD,77581,facilities_20220311.csv,"c(-95.2788926, 29.5800207)",1
110034759893,MARTIN ASPHALT,8350 MARKET STREET RD,77029,facilities_20220311.csv,"c(-95.2794605, 29.7714258)",1
110070182679,DOW CHEMICAL,550 ALEEN ST,77029,facilities_20220311.csv,"c(-95.2798058, 29.7809127)",1
110021094625,PASADENA METHANOL PLANT,4403 LA PORTE FWY,77503,facilities_20220311.csv,"c(-95.2799352, 29.7140972)",1
110002133548,CHEM GRIND CHEMICAL CORP,1225 PORT HOUSTON ST.,77029,facilities_20220311.csv,"c(-95.2804845, 29.7670356)",1
110063953164,LAB CHOCOLATE BAYOU PLANT,LOCATED ON FM 2917 APPROX 8 MI S OF INTX OF TX HWY 35 AND FM 2917,77511,facilities_20220311.csv,"c(-95.280705, 29.3422451)",1
110069500864,DEER PARK PLANT,6600 LA PORTE FWY,77536,facilities_20220311.csv,"c(-95.2818439, 29.7157209)",1
110033566068,ARROW S COMPRESSOR MACHINING,7774 BRANIFF ST,77061,facilities_20220311.csv,"c(-95.2820538, 29.6341533)",1
110005037469,SAN JACINTO PAINT MFG CO,406 N 79TH,77021,facilities_20220311.csv,"c(-95.2832426, 29.7319563)",1
110070435215,METROPOLITAN TRANSIT AUTHORITY OF HARRIS COUNTY,1220 MCCARTY ST.,77029-4142,Google geocoding API - GS,"c(-95.2845342, 29.7671047)",1
110033623407,GREEN DIESEL HOUSTON PLANT 1,7601 AVENUE P,77012,facilities_20220311.csv,"c(-95.28491304, 29.74316861)",1
110001867668,MAGELLAN EAST HOUSTON TERMINAL,7901 WALLISVILLE RD,77029,facilities_20220311.csv,"c(-95.2853016, 29.7894837)",1
110005079789,HOECHST CELANESE CHEMICAL INC,8000 MARKET STREET ROAD,77029,facilities_20220311.csv,"c(-95.2868937, 29.7719669)",1
110034800703,POLY COAT SYSTEMS,7606 GREENSWARTH LN,77075,facilities_20220311.csv,"c(-95.2869993, 29.6149752)",1
110009312172,URBAN MACHINE,8236 TRAVELAIR,77061,facilities_20220311.csv,"c(-95.2872405, 29.648728)",1
110011448987,HOUSTON TERMINAL 2,7600 J W PEAVY DR,77011,Google geocoding API - GS,"c(-95.287241, 29.7438399)",1
110000461303,SEASAFE INTERNATIONAL GRATING INC.,7625 PARKHURST,77028,facilities_20220311.csv,"c(-95.2874761, 29.8324595)",1
110039104180,NORMAN & SON INC,1525 75TH ST,770111705,Google geocoding API - GS,"c(-95.2891445, 29.7432196)",1
110001132480,LINDON MANUFACTURING & LABORATORY,7610 WALLISVILLE RD.,77020,facilities_20220311.csv,"c(-95.2893239, 29.7878509)",1
110017285114,EMCHEM,4308 RICE DRYER RD,77581,facilities_20220311.csv,"c(-95.2896495, 29.5749644)",1
110005181454,THIRD COAST TERMINALS,1871 MYKAWA RD,77581,facilities_20220311.csv,"c(-95.2928545, 29.5744982)",1
110032884957,HOUSTON ASPHALT TERMINAL,7220 JW PEAVY ST,77011,facilities_20220311.csv,"c(-95.2929427, 29.7463643)",1
110001867953,SOUTH COAST TERMINALS,7401 WALLISVILLE RD,77020,facilities_20220311.csv,"c(-95.2962026, 29.788372)",1
110000463766,PACKAGING SERVICES CO INC PEARLAND FACILITY,4704 SHANK RD.,77581,facilities_20220311.csv,"c(-95.296376, 29.5729979)",1
110001132328,CRAIN INDUSTRIES INC,4411 DARIEN,77028,facilities_20220311.csv,"c(-95.2975909, 29.7999507)",1
110005061333,RECLAIM ENVIRONMENTAL,7026 LAWNDALE AVENUE,77023,facilities_20220311.csv,"c(-95.2976317, 29.7169101)",1
110033870648,HENRY SEALANTS DIVISION,1277 BOYLES ST,77020,facilities_20220311.csv,"c(-95.2989588, 29.7648777)",1
110034920995,VEXA PAK,1335 BOYLES ST STE 100,77020,facilities_20220311.csv,"c(-95.298995, 29.763646)",1
110002317528,"WITCO CORP, KENDALL/AMALIE DIV",4411 EASTPARK DRIVE,77028,facilities_20220311.csv,"c(-95.2999593, 29.8013891)",1
110002133539,PPG INDUSTRIES INC,6621 LIBERTY RD.,77028,facilities_20220311.csv,"c(-95.3004901, 29.7961822)",1
110000461198,MARTIN SPECIALITY PRODUCTS,6902 PALESTINE ROAD,77020,facilities_20220311.csv,"c(-95.300713, 29.7668175)",1
110000874117,MAUSER,4004 HOMESTEAD ROAD,77028,facilities_20220311.csv,"c(-95.3009463, 29.7970239)",1
110064014347,AMAZONCOM SERVICES - HOU1,8120 HUMBLE WESTFIELD RD,77338-4142,Google geocoding API - GS,"c(-95.3022824, 29.9999156)",1
110000461287,JET-LUBE INC,4849 HOMESTEAD RD.,77028,facilities_20220311.csv,"c(-95.3029811, 29.8053263)",1
110000461321,"HEMPEL COATINGS U.S.A., INC.",6901 CAVALCADE ST,77028,facilities_20220311.csv,"c(-95.3030697, 29.8009126)",1
110070166051,CHEVRON 108012,612 WAYSIDE DR,77011,facilities_20220311.csv,"c(-95.3047563, 29.7406264)",1
110005050176,AMERICAN THERMOPLASTICS,1235 KRESS STREET,77020,facilities_20220311.csv,"c(-95.3065965, 29.7656802)",1
110001867524,PETROLEUM COKE GRINDING INC,6203 INDUSTRIAL WAY,77011,facilities_20220311.csv,"c(-95.3066463, 29.7539368)",1
110014363606,RAMPAK GROUP,1356 KRESS ST,77020,facilities_20220311.csv,"c(-95.3077055, 29.7643452)",1
110005107516,HOUSTON TUBULAR,13600 HATFIELD ROAD,77581,facilities_20220311.csv,"c(-95.3077387, 29.5760056)",1
110000461143,THE CLOROX HOUSTON SITE,5822 ARMOUR DR.,77020,facilities_20220311.csv,"c(-95.3078817, 29.7571462)",1
110035098248,AMTECH INTERNATIONAL,5707 OLD CLINTON RD,770207347,Google geocoding API - GS,"c(-95.308576, 29.763839)",1
110046120808,SUPPLY PRO FIRE,1231 HAHLO STREET,77020,facilities_20220311.csv,"c(-95.3087802, 29.7649584)",1
110001132471,REEF INDUSTRIES,10020 MYKAWA,77048,facilities_20220311.csv,"c(-95.3091477, 29.6316922)",1
110034778391,PROSKE PLASTIC PRODUCTS INC,6701 SUPPLY ROW,77011,facilities_20220311.csv,"c(-95.3093166, 29.7341264)",1
110005145315,ITC INDUSTRIAL COATINGS INC,5430 EASTHAMPTON DR,77039,facilities_20220311.csv,"c(-95.3098465, 29.9007885)",1
110000460821,FOSTER PRODUCTS CORP,6107 INDUSTRIAL WAY,77011,facilities_20220311.csv,"c(-95.3098833, 29.7517889)",1
110039011654,SHARP PERFORMANCE CHEMICAL,5921 PLAINVIEW,77087-5130,facilities_20220311.csv,"c(-95.3099557, 29.6797945)",1
110045395078,DELTA SPECIALITY FIRE,5898 HEISER DRIVE,77087,facilities_20220311.csv,"c(-95.3118831, 29.6800052)",1
110034660141,COASTAL PACKAGING,7417 STATION DR,77061,facilities_20220311.csv,"c(-95.3119335, 29.6476542)",1
110002133879,"STARTEX CHEMICAL INC, SHIPP DIV",6440 MAYFAIR,77087,facilities_20220311.csv,"c(-95.3122735, 29.6876515)",1
110005061262,WRIGHT CHEMICAL CORP,6545 LINDBERG,77087,facilities_20220311.csv,"c(-95.312464, 29.6784602)",1
110000461170,700 PLASTICS AVENUE HOUSTON TX,700 PLASTICS AVE.,77020,facilities_20220311.csv,"c(-95.3124646, 29.7564433)",1
110000461802,SOLENIS INDUSTRIAL WATER DIVISION,6121 ALMEDA GENOA RD.,77048,facilities_20220311.csv,"c(-95.312844, 29.6212285)",1
110009320751,MANY DIVERSIFIED RESIDENTIAL AREAS,RESIDENTIAL AREAS,77020,facilities_20220311.csv,"c(-95.3130942, 29.7830314)",1
110009313750,HARKEY ROAD,17111 HARKEY ROAD,77584,facilities_20220311.csv,"c(-95.3132358, 29.5222872)",1
110070173589,EASTGROUP PROPERTIES 1020 1040 1060 LOCKWOOD HOUSTON,1020 LOCKWOOD DR,77020,facilities_20220311.csv,"c(-95.3140897, 29.7655575)",1
110000895684,FLINT INK LOCKWOOD,1010 LOCKWOOD DRIVE,77020,facilities_20220311.csv,"c(-95.3147504, 29.7649833)",1
110015679568,GENERAL PLASTICS AND COMPOSITES,5727 LEDBETTER ST,77087,facilities_20220311.csv,"c(-95.3147636, 29.6812316)",1
110005077264,UNION CARBIDE,600 HUGHES ST,77023,facilities_20220311.csv,"c(-95.3150302, 29.7346229)",1
110000461189,PARKAN INTERNATIONAL LLC,5521 ARMOUR DR.,77020,facilities_20220311.csv,"c(-95.3150325, 29.7580323)",1
110000822245,SPARTAN COLOR CORPORATION,5803 NORTHDALE,77087,facilities_20220311.csv,"c(-95.3162773, 29.6806787)",1
110034354437,EARLE JORGENSEN STEEL,5311 CLINTON DR,770207911,Google geocoding API - GS,"c(-95.316377, 29.7642029)",1
110034422596,NORTHSIDE CULTURED MARBLE,19626 FM 1314 RD,77365,facilities_20220311.csv,"c(-95.3165383, 30.1663578)",1
110005166532,SNIDER TIRE INC,4545 MOSSFORD DR,77087,facilities_20220311.csv,"c(-95.3176053, 29.6978369)",1
110005159933,AIR LIQUIDE AMERICA SPECIALTY GASES LLC - SCOTT SPECIALTY GASES,3714 LAPAS DR,77023,facilities_20220311.csv,"c(-95.3181749, 29.702793)",1
110005113377,HOLCOMB OIL RECYCLING,6228 OSPREY,77048,facilities_20220311.csv,"c(-95.3183581, 29.6441221)",1
110005065874,DALLAS CHEMICAL TECHS  INC,10120 HIRSCH ROAD,77016,facilities_20220311.csv,"c(-95.3201412, 29.8563843)",1
110000461081,OAKITE PRODS INC,10100 HIRSCH RD.,77016,facilities_20220311.csv,"c(-95.3204618, 29.8552965)",1
110005080802,HARRIS COUNTY MOSQUITO CONTROL,6104 DIXIE DR,77087,facilities_20220311.csv,"c(-95.3211449, 29.6777682)",1
110000619723,ASHLAND CHEMICAL,7010 MYKAWA,77033,facilities_20220311.csv,"c(-95.3234643, 29.6768666)",1
110005017383,BEETLE TEXAS INC,4519 SAUNDERS ROAD,77093,facilities_20220311.csv,"c(-95.3238932, 29.865615)",1
110000461429,ALLIED ALLOYS,6767 KIRBYVILLE RD.,77033,facilities_20220311.csv,"c(-95.3251596, 29.6808829)",1
110000460741,WR GRACE & CO - CONN GRACE CONSTRUCTION PRODUCTS,4323 CRITES ST,77003,facilities_20220311.csv,"c(-95.3266354, 29.7553399)",1
110005169860,CONSOLIDATED CONTAINER COMPANY,6831 SILSBEE ST,77033,facilities_20220311.csv,"c(-95.3274292, 29.6786763)",1
110002133584,STARTEX CHEMICAL SHIPP DIV,6801 SILSBEE RD,77033,facilities_20220311.csv,"c(-95.3276191, 29.6809568)",1
110002133575,GARDNER ASPHALT INC,6733 SILSBEE STREET,77033,facilities_20220311.csv,"c(-95.3278151, 29.6819948)",1
110070224736,FEDERAL AVIATION ADMINISTRATION- IAH AIRPORT,4215 WILL CLAYTON PARKWAY,77032,facilities_20220311.csv,"c(-95.3282082, 29.9843324)",1
110005077978,OBRIEN CORPORATION,5736 GRIGGS ROAD,77021,facilities_20220311.csv,"c(-95.328552, 29.694698)",1
110002133469,O'BRIEN CORP,5300 SUNRISE,77021,facilities_20220311.csv,"c(-95.3295106, 29.6984202)",1
110000874108,RECTORSEAL CORP,2830 PRODUCE ROW,77023,facilities_20220311.csv,"c(-95.3296127, 29.7082752)",1
110005037361,SAN JACINTO FOUNDRY,3617 BAER STREET,77020,facilities_20220311.csv,"c(-95.332322, 29.768266)",1
110033314571,BENCHMARK ENERGY PRODUCTS MANVEL,21520 MORRIS AVE,77578,facilities_20220311.csv,"c(-95.3328132, 29.4587745)",1
110008060640,BENCHMARK RESEARCH & TECHNOLOGY INC,21520 E HWY 6,77578,facilities_20220311.csv,"c(-95.3329221, 29.4588177)",1
110070628300,AMAZONCOM SERVICES DHO5,1875 S LOCKWOOD DR,77023-1358,Google geocoding API - GS,"c(-95.3344425, 29.729329)",1
110031412521,FLO HOUSTON DC,4500 GULF FWY,77023,facilities_20220311.csv,"c(-95.334543, 29.7258351)",1
110009313457,SOUTH CAVALCADE STREET,SE OF CAVALCADE AND MAURY/BTWN BH&T RR,77020,facilities_20220311.csv,"c(-95.3352824, 29.8004416)",1
110017937580,TEXAS MULCH & TOPSOIL,5921 FM 1960 EAST,77346,facilities_20220311.csv,"c(-95.3359777, 30.012485)",1
110046120684,ATLAS SMELTING & REFINING CO.,6800 BREWSTER,77093,facilities_20220311.csv,"c(-95.3387106, 29.8219606)",1
110000460732,SAMPSON STREET FACILITY,1 N. SAMPSON,77003,facilities_20220311.csv,"c(-95.339092, 29.751924)",1
110005067195,CAVALCADE RADIATOR SHOP INC,3684 EASTEX FREEWAY,77026,Google geocoding API - GS,"c(-95.3403875, 29.7810835)",1
110000461250,UNIVERSAL URETHANES,3919 EASTEX FWY.,77026,facilities_20220311.csv,"c(-95.3409027, 29.8038172)",1
110005061477,SINCLAIR & VALENTINE LP,3803 POLK AVE,77003,facilities_20220311.csv,"c(-95.342185, 29.7411904)",1
110002133502,SUPERIOR SEALANTS INC,3511 JENSEN DR,77026,facilities_20220311.csv,"c(-95.3425245, 29.794539)",1
110040516705,MAY COOPERAGE,1714 DAVIS ST.,77026,facilities_20220311.csv,"c(-95.342622, 29.777364)",1
110005079191,M-I HOLDINGS LLC,3300 CAPITOL AVE,77003,facilities_20220311.csv,"c(-95.3427697, 29.7473555)",1
110002133977,E R CARPENTER CO INC,2802 CANAL ST,77223,facilities_20220311.csv,"c(-95.34281, 29.755315)",1
110000495143,HOERBIGER AMERICA RINGS AND PACKING,1212 MILBY STREET,77023,facilities_20220311.csv,"c(-95.3433418, 29.7421901)",1
110005079770,HOECHST CELANESE CHEMICAL INC,3108 HARRISBURG BLVD BLDG 2,77003,facilities_20220311.csv,"c(-95.3434995, 29.7497031)",1
110034586909,CUSTOM RUBBER PRODUCTS,2625 BENNINGTON ST,77093,facilities_20220311.csv,"c(-95.3441768, 29.8227918)",1
110000495152,HOUSTON HOUSTON TERMINAL,2661 STEVENS STREET,77026,facilities_20220311.csv,"c(-95.345005, 29.787937)",1
110005164990,CLOCK SPRING COMPANY,14107 W INTERDRIVE,77032,facilities_20220311.csv,"c(-95.3451704, 29.9256886)",1
110035817060,AMERICAN WAREHOUSE,1918 COLLINGSWORTH STREET,77009-4398,Google geocoding API - GS,"c(-95.3475919, 29.7909076)",1
110022436041,TRANSPORTATION SECURITY ADMINISTRATION,3100 S TERMINAL RD TERMINAL B ROOM,77032,facilities_20220311.csv,"c(-95.3476103, 29.9866102)",1
110070298694,UNITED PLASTICS,2005 CANAL ST,77003-1005,Google geocoding API - GS,"c(-95.3487483, 29.760024)",1
110005031036,MILPARK INC,1900 LINDER ST,77026,facilities_20220311.csv,"c(-95.349311, 29.8141046)",1
110001870146,HOUSTON FOAM PLASTICS,1822 MAURY STREET,77026,facilities_20220311.csv,"c(-95.349313, 29.778014)",1
110012256245,RUBBER APPLICATORS,1422 MAURY ST,77026,facilities_20220311.csv,"c(-95.3494959, 29.7741571)",1
110044213838,"LITHIUM POWERES TECHNOLOGIES, INC.","20922 MORRIS AVE.,",77578,facilities_20220311.csv,"c(-95.3495052, 29.4646849)",1
110009495000,LIGHT PRODUCTS TERMINAL,1801 COLLINGSWORTH STREET,77009,facilities_20220311.csv,"c(-95.349576, 29.7940803)",1
110009313545,NORTH CAVALCADE STREET,NE OF CAVALCADE AND MAURY/BTWN BH&T RR,77070,facilities_20220311.csv,"c(-95.350524, 29.8033316)",1
110005037414,MALONEY PRECISION PRODUCTS,2301 TEXAS ST,77003,facilities_20220311.csv,"c(-95.3505882, 29.7529163)",1
110005180188,C & L TANK INC,4300 DIXIE DR,77021,facilities_20220311.csv,"c(-95.3513519, 29.6992788)",1
110000461161,POLLY PIG BY KNAPP,1209 HARDY ST.,77020,facilities_20220311.csv,"c(-95.3515971, 29.771896)",1
110005009454,ANADARKO PETROLEUM AVIATION DEPT,17320 CHANUTE RD,77032,facilities_20220311.csv,"c(-95.3533483, 29.9694844)",1
110002133236,JAMES BUTE CO,711 WILLIAM ST.,77002,facilities_20220311.csv,"c(-95.3536488, 29.7672159)",1
110000896193,WASTE OIL TANK SERVICE,2010 HARTWICK,77093,facilities_20220311.csv,"c(-95.3539268, 29.8844568)",1
110000895764,KOPPERS BEAZER EAST,7201 W HARDY,77022,facilities_20220311.csv,"c(-95.35424, 29.821908)",1
110035391670,MYKAWA ASPHALT PLANT,PORTABLE,77075,facilities_20220311.csv,"c(-95.3543969, 29.607507)",1
110002133281,E R CARPENTER CO INC,1702 DOWLING,77003,facilities_20220311.csv,"c(-95.354796, 29.7476835)",1
110005193478,RENEWABLE ENERGY CORPORATION,7715 MASTERS STREET,77578,facilities_20220311.csv,"c(-95.3571612, 29.4636461)",1
110005037922,HUNTER CHEMICALS INC,935 NIAGARA,77051,facilities_20220311.csv,"c(-95.35776, 29.681395)",1
110002133245,ENDURO FIBERGLASS SYSTEMS INC,1101 NAYLOR ST,77002,facilities_20220311.csv,"c(-95.358559, 29.770475)",1
110033810874,JOHNSTON POLYMER COMPANY INC,7116 BISSELL RD,77578,facilities_20220311.csv,"c(-95.3606304, 29.4641251)",1
110034068265,HOUSTON AREA OFFICE,13020 DONEGAL WAY,77047,facilities_20220311.csv,"c(-95.3606696, 29.6194552)",1
110041332894,TRAM CHEMICALS,13939 OLD TEXACO RD,77302,facilities_20220311.csv,"c(-95.3623064, 30.2595447)",1
110005078897,AMERICAN WASTE OIL CO INC,1510 LONE OAK RD,77093,facilities_20220311.csv,"c(-95.3624627, 29.8731459)",1
110000460803,DEE FOUNDRIES INC.,2408 EVERETT ST.,77009,facilities_20220311.csv,"c(-95.3624699, 29.782911)",1
110034219664,CRANE ENERGY FLOW SOLUTIONS,9135 IRVINGTON BLVD,770222339,Google geocoding API - GS,"c(-95.3630249, 29.8442338)",1
110008148646,ALLIED AVIATION FUELING COMPANY OF HOUSTON,2050 FUEL STORAGE RD,77073,facilities_20220311.csv,"c(-95.3634919, 29.9847894)",1
110031457466,AGRIFOS PHOSPHORIC ACID RELEASE,2001 JACKSON ROAD,77003,facilities_20220311.csv,"c(-95.364845, 29.7457696)",1
110005157150,GENERON SYSTEMS,15402 VANTAGE PARKWAY E STE 318,77032,facilities_20220311.csv,"c(-95.3652575, 29.944095)",1
110031412512,MSO - HOUSTON DOWNTOWN,1110 MAIN ST,77022,facilities_20220311.csv,"c(-95.3662572, 29.7561434)",1
110000821442,E G C CORPORATION,11718 MCGALLION RD,77076,facilities_20220311.csv,"c(-95.3679599, 29.8711363)",1
110005156641,POLYMERS GROUP OLYBILT LAB,4720 SHARMAN,77009,facilities_20220311.csv,"c(-95.3693567, 29.8028691)",1
110005099561,TRELLEBORG OFFSHORE US RANKIN ROAD FACILITY,1902 RANKIN RD,77073,facilities_20220311.csv,"c(-95.3694401, 29.9633602)",1
110005108374,PIPING TECHNOLOGY & PRODUCTS,3701 HOLMES RD,77051,Google geocoding API - GS,"c(-95.3698468, 29.6799185)",1
110012495335,SCHLUMBERGER WELL SERVICES,14910 AIRLINE ROAD,77002,Google geocoding API - GS,"c(-95.3704009, 29.752554)",1
110034613069,PAVERS SUPPLY COMPANY,9490 FM 1485 RD,77306,facilities_20220311.csv,"c(-95.371066, 30.315096)",1
110005159265,INDUSTRIAL POLYMERS CORPORATION,3250 S SAM HOUSTON PKWY E,77047,facilities_20220311.csv,"c(-95.3715457, 29.5967241)",1
110070167735,EXXON USA,102 CAVALCADE ST,770093211,Google geocoding API - GS,"c(-95.3716888, 29.804429)",1
110033769410,HOLCOMB ENVIRONMENTAL OIL SERVICE,3540 CORDER ST,77021,facilities_20220311.csv,"c(-95.3719724, 29.6884091)",1
110002471441,QUAKER PETROLEUM CHEMICALS CO,EXXON RD & FM-1314,77302,facilities_20220311.csv,"c(-95.373369, 30.234294)",1
110000862889,I M PENA INC,1007 BUSCHONG ST,77039,facilities_20220311.csv,"c(-95.3739171, 29.9299158)",1
110034498666,CONLEN SURFACTANT TECHNOLOGY INC,14292 KOALSTAD RD,77302,facilities_20220311.csv,"c(-95.3761659, 30.2455414)",1
110060261041,AJ HURT JR INC DBA THE HURT CO,3310 ALICE ST,77021,facilities_20220311.csv,"c(-95.3763773, 29.6934039)",1
110070101941,CST PERFORMANCE PRODUCTS CORP. PLANT 7001,14632 EXXON ROAD,77302,Google geocoding API - GS,"c(-95.3764106, 30.2430657)",1
110070830066,AMAZONCOM SERVICES DHX1,3031 3031 S SAM HOUSTON PKWY E,77047,Google geocoding API - GS,"c(-95.3776904, 29.6001192)",1
110005043540,INTERCOASTAL PAINT,14029 W HARDY,77060,facilities_20220311.csv,"c(-95.3783739, 29.9211305)",1
110033019436,TRELLEBORG OFFSHORE US WEST HARDY FACILITY,13827 W HARDY RD BUILDING B,77060,facilities_20220311.csv,"c(-95.378442, 29.915687)",1
110005035470,GROCERS SUPPLY,3131 E HOLCOMBE BLVD,77021-2199,Google geocoding API - GS,"c(-95.3796117, 29.7019347)",1
110038487866,ALDINE TERMINAL,FROM THE INTERSECTION OF W HARDY RD AND ALDINE BEN,77060,Google geocoding API - GS,"c(-95.3806989, 29.9326145)",1
110037914175,CRYSTAPHASE PRODUCTS,29 BERRY RD,770223011,Google geocoding API - GS,"c(-95.3809501, 29.8375257)",1
110002133744,JUNIPER ENTERPRISES,7300 ARDMORE,77054,facilities_20220311.csv,"c(-95.3812887, 29.6910392)",1
110070170381,TEXACO SERVICE STATION,22560 ALDINE WESTFIELD RD,773738808,Google geocoding API - GS,"c(-95.3823813, 30.0421834)",1
110010921850,GSE LINING TECHNOLOGY,19103 GUNDLE,77073,facilities_20220311.csv,"c(-95.382872, 29.9963373)",1
110000824305,DURAQUEST ELASTOMER PRODUCTS,3901 FM-1485,77306,facilities_20220311.csv,"c(-95.3839254, 30.3197963)",1
110001867659,MANUFACTURING & PAINT SHOP MILL SERVICES,2919 HOLMES ROAD (OFFICE),77051,facilities_20220311.csv,"c(-95.3841971, 29.6743054)",1
110005037557,COOK PAINT AND VARNISH COMPANY,2510 SUMMER STREET,77007,facilities_20220311.csv,"c(-95.3846424, 29.7728978)",1
110000461893,KIK (HOUSTON) INC.,2921 CORDER STREET,77054,facilities_20220311.csv,"c(-95.3853758, 29.6935758)",1
110034853139,PETROLEUM ELASTOMERS,757 KENRICK DR,77060,facilities_20220311.csv,"c(-95.386106, 29.9423767)",1
110000462017,HOBAS PIPE USA,1413 E. RICHEY RD.,77073,facilities_20220311.csv,"c(-95.3868388, 29.9980214)",1
110000874153,"GARDNER GIBSON HOUSTON, INC.",919 CROSSTIMBERS STREET,77022,facilities_20220311.csv,"c(-95.3869598, 29.8289417)",1
110000460787,TEXAS TILE MANUFACTURING,1705 OLIVER ST.,77007,facilities_20220311.csv,"c(-95.3872477, 29.7736988)",1
110002133290,BENJAMIN MOORE & CO HOUSTON,1300 NATIONAL ST.,77007,facilities_20220311.csv,"c(-95.387601, 29.771154)",1
110000748095,HUNTSMAN PETROCHEMICAL LLC,5451 JEFFERSON CHEMICAL ROAD,77301,facilities_20220311.csv,"c(-95.3884542, 30.3137099)",1
110034441548,PHOENIX PLASTICS,5400 JEFFERSON CHEMICAL RD,77301,facilities_20220311.csv,"c(-95.3884747, 30.3157977)",1
110005023125,APROGENEX INC,8000 EL RIO,77054,facilities_20220311.csv,"c(-95.3887347, 29.6865392)",1
110035071686,VA MEDICAL CENTER,2002 HOLCOMBE BLVD,770304211,facilities_20220311.csv,"c(-95.3889654, 29.7001034)",1
110005192665,CHEMLAWN,2421 BLACK GOLD CT,77073,facilities_20220311.csv,"c(-95.3894153, 30.0026434)",1
110000462339,DRILLING SPECIALTIES CO ALAMO PLANT,5450 JEFFERSON CHEMICAL RD,77301,facilities_20220311.csv,"c(-95.3896198, 30.3152116)",1
110015741982,CHEMICAL SPECIALISTS AND DEVELOPMENT,2210 HACKBERRY LN,77306,facilities_20220311.csv,"c(-95.3897834, 30.3220319)",1
110001869906,WESTFIELD SANDBLASTING INC,20811 ESSMAN LANE,77073,facilities_20220311.csv,"c(-95.3903151, 30.0147618)",1
110037966298,NORTH HOUSTON TERMINAL,AT THE CORNER OF HARDY RD & FARREL RD,77073,Google geocoding API - GS,"c(-95.3912573, 29.977337)",1
110000825242,INKJET INC,107 LAKE ROLLINGWOOD,77303,Google geocoding API - GS,"c(-95.3913522, 30.3958224)",1
110000461900,ALLCHEM SERVICES,9011 EAST ALMEDA RD,77054,facilities_20220311.csv,"c(-95.3940369, 29.6742673)",1
110005174195,CLEAN-UR-PARTS,16800 IMPERIAL VALLEY STE 220,77060,facilities_20220311.csv,"c(-95.3948643, 29.9441933)",1
110000461875,"SOUTH HOUSTON, TX TERMINAL",10617 EAST ALMEDA,77051,Google geocoding API - GS,"c(-95.3962909, 29.6690023)",1
110005025551,3457TH MEDICAL TRAINING CENTER,1850 OLD SPANISH TRAIL DRIVE,77054,facilities_20220311.csv,"c(-95.3972325, 29.6964813)",1
110009313536,SOL LYNN/INDUSTRIAL TRANSFORMERS,"1415, 1417, 1419 S LOOP WEST",77054,facilities_20220311.csv,"c(-95.3983931, 29.6793024)",1
110070558427,LONZA HOUSTON,14905 KIRBY DR,77047,facilities_20220311.csv,"c(-95.3993543, 29.58729)",1
110005041999,SERVICE INDUSTRIES OF AMERICA,8703 KNIGHT RD,77054,facilities_20220311.csv,"c(-95.3996204, 29.6783218)",1
110034255516,DENSO NORTH AMERICA HOUSTON FACILITY,18211 CHISHOLM TRL,77060,facilities_20220311.csv,"c(-95.3998043, 29.9650265)",1
110059776121,FAROUK SYSTEMS RICHY RD WAREHOUSE,20805 FERNBUSH LN,77073,facilities_20220311.csv,"c(-95.4009417, 29.9942282)",1
110067350477,DRILLCHEM EXPLOSION AND FIRE,4301 SOUTH LOOP 336 E,77301,facilities_20220311.csv,"c(-95.4014963, 30.3162243)",1
110037199162,ARCOT MANUFACTURING CORPORATION,2950 MOWERY ROAD,77045,facilities_20220311.csv,"c(-95.4022268, 29.6353105)",1
110000461456,"ACCENT MARBLE CO., INC.",210 W. HELMS,77037,facilities_20220311.csv,"c(-95.402805, 29.898174)",1
110034099847,GSE LINING TECH,1340 E RICHEY RD,77073,facilities_20220311.csv,"c(-95.4030468, 29.9956541)",1
110031457484,CENTERPOINT ENERGY OLD MAIN GAS RELEASE,OLD MAIN ST.,77030,facilities_20220311.csv,"c(-95.4042141, 29.7070778)",1
110000506239,AIRGAS SPECIALTY GASES,12275 ROBIN BOULEVARD,77045,facilities_20220311.csv,"c(-95.4043654, 29.6320309)",1
110002133432,LIGHTHOUSE FOR THE BLIND OF HOUSTON,3530 W. DALLAS,77019,facilities_20220311.csv,"c(-95.4046722, 29.7577463)",1
110000461786,SYNTECH CHEMICALS INC,14822 HOOPER RD.,77047,facilities_20220311.csv,"c(-95.4057768, 29.589603)",1
110005037049,PLICOFLEX,2425 MOWERY RD,77045,facilities_20220311.csv,"c(-95.4069847, 29.6349421)",1
110021102493,VALERO ALMEDA REFINED PRODS. TERMINAL,11750 ALMEDA RD.,77045,facilities_20220311.csv,"c(-95.4073387, 29.6459779)",1
110002133708,GULF STATES PAINT COMPANY,12230 ROBIN BLVD.,77045,facilities_20220311.csv,"c(-95.4076484, 29.6336917)",1
110025318136,BNSF GREEN'S BAYOU DERAILMENT,HWY 90 AT GREEN'S BAYOU,77049,facilities_20220311.csv,"c(-95.4084149, 29.7776131)",1
110002133682,DIAMOND PAINT MFG CO,12222 ROBIN BLVD.,77045,facilities_20220311.csv,"c(-95.4084845, 29.6342824)",1
110013286620,TEXAS WELDERS SUPPLY CO. INC.,10210 I-45 N.,77037,facilities_20220311.csv,"c(-95.4093584, 29.9123304)",1
110000861755,BASF HOUSTON POLYURETHANE,1703 CROSSPOINT AVENUE,77054,facilities_20220311.csv,"c(-95.4104975, 29.6713525)",1
110033585234,ALMEDA LPG FACILITY,11650 ALMEDA RD,77045,facilities_20220311.csv,"c(-95.4107254, 29.648637)",1
110034949368,VALERO CORNER STORE 2386,5121 N SHEPHERD DR,77018,facilities_20220311.csv,"c(-95.4112589, 29.8407524)",1
110000461759,EI DUPONT DE NEMOURS & CO HOUSTON,12701 ALMEDA ROAD,77045,facilities_20220311.csv,"c(-95.4142968, 29.6229483)",1
110038484468,SNIDER TIRE,603 NORTHPARK CENTRAL DR,77073,facilities_20220311.csv,"c(-95.4148353, 29.9937149)",1
110057396045,RAVAGO MANUFACTURING AMERICAS,13001 ALMEDA RD.,77045,facilities_20220311.csv,"c(-95.4150639, 29.6206035)",1
110000757814,ECONOMY MUD PRODUCTS CO,435 EAST ANDERSON ROAD,77047,facilities_20220311.csv,"c(-95.4151049, 29.6069227)",1
110070253806,NATIONAL CONTAINER GROUP WAREHOUSE FIRE,13131 ALMEDA ROAD,77045,facilities_20220311.csv,"c(-95.4157077, 29.6173227)",1
110005187895,AQUA PROCESS PLANT,125 SOUTHBELT INDUSTRIAL DRIVE,77047,facilities_20220311.csv,"c(-95.4210789, 29.5876257)",1
110002345481,WITCO R & D LABORATORY,3200 BROOKFIELD STREET,77045,facilities_20220311.csv,"c(-95.4214881, 29.6156918)",1
110001119922,STAR ENTERPRISES,12700 NORTHBOROUGH DR,77067,facilities_20220311.csv,"c(-95.4216166, 29.9532323)",1
110015582911,WEST U MARBLE,14715 PARK ALMEDA RD,77047-7003,Google geocoding API - GS,"c(-95.4218155, 29.5906661)",1
110059455174,APRM INC,95 SOUTHBELT INDUSTRIAL DR,77047,facilities_20220311.csv,"c(-95.4231659, 29.5876761)",1
110060258634,CONROE PLASTICS MOLDING (CPM),1700 ORVAL RD,77301,facilities_20220311.csv,"c(-95.4258463, 30.3015225)",1
110002133343,VALSPAR CORP,2503 W. 11 ST.,77008,facilities_20220311.csv,"c(-95.4278289, 29.7891902)",1
110005014475,JACK ROACH FORD,3200 BISSONNET ST,77005,facilities_20220311.csv,"c(-95.4278677, 29.7253832)",1
110069465867,SOLVAY FLUORIDES LLC,3737 BUFFALO SPEEDWAY.,77098,Google geocoding API - GS,"c(-95.4280296, 29.7334843)",1
110005102888,PRAXAIR INC,255 PENNBRIGHT DR STE 200,77090,facilities_20220311.csv,"c(-95.4280744, 29.9909203)",1
110070334362,SUMMIT PRESSURE CONTROL,5658 WHEATLEY ST,77091-5523,Google geocoding API - GS,"c(-95.4281176, 29.8485354)",1
110070124252,AMAZONCOM SERVICES HOU2,10550 ELLA BLVD,77038-2324,Google geocoding API - GS,"c(-95.4283222, 29.934448)",1
110005096573,FAROUK SYSTEMS,250 PENNBRIGHT,77090,facilities_20220311.csv,"c(-95.429123, 29.9933329)",1
110000462393,INKJET INC,11111 INKJET WAY,77378,facilities_20220311.csv,"c(-95.429417, 30.408764)",1
110006452310,STAR ENTERPRISES INC,17435 NORTH FREEWAY,77090,facilities_20220311.csv,"c(-95.4295909, 30.020443)",1
110033278067,BETTER BAGS INC,6419 TOLEDO ST,77008,facilities_20220311.csv,"c(-95.4297137, 29.7855837)",1
110005166774,WAL-MART RETURN CENTER 9153,17211 NORTH FREEWAY,77090-5007,Google geocoding API - GS,"c(-95.4301109, 30.0160846)",1
110005047546,EXXON MOBIL UPSTREAM RESEARCH,3120 BUFFALO SPEEDWAY,77098,facilities_20220311.csv,"c(-95.4301289, 29.7367555)",1
110067035746,"VERMICULITE PRODUCTS, INC.",3025 MAXROY STREET,77008,facilities_20220311.csv,"c(-95.4301434, 29.7857239)",1
110005099641,ROYAL BATHS MANUFACTURING HOUSTON,3339 PINEMONT DR,77018,facilities_20220311.csv,"c(-95.4305673, 29.8404194)",1
110035234083,SPRING ASPHALT CONCRETE PLANT,1115 SPRING STUEBNER RD,77373,facilities_20220311.csv,"c(-95.4311769, 30.0814578)",1
110000461884,AKZO NOBEL SURFACE CHEMISTRY LLC,15200 ALMEDA ROAD,77053,facilities_20220311.csv,"c(-95.4315145, 29.5846263)",1
110005170607,CHEMPAK INTERNATIONAL,3647 WILLOWBEND BLVD STE 800,77054,facilities_20220311.csv,"c(-95.4344384, 29.6608776)",1
110045568667,INKJET INC,4211 FM 2432 RD,77378,facilities_20220311.csv,"c(-95.4345159, 30.4084996)",1
110034822280,VALERO CORNER STORE 2172,2000 W 18TH ST,77008,facilities_20220311.csv,"c(-95.4354028, 29.8010859)",1
110015679602,MARTIN MARIETTA MATERIALS ARCOLA PLANT,5730 OLD ALVIN RD,77583,facilities_20220311.csv,"c(-95.4364179, 29.3513978)",1
110002133753,TBC-BRINADD TEXAS UNITED CORP,235 FARISS,77054,facilities_20220311.csv,"c(-95.4369513, 29.6596217)",1
110037842804,EXTRUSION PLUS,25015 SPRING RIDGE DR,77386,facilities_20220311.csv,"c(-95.4391685, 30.1259666)",1
110070435213,ATLANTIS LABORATORIES,1601 AIRPORT RD,77301,facilities_20220311.csv,"c(-95.4397619, 30.3261508)",1
110005062635,ZEP MANUFACTURING,6827 WYNNWOOD LN,77008,facilities_20220311.csv,"c(-95.4401918, 29.7936305)",1
110034488392,PHILLIPS 66,4910 WESLAYAN ST,77027,facilities_20220311.csv,"c(-95.4420338, 29.7281186)",1
110009346234,UNITED CREOSOTING CO.,2ND & HILBIG,77301,facilities_20220311.csv,"c(-95.4432002, 30.3380429)",1
110067115981,BIO-MEDICAL & PHARM. MFG. CORP.,4311 SOUTH DR,77053,Google geocoding API - GS,"c(-95.4433438, 29.5850911)",1
110002343438,BAKER PERFORMANCE CHEMICALS INC,3920 ESSEX LN,77027,facilities_20220311.csv,"c(-95.443847, 29.740174)",1
110063385661,ENDURANCE COMPOSITES,8130 MCHARD RD,77053,Google geocoding API - GS,"c(-95.4455481, 29.5777576)",1
110043645703,CHEM REX,3870 W 11TH STREET,77055,facilities_20220311.csv,"c(-95.446181, 29.789681)",1
110000461223,ENDURO COMPOSITE SYSTEMS,7100 OLD KATY RD.,77024,facilities_20220311.csv,"c(-95.4467416, 29.7845241)",1
110070435202,CHRYSTAPHASE PRODUCTS,21500 HOLZWARTH RD,77388,facilities_20220311.csv,"c(-95.4471975, 30.0731834)",1
110005052003,GRAHAM PACKAGING,3833 W 11TH,77055-7301,Google geocoding API - GS,"c(-95.447435, 29.7888299)",1
110042426853,HD PRO LOCATION 3265,"7110 OLD KATY RD., STE 190",770242152,Google geocoding API - GS,"c(-95.4486248, 29.7865207)",1
110005185566,HEMPEL COATINGS CONROE PLANT,600 CONROE PARK N,77303,facilities_20220311.csv,"c(-95.4494436, 30.3550402)",1
110008143972,TIDELAND SIGNAL,4310 DIRECTORS ROW,77092,facilities_20220311.csv,"c(-95.4508549, 29.8081676)",1
110035164354,VALERO CORNER STORE 2387,4439 BISSONNET ST,77401,facilities_20220311.csv,"c(-95.4511835, 29.7159468)",1
110041341081,BIG JOHN WOOD RECYCLING,11840 BIG JOHN ST,77038,facilities_20220311.csv,"c(-95.452078, 29.903322)",1
110005062430,LAROCHE INDUSTRIES INC,7310 KATY RD,77024,facilities_20220311.csv,"c(-95.4541725, 29.7844115)",1
110005134041,PICCO COATINGS,11601 MCKINLEY,77038,facilities_20220311.csv,"c(-95.4559534, 29.8985791)",1
110038393244,CELOTEX THE HOUSTON PLANT,1400 N POST OAK RD,77055,facilities_20220311.csv,"c(-95.4565445, 29.795241)",1
110035812822,HUNTSMAN CORPORATION - THE WOODLANDS CORPORATE SITE,10003 WOODLOCH FOREST DR.,77380,Google geocoding API - GS,"c(-95.456647, 30.159585)",1
110032621492,TEXAS UNITED CHEMICAL CO. LLC,4800 SAN FELIPE STREET,77056,Google geocoding API - GS,"c(-95.4579035, 29.7497466)",1
110009493155,SIGMA-GENOSYS,1442 LAKE FRONT CIR STE 185,77380,facilities_20220311.csv,"c(-95.4595157, 30.1713969)",1
110012181762,SIGMA-GENOSYS OF TEXAS,9186 SIX PINES RD,77380,facilities_20220311.csv,"c(-95.4595976, 30.1723826)",1
110005040589,PHILLIPS PETROLEUM,6330 WEST LOOP S,77401,facilities_20220311.csv,"c(-95.4609899, 29.7117768)",1
110002133762,MASTER BUILDERS INC,6119 WESTVIEW,77055,facilities_20220311.csv,"c(-95.4611946, 29.7934426)",1
110005051139,GAMMA BIOLOGICALS,3700 MANGUM RD,77092,facilities_20220311.csv,"c(-95.4613174, 29.8235966)",1
110000462400,CONROE PLANT,9733 MEADOR RD.,77303,facilities_20220311.csv,"c(-95.4614812, 30.3777942)",1
110040146945,SOUTH MAIN DERAILMENT,12200 SOUTH MAIN STREET,77035,facilities_20220311.csv,"c(-95.4614857, 29.6480669)",1
110005179298,ORPHARM,4815 DACOMA ST,77092,facilities_20220311.csv,"c(-95.4617679, 29.8064932)",1
110005097901,PENNZOIL QUAKER STATE COMPANY,1520 LAKE FRONT CIR,77380,facilities_20220311.csv,"c(-95.462464, 30.1712744)",1
110008151132,NUBIO DIAGNOSTICS INC,1107 IH 45 S,77304,facilities_20220311.csv,"c(-95.4626278, 30.2908096)",1
110005129761,EXXON MOBIL NO 67234,12585 N BAMMEL HOUSTON,77066,Google geocoding API - GS,"c(-95.4635502, 30.0068875)",1
110009504401,ARONEX PHARMACEUTICALS INC,9391 GROGANS MILL RD SUITE A1,77380,facilities_20220311.csv,"c(-95.4659448, 30.1681173)",1
110005054289,FUTURE PIPE INDUSTRIES,11811 PROCTOR RD,77038,facilities_20220311.csv,"c(-95.4668048, 29.9049334)",1
110005031884,PEARSALL CHEMICAL CORPORATION,2519 FAIRWAY PARK DR,77087,facilities_20220311.csv,"c(-95.4685658, 29.8104503)",1
110067035791,SAWDUST LAB,1544 SAWDUST RD.,77380,facilities_20220311.csv,"c(-95.4685759, 30.1280133)",1
110002133904,INDUSTRIAL COATING SPECIALTIES,5521 MITCHELLDALE,77092,facilities_20220311.csv,"c(-95.4695282, 29.813228)",1
110070602361,AMAZONCOM SERVICES DHO4,5615 W FUQUA ST BLDG D,77085-4079,Google geocoding API - GS,"c(-95.472994, 29.608434)",1
110070801659,JACAM THE WOODLANDS,2319 TIMBERLOCH PL STE H,77380-1040,Google geocoding API - GS,"c(-95.4732757, 30.1591345)",1
110042427059,CAMPIER & CO,6702 ANTOINE DR,77091,Google geocoding API - GS,"c(-95.4732795, 29.8615749)",1
110034855574,NEW WAVERLY PLANT,37 FM 2793,77358,facilities_20220311.csv,"c(-95.473992, 30.577983)",1
110000746471,R&D MARBLE INC.,11743 HIGHWAY 75 NORTH,77378,facilities_20220311.csv,"c(-95.4740948, 30.4045577)",1
110070224730,CUSOL COMPANY INC.,13326 RALPH CULVER ROAD,77086,facilities_20220311.csv,"c(-95.4741562, 29.9278048)",1
110000462268,INTERNATIONAL PAINT INCORPORATED,6001 ANTOINE DRIVE,77091,facilities_20220311.csv,"c(-95.4751188, 29.8549815)",1
110005180810,ARONEX PHARMACEUTICALS,8707 TECHNOLOGY FOREST PLACE,77381,facilities_20220311.csv,"c(-95.4813038, 30.1859557)",1
110005016339,ARONEX PHARMACEUTICALS,3400 RESEARCH FOREST DR,77381,facilities_20220311.csv,"c(-95.481821, 30.1807818)",1
110005146494,PHILLIPS 66,5757 BELLAIRE BLVD,77081,facilities_20220311.csv,"c(-95.4822664, 29.7050123)",1
110035190708,VALERO CORNER STORE 2369,6450 W 43RD ST,77092,facilities_20220311.csv,"c(-95.4860761, 29.8336836)",1
110000462080,PPG ARCHITECTURAL COATINGS,3530 LANG ROAD,77092,facilities_20220311.csv,"c(-95.4883088, 29.82523)",1
110037445066,CRYSTAL CHEMICAL COMPANY,7979 BLANKENSHIP DR,77055,facilities_20220311.csv,"c(-95.4900352, 29.8197191)",1
110070516141,CAMERON DISTRIBUTION CENTER,4800 W GREENS RD,77066,facilities_20220311.csv,"c(-95.490567, 29.9452246)",1
110000461937,CAPITAL SOUTHWEST RECTORSEAL,2601 SPENWICK DR.,77055,facilities_20220311.csv,"c(-95.4915658, 29.8226384)",1
110005029897,INX INTERNATIONAL INK BLANKENSHIP DR,8027 BLANKENSHIP DRIVE,77055,facilities_20220311.csv,"c(-95.4916958, 29.8195681)",1
110070165078,TEXACO SERVICE STATION 42 049 1526,13210 VETERANS MEMORIAL DR,770141602,Google geocoding API - GS,"c(-95.4921394, 29.9802411)",1
110033532657,BLUE RIDGE PLANT,5035 MCHARD RD,77053,facilities_20220311.csv,"c(-95.4929683, 29.581206)",1
110000896727,E I DUPONT DE NEMOURS,8125 KEMPWOOD DR,77055,facilities_20220311.csv,"c(-95.4945967, 29.8170035)",1
110005062350,CALGON CORPORATION,3300 BINGLE RD,77055,facilities_20220311.csv,"c(-95.4946018, 29.8238456)",1
110071192960,FULGENT,8560 KATY FWY STE 200,77024-1810,Google geocoding API - GS,"c(-95.4960112, 29.7863219)",1
110001869853,TEXAS UNITED PIPE,11627 N HOUSTON-ROSSLYN RD,77086,facilities_20220311.csv,"c(-95.4967349, 29.9024455)",1
110020583402,MARCUS OIL & CHEMICAL EXPLOSION,14000 MINETTA,77035,facilities_20220311.csv,"c(-95.4974483, 29.6356159)",1
110005025766,US ENVIRONMENTAL PROTECTION AGENCY,6608 HORNWOOD,77074,facilities_20220311.csv,"c(-95.4993691, 29.708846)",1
110033935963,GPEX HOUSTON MANUFACTURING FACILITY,0,77086,facilities_20220311.csv,"c(-95.499576, 29.9262761)",1
110000462053,PILOT CHEMICAL CO,11623 N HOUSTON ROSSLYN RD,77086,facilities_20220311.csv,"c(-95.5000882, 29.9029894)",1
110069708007,KROGER MAINTENANCE,7170 W 43RD ST STE 150,77092-5729,Google geocoding API - GS,"c(-95.5009976, 29.8364162)",1
110005079823,NL CHEMICALS,1843 BINGLE ROAD,77055,facilities_20220311.csv,"c(-95.5018399, 29.8044807)",1
110005039065,BOEHRINGER MANNHEIM,7800 WESTPARK DRIVE,77063,facilities_20220311.csv,"c(-95.5031927, 29.7238455)",1
110005064116,M-I DRILLING FLUIDS ERL PLANT,11808 CANEMONT,77035,facilities_20220311.csv,"c(-95.5036327, 29.6339834)",1
110011449156,SOLUGEN MINETTA FACILITY,14549 MINETTA,77035,facilities_20220311.csv,"c(-95.5038376, 29.635013)",1
110054866784,MATERIALS SCIENCE TECHNOLOGY INC - MARKET DEVELOPMENT,3607 N LOOP 336 W,77304,Google geocoding API - GS,"c(-95.5040425, 30.3131973)",1
110055948364,STAPLES CONTRACT & COMMERCIAL,6400 HOLLISTER ST,770406809,Google geocoding API - GS,"c(-95.504559, 29.8580635)",1
110033860365,IN-LINE PLASTICS LC,8615 GOLDEN SPIKE LN,770863238,Google geocoding API - GS,"c(-95.5047391, 29.9095753)",1
110012555939,MATERIA,7629 STATE HIGHWAY 75 S,77340,facilities_20220311.csv,"c(-95.506683, 30.661542)",1
110043587785,TITAN INDUSTRIES,22335 GOSLING RD,77389,facilities_20220311.csv,"c(-95.5080586, 30.0895457)",1
110007193287,PAVERS SUPPLY CO PLANT 2 HUNTSVILLE,1118 US HIGHWAY 190,77340,facilities_20220311.csv,"c(-95.5087962, 30.7091267)",1
110022832675,PORTRAIT INNOVATIONS INC,5315 FM 1960 RD W STE D,77069,facilities_20220311.csv,"c(-95.5099027, 29.9797033)",1
110005057892,TAM INTERNATIONAL INC,4047 HOLLISTER,77080,facilities_20220311.csv,"c(-95.5101896, 29.8300903)",1
110071140323,AMAZONCOM SERVICES DHX4,22300 NORTHCREST DR,77389,Google geocoding API - GS,"c(-95.5131316, 30.089831)",1
110033767252,KEMPER VALVE FITTINGS CORP,5650 GUHN RD,770406135,Google geocoding API - GS,"c(-95.5134311, 29.8466809)",1
110070124101,"NIAGARA BOTTLING, LLC",14810 FAIRWAY PINES DR.,77489,facilities_20220311.csv,"c(-95.5140012, 29.6096756)",1
110005157409,WIKOFF COLOR CORP,4544 S PINEMONT STE 220,77041,facilities_20220311.csv,"c(-95.515576, 29.8369764)",1
110070942904,NCFI MISSOURI CITY,1023 BUFFALO RUN,77489,Google geocoding API - GS,"c(-95.5165701, 29.6118534)",1
110070126631,VWR MISSOURI CITY,521 HIGHWAY 90 A STE 140,77489-1305,Google geocoding API - GS,"c(-95.5199034, 29.6238753)",1
110005164311,POLYSPEC,6614 GANT RD,77066,facilities_20220311.csv,"c(-95.5203133, 29.9581062)",1
110000825135,POLYTEX FIBERS CORPORATION,9341 BAYTHORNE DR,77041-7785,Google geocoding API - GS,"c(-95.5213929, 29.842066)",1
110008060560,AIRGAS SOUTHWEST,13636 HEMPSTEAD HWY,77040,facilities_20220311.csv,"c(-95.5231417, 29.8474876)",1
110011469179,PURITAN/CHURCHILL CHEMICAL CO,4802 BLALOCK ROAD,77041,facilities_20220311.csv,"c(-95.5245814, 29.8433219)",1
110070308095,SEMASYS,4701 BLALOCK RD,77041-9240,Google geocoding API - GS,"c(-95.5246317, 29.8403609)",1
110011390306,"CSA LIMITED, INC.",16212 STATE HIGHWAY 249,77086,facilities_20220311.csv,"c(-95.5248365, 29.9461275)",1
110070380556,AMAZONCOM SERVICES HHO2,6911 FAIRBANKS N HOUSTON RD,77040-1437,Google geocoding API - GS,"c(-95.5261342, 29.8685866)",1
110000824779,PERFORMANCE PLASTIC PRODU,5055 CRANSWICK,77041,facilities_20220311.csv,"c(-95.5264111, 29.8463509)",1
110000461526,DREYER'S GRAND ICE CREAM,4494 CAMPBELL ROAD,77041-9100,Google geocoding API - GS,"c(-95.5272838, 29.8373514)",1
110070826640,AMAZONCOM SERVICES HOU7,16225 TOMBALL PKWY BLDG A,77064,Google geocoding API - GS,"c(-95.5286888, 29.9453419)",1
110060261746,ITW POLYMERS COATINGS NA,12055 CUTTEN RD,77066,facilities_20220311.csv,"c(-95.5289806, 29.9546853)",1
110070189890,3D PRINT BUREAU OF TEXAS,3923 ARTDALE ST,77063,facilities_20220311.csv,"c(-95.5300169, 29.7216903)",1
110000769730,"VAN LEER FLEXIBLE, INC.",9505 BAMBOO RD.,77041,facilities_20220311.csv,"c(-95.5301121, 29.84797)",1
110071074818,AMAZONCOM SERVICES STX5,5215 CAMPBELL RD,77041-7607,Google geocoding API - GS,"c(-95.5326532, 29.8455529)",1
110000461535,AXALTA COATING SYSTEMS LLC,9800 GENARD RD,77041,facilities_20220311.csv,"c(-95.5341934, 29.8454875)",1
110070435174,AMAZONCOM SERVICES DPA7,9851 FALLBROOK PINES DR,77064-3329,Google geocoding API - GS,"c(-95.5346616, 29.9208474)",1
110037197887,AMICON PLASTICS,8500 COMMERCE PARK DR STE 105,77036,facilities_20220311.csv,"c(-95.5360556, 29.6873731)",1
110005169824,PRO PLASTICS WINDFERN FACILITY,4702 WINDFERN RD,77041,facilities_20220311.csv,"c(-95.536296, 29.8407675)",1
110070868473,AMAZONCOM SERVICES DHO3,9155 9155 DERRINGTON RD,77064,Google geocoding API - GS,"c(-95.5364656, 29.9205916)",1
110008972781,CLEAN ENERGY TEXAS LNG,12114 LONGSTREET ROAD,77318,facilities_20220311.csv,"c(-95.5380208, 30.4461914)",1
110002134020,FLOATEC CORP,14019 D S GESSNER RD,77459,facilities_20220311.csv,"c(-95.5396228, 29.6206627)",1
110005129100,BISSONNET EXXON 62017,9322 BISSONNET,77074,facilities_20220311.csv,"c(-95.5406069, 29.6763099)",1
110035384143,PAVERS SUPPLY HUNTSVILLE PLANT PORTABLE GRINDING UNIT,PORTABLE,77340,Google geocoding API - GS,"c(-95.5407299, 30.6631264)",1
110005164295,HOUSTON SPECIALTY PRODUCTS CO,14518 HEMPSTEAD 1G,77040,facilities_20220311.csv,"c(-95.541345, 29.8603353)",1
110070207319,ADVANCED AUTO PARTS DISTRIBUTION CENTER 49,11810 N GESSNER RD,77064-1189,Google geocoding API - GS,"c(-95.5444098, 29.9432249)",1
110008052659,"AMERICAN MATERIALS, INC.",2122 HIGHWAY 90A,77459,facilities_20220311.csv,"c(-95.5452882, 29.6167777)",1
110071140326,AMAZONCOM SERVICES - DHO8,11311 11311 N GESSNER RD,77064-1342,Google geocoding API - GS,"c(-95.5496885, 29.9409794)",1
110035112231,VALERO CORNER STORE 2328,9710 BEECHNUT ST,77036,facilities_20220311.csv,"c(-95.5516791, 29.6904652)",1
110035384232,SURFACE COATING FACILITY,10435 OKANELLA,77041,facilities_20220311.csv,"c(-95.5533606, 29.8584345)",1
110005066196,THE FLUOROCARBON COMPANY,10420 OLD KATY RD,77043,facilities_20220311.csv,"c(-95.5549503, 29.7850354)",1
110000825395,MSI PRODUCTS,9110 MEADOW VISTA BLVD,77064,facilities_20220311.csv,"c(-95.5559035, 29.948508)",1
110070435166,HOME DEPOT #5501 HOUSTON MDO,7301 SECURITY WAY,77040,Google geocoding API - GS,"c(-95.5570114, 29.8754314)",1
110043694696,AMERICAN POOLS,10528 TANNER RD,77041,facilities_20220311.csv,"c(-95.5581594, 29.8505275)",1
110005076782,GAVLON INDUSTRIES,10531 FISHER RD,77041,facilities_20220311.csv,"c(-95.5587028, 29.858672)",1
110005017454,TRIARCH INDUSTRIES INC,10605 & 10613 STEBBINS CIR,77043,facilities_20220311.csv,"c(-95.5588627, 29.7979064)",1
110038258088,"STOLLER ENTERPRISES, INC.",10551 FISHER RD,77041,Google geocoding API - GS,"c(-95.5590617, 29.8649989)",1
110005067952,NITA INDUSTRIES INC,10549 W LITTLE YORK,77041,facilities_20220311.csv,"c(-95.559718, 29.8646109)",1
110015582920,BRIGHT MARBLE CO,9103-G FM 1960 WEST,77070,facilities_20220311.csv,"c(-95.5599376, 29.949419)",1
110008167928,CRYSTAL CHEMICAL CO.,3502 ROGERDALE ROAD,77042,facilities_20220311.csv,"c(-95.56067, 29.719992)",1
110037446207,PLASTOMER TECHNOLOGIES,10633 W LITTLE YORK RD,77041,facilities_20220311.csv,"c(-95.561974, 29.8664535)",1
110001132444,FLOATEC CORP,13393 MURPHY RD,77477,facilities_20220311.csv,"c(-95.5623022, 29.628517)",1
110005041141,HEMPEL COATINGS,1716 W SAM HOUSTON PKWY N,77043,facilities_20220311.csv,"c(-95.5630298, 29.8036245)",1
110070435206,STEPAN,2901 W SAM HOUSTON PKWY N STE,77043,facilities_20220311.csv,"c(-95.56465, 29.8205382)",1
110000462160,IGLOO PRODS  CORP,1001 W. SAM HOUSTON PKY.,77043,Google geocoding API - GS,"c(-95.565009, 29.786369)",1
110005050014,FISHER SCIENTIFIC COMPANY LLC,10700 ROCKLEY RD,77099,Google geocoding API - GS,"c(-95.5664943, 29.6645398)",1
110070165112,STAR ENTERPRISE,16131 NORTHWEST FWY,77040,facilities_20220311.csv,"c(-95.566526, 29.877746)",1
110013796730,JONES ROAD GROUND WATER PLUME,POSTAL ADDRESS IS UNAVAILABLE FOR THE SITE,77070,facilities_20220311.csv,"c(-95.5675483, 29.9811013)",1
110037907334,MONOFLO,4514 BRITTMOORE RD,77041,facilities_20220311.csv,"c(-95.5686298, 29.8389903)",1
110017279309,B AND E SERVICES INC,706 OLD HIGHWAY 105,77304,facilities_20220311.csv,"c(-95.5697402, 30.3464678)",1
110005019648,SUNBELT ASPHALT & MATERIALS INC,1136 BRITTMOORE RD,77043,facilities_20220311.csv,"c(-95.5698295, 29.7894424)",1
110005080401,JEWELL SERVICES,10902 SHADOW WOOD DR,77043-2719,Google geocoding API - GS,"c(-95.5701579, 29.8048862)",1
110035034067,VALERO CORNER STORE 2323,11200 S WILCREST DR,77099,facilities_20220311.csv,"c(-95.570319, 29.6592264)",1
110034092014,GREAT SOURTHERN LABORATORIES,10863 ROCKLEY RD,77072,facilities_20220311.csv,"c(-95.5715347, 29.6649196)",1
110017285560,GE OIL & GAS COMPRESSION SYSTEMS HOUSTON,16250 PORT NORTHWEST DR,77041,Google geocoding API - GS,"c(-95.5725579, 29.8779924)",1
110000842679,BURZYNSKI RESEARCH INSTITUTE,12707 TRINITY DRIVE,77477,facilities_20220311.csv,"c(-95.5742811, 29.6350557)",1
110001138778,AMERICAN COATINGS,22802 COMMERCIAL LN,77375,facilities_20220311.csv,"c(-95.5751427, 30.0893314)",1
110002445541,LIQUID AIR CORP INDUSTRIAL GASES DIV,12201 SOUTHWEST FWY,77477,facilities_20220311.csv,"c(-95.5761684, 29.6386772)",1
110000462375,AMERICAN COATINGS INC,10625 MAHAFFEY RD.,77375,facilities_20220311.csv,"c(-95.5776096, 30.0919089)",1
110020515673,CAMERON INTERNATIONAL TOPSIDES CONTROLS,11327 TANNER RD,77041,facilities_20220311.csv,"c(-95.578384, 29.8480992)",1
110005040008,EPOXY DESIGNS INC,1800 SHERWOOD FOREST BLDG E,77043,facilities_20220311.csv,"c(-95.5784251, 29.7996474)",1
110015780671,LANCASTER FURNITURE COMPANY,5855 CUNNINGHAM RD,77041,facilities_20220311.csv,"c(-95.5817897, 29.8532277)",1
110008161416,JONES ROAD EXXON 69395,17438 NORTHWEST FWY,77040,facilities_20220311.csv,"c(-95.5839193, 29.8908434)",1
110035310589,VALERO CORNER STORE 2321,9096 JONES RD,77065,facilities_20220311.csv,"c(-95.5839685, 29.9070145)",1
110034006965,GENERON SYSTEMS,11985 FM 529 RD,77041,facilities_20220311.csv,"c(-95.5853123, 29.8800127)",1
110070165083,TEXACO SERVICE STATION,11905 BISSONNET ST,770991469,Google geocoding API - GS,"c(-95.5877799, 29.6747882)",1
110000461562,CHAMPION COATINGS,7403 WRIGHT ROAD,77041,facilities_20220311.csv,"c(-95.5900117, 29.8850956)",1
110018904907,SAFETY-KLEEN SYSTEMS,11953 FM 529 ROAD,77041,facilities_20220311.csv,"c(-95.5908587, 29.8753277)",1
110012703618,3M TOMBALL,11715 BOUDREAUX RD,77375,facilities_20220311.csv,"c(-95.5949628, 30.0532652)",1
110059673919,ALIEF OIL RECYCLERS,12217 6TH ST,77072,facilities_20220311.csv,"c(-95.5952295, 29.7129276)",1
110055506796,"COOLGAS, INC. DBA A-GAS AMERICAS",30045 FM 2978 RD,77354,facilities_20220311.csv,"c(-95.5954491, 30.1886515)",1
110009503741,MYLAN INSTITUTIONAL,12720 DAIRY ASHFORD,77478-2844,Google geocoding API - GS,"c(-95.5982222, 29.6625034)",1
110002400900,NCI BUILDING SYSTEMS LP,7301 FAIRVIEW DRIVE,77041,facilities_20220311.csv,"c(-95.6000112, 29.8866084)",1
110041218367,BONANZA MARBLE,7043 C SATSUMA DR,77055,Google geocoding API - GS,"c(-95.6028845, 29.8809006)",1
110005183620,BAKER PETROLITE SUGAR LAND,12645 W AIRPORT,77478-6120,Google geocoding API - GS,"c(-95.603336, 29.6461084)",1
110000461517,BONANZA MARBLE,7043-C SATSUMA DRIVE,77041,facilities_20220311.csv,"c(-95.6035002, 29.8810998)",1
110070289334,PHARMEDIUM SERVICES,12620 W AIRPORT BLVD STE 130,77478-6200,Google geocoding API - GS,"c(-95.6043212, 29.6482329)",1
110070178124,AUTOZONE 4258,11902 SPRING CYPRESS RD,773778086,Google geocoding API - GS,"c(-95.6062915, 30.0131839)",1
110070176192,AUTOZONE 4242,6400 N ELDRIDGE PKWY,770413506,Google geocoding API - GS,"c(-95.6079365, 29.8684753)",1
110000461580,GIRARD INDUSTRIES INC,6531 N. ELDRIDGE PKY.,77041,facilities_20220311.csv,"c(-95.6097809, 29.8692552)",1
110000461688,"VARN INTERNATIONAL, INC.",14000 WESTFAIR E. DR.,77041,facilities_20220311.csv,"c(-95.6118024, 29.9028262)",1
110000769767,DICAR,1302 S. CHERRY ST.,77375,facilities_20220311.csv,"c(-95.6128189, 30.0862012)",1
110001867800,GATES MOLDED PRODUCTS COMPANY,13601 SPENCER ROAD.,77041,facilities_20220311.csv,"c(-95.6154722, 29.8788835)",1
110000825420,CONOCO CENTER CORPORATE HDQTR,600 N DAIRY ASHFORD ST,77079,facilities_20220311.csv,"c(-95.6160825, 29.7887279)",1
110035112491,VALERO CORNER STORE 2190,7350 JACKRABBIT RD,77041,facilities_20220311.csv,"c(-95.6202092, 29.8853909)",1
110010684161,HYPONEX HUNTSVILLE THE SCOTTS,1284 STATE HWY 75N,77340,facilities_20220311.csv,"c(-95.6220932, 30.750843)",1
110043231044,TEXAS INTERNATIONAL BUSINESS LLC,211 APRIL WATERS WEST,77356,Google geocoding API - GS,"c(-95.6236583, 30.368909)",1
110070178127,AUTOZONE 4240,13739 CYPRESS NORTH HOUSTON RD,774293752,Google geocoding API - GS,"c(-95.6273541, 29.9469681)",1
110031018100,TASKER MANUFACTURING CORP,13235 HWY 105 W,77304,facilities_20220311.csv,"c(-95.6338837, 30.3727814)",1
110070178123,AUTOZONE 4259,8477 HIGHWAY 6 N,770952003,Google geocoding API - GS,"c(-95.634907, 29.9012783)",1
110041724346,VALERO CORNER STORE 2233,29926 TOMBALL PKWY,77375,facilities_20220311.csv,"c(-95.6387096, 30.105852)",1
110000506097,RANDALLS DISTRIBUTION CENTER,10700 TELGE ROAD,77095-5002,Google geocoding API - GS,"c(-95.6430018, 29.9263521)",1
110070863245,INHANCE TECHNOLOGIES BERWICK,22008 22008 N BERWICK DR,77095-5053,Google geocoding API - GS,"c(-95.6433305, 29.9295804)",1
110038320000,CHAMPION LANDSCAPE SUPPLIES,1723 HWY 6 SOUTH,77077,facilities_20220311.csv,"c(-95.6434245, 29.7517663)",1
110006129723,EXXON USA 60033,745 HIGHWAY 6 S,77079,facilities_20220311.csv,"c(-95.6437823, 29.7759619)",1
110039099506,CENTURY CORROSION TECH,9710 TELGE RD,77095,facilities_20220311.csv,"c(-95.6450557, 29.9220312)",1
110035063891,VALERO CORNER STORE 2219,4974 HIGHWAY 6 N,77084,facilities_20220311.csv,"c(-95.6452816, 29.8485735)",1
110022904945,AQUAFORM INC,8500 HWY 6 S,77083,facilities_20220311.csv,"c(-95.6462058, 29.6863427)",1
110064000502,HOUSTON ORGANIZATION MAINTENANCE SHOP #36,15150 WESTHEIMER PKWY,77082,facilities_20220311.csv,"c(-95.6502933, 29.7376528)",1
110034987628,VALERO CORNER STORE 2384,18680 HIGHWAY 105 W,77356,facilities_20220311.csv,"c(-95.6505808, 30.3822691)",1
110070165077,TEXACO SERVICE STATION,15100 BELLAIRE BLVD,770833104,Google geocoding API - GS,"c(-95.6532511, 29.701402)",1
110033705408,JC DEVELOPMENT,31810 INDUSTRIAL PARK DRIVE,77362,facilities_20220311.csv,"c(-95.6540317, 30.1279491)",1
110035114293,VALERO CORNER STORE 2348,16250 FM 529 RD,77095,facilities_20220311.csv,"c(-95.6542148, 29.8796401)",1
110005016320,KCC CORROSION CONTROL,4010 TREY RD,77084,facilities_20220311.csv,"c(-95.654664, 29.831649)",1
110000462464,BOLFING BROTHERS MARBLE INC,18407 TELGE ROAD,77429,facilities_20220311.csv,"c(-95.6603897, 30.0398861)",1
110005114660,BAKER INDUSTRIAL CHEMICALS,16155 PARK ROW NO 160,77084,facilities_20220311.csv,"c(-95.6632485, 29.7883088)",1
110002343633,INHANCE TECHNOLOGIES,16223 PARK ROW STE 100,77084,facilities_20220311.csv,"c(-95.6652691, 29.7883431)",1
110005064651,KRATON INNOVATION CENTER HOUSTON,16400 PARK ROW,77084,facilities_20220311.csv,"c(-95.6677324, 29.7897442)",1
110070739691,SPECTRUM QUALITY STANDARDS,17360 GROSCHKE RD,77084,facilities_20220311.csv,"c(-95.6689349, 29.8171686)",1
110059776112,ESCO PLASTICS,32920 DECKER PRAIRIE RD,77355,facilities_20220311.csv,"c(-95.6697071, 30.1348058)",1
110033529750,BLUE GRASS CHEMICAL SPECIALTIES,16703 STEINHAGEN RD,77429,facilities_20220311.csv,"c(-95.6730359, 30.0158646)",1
110001132435,BLUE GRASS CHEMICAL SPECIALTIES LP,16703 GRANT RD.,77429,facilities_20220311.csv,"c(-95.6732825, 30.0232341)",1
110033949592,LIPETROL TECHNOLOGIES,527A GOODSON LOOP,773622589,Google geocoding API - GS,"c(-95.6854975, 30.1636376)",1
110034756734,PAVERS SUPPLY,12942 FM 149 RD,77316,facilities_20220311.csv,"c(-95.6966403, 30.36774)",1
110000462437,CRAIG BAKER MARBLE CO INC,1918 BAKER RD.,77413,facilities_20220311.csv,"c(-95.703887, 29.7595253)",1
110039147964,GREENHOUSE ROAD CHEMICAL FIRE,4949 GREENHOUSE ROAD,77084-5590,facilities_20220311.csv,"c(-95.7045917, 29.8472332)",1
110037446537,HOUSTON TECHNOLOGY CENTER,19408 PARK ROW STE 320,77084,facilities_20220311.csv,"c(-95.7092492, 29.7918436)",1
110064465305,BETHYL LABORATORIES,25043 W FM 1097 RD,77356,facilities_20220311.csv,"c(-95.7311939, 30.4144929)",1
110070170419,TEXACO SERVICE STATION 42 049 1394,890 S MASON RD,774503941,Google geocoding API - GS,"c(-95.7433756, 29.7062785)",1
110064100440,LAKE CREEK FACILITY,9810 FM 1448,77355,facilities_20220311.csv,"c(-95.7507815, 30.2093794)",1
110006452374,MASON RD EXXON 60115,585 S MASON,77450,facilities_20220311.csv,"c(-95.7511504, 29.7751988)",1
110070838669,PROJECT MCFLY,22525 CLAY RD,77449-8200,Google geocoding API - GS,"c(-95.7678394, 29.8292521)",1
110000599326,H  C  CHANDLER & SON INC,HWY 105 W,77363,Google geocoding API - GS,"c(-95.8048312, 30.3548674)",1
110009504937,MMD ENTERPRISES INC. - DBA AG-TEX CHEMICAL INC.,802 AVENUE A,77493,Google geocoding API - GS,"c(-95.8205298, 29.786231)",1
110033987639,HOCKLEY ASPHALT PLANT,PORTABLE UNITLOCATED IN THE SOUTHWEST QUADRANT OF,77447,facilities_20220311.csv,"c(-95.8458562, 30.026861)",1
110070170309,THE GOOD YEAR TIRE & RUBBER KATY SITE,27705 KATY FWY,77494,facilities_20220311.csv,"c(-95.8461814, 29.7763351)",1
110070686490,WEST TEN BUSINESS PARK - BUILDING 3,28420 W TEN BLVD,77494-1514,Google geocoding API - GS,"c(-95.8561566, 29.7792297)",1
110002317546,STATE CHEMICAL MFG CO,30001 KATY BROOKSHIRE ROAD,77494,facilities_20220311.csv,"c(-95.8793387, 29.7819771)",1
110008157181,CAMERON ELASTOMER TECH,29501 KATY FRWY & PEDERSON RD,77494,facilities_20220311.csv,"c(-95.8811343, 29.7772602)",1
110062279225,PFP TECHNOLOGY,29738 GOYNES ROAD,77493,facilities_20220311.csv,"c(-95.8867136, 29.8532045)",1
110070225313,AMAZONCOM SERVICES HOU3,31555 KATY-BROOKSHIRE RD,77493,Google geocoding API - GS,"c(-95.8896114, 29.7860614)",1
110058209219,IGLOO PRODUCTS CORP.,777 IGLOO RD.,77494,Google geocoding API - GS,"c(-95.9049846, 29.7821093)",1
110025334029,CENTURY ASPHALT LTD  KATY PLANT,27734 US HWY 90,77494,facilities_20220311.csv,"c(-95.9051055, 29.7861124)",1
110040361783,RAVAGO MANUFACTURING AMERICAS WALLER PLANT,18314 MATHIS RD,77484,facilities_20220311.csv,"c(-95.9053971, 30.0425953)",1
110054867916,MPOWER SPECIALTY CHEMICALS,30683 FM 529 RD,77423,facilities_20220311.csv,"c(-95.9066263, 29.8742106)",1
110041385177,FM529 ASPHALT PLANT,FM 529 & US 290 W 1 MI ON FM 529; 0.3 MI S ON FM529,77041,Google geocoding API - GS,"c(-95.9089985, 29.8741936)",1
110001148954,U.S. DEPARTMENT OF ENERGY,COUNTY RD 242A,77541,Google geocoding API - GS,"c(-95.9170215, 30.5975261)",1
110034229911,NEW ENERGY FUELS,41095 PARK 290 DR BLDG B,77484,facilities_20220311.csv,"c(-95.9372145, 30.0679251)",1
110064465127,PFP INDUSTRIES,34011 SUNSET LN,774238517,Google geocoding API - GS,"c(-95.9584314, 29.8769806)",1
110035426802,FLOWCHEM,20333 BLINKA RD,77484,facilities_20220311.csv,"c(-95.96909, 30.0653146)",1
110033740520,FM 529 ASPHALT PLANT,FROM THE INTERSECTON OF FM 529 AND US 290 GO 1 MI,77041,facilities_20220311.csv,"c(-98.5608945, 30.2436428)",1
