REGISTRY_ID,postal_code,formatted_address,lat,lng,location_type,geocode_result,geocode_attempt
110000461009,77015,"1914 Haden Rd, Houston, TX 77015, USA",29.760511,-95.176798,ROOFTOP,success,1
110000461526,77041,"4494 Campbell Rd, Houston, TX 77041, USA",29.8373514,-95.5272838,ROOFTOP,success,1
110000461875,77051,"10617 E Almeda St, Houston, TX 77051, USA",29.6690023,-95.3962909,ROOFTOP,success,1
110000462160,77043,"1001 W Sam Houston Pkwy N, Houston, TX 77043, USA",29.786369,-95.565009,ROOFTOP,success,1
110000462801,77507,"10001 Chemical Rd, Pasadena, TX 77507, USA",29.6174024,-95.0539597,ROOFTOP,success,1
110000462963,77507,"10500 Bay Area Blvd, Pasadena, TX 77507, USA",29.6070311,-95.0527988,ROOFTOP,success,1
110000463169,77520,"3525 Decker Dr, Baytown, TX 77520, USA",29.7605481,-95.010567,ROOFTOP,success,1
110000463178,77520,"5000 Bayway Dr, Baytown, TX 77520, USA",29.7404465,-95.024826,ROOFTOP,success,1
110000463374,77536,"730 Battleground Rd, Deer Park, TX 77536, USA",29.7027321,-95.0938191,RANGE_INTERPOLATED,success,1
110000463392,77541,"602 Copper Rd, Freeport, TX 77541, USA",29.0025048,-95.3935461,ROOFTOP,success,1
110000463427,77541,"702 FM523, Freeport, TX 77541, USA",28.9731599,-95.3420458,ROOFTOP,success,1
110000463445,77541,"102 S Avenue A, Freeport, TX 77541, USA",28.9594264,-95.3600858,ROOFTOP,success,1
110000463481,77547,"903 Mayo Shell Rd, Galena Park, TX 77547, USA",29.7260983,-95.2435862,ROOFTOP,success,1
110000463739,77583,"14910 Airline Rd S, Rosharon, TX 77583, USA",29.3690674,-95.4435807,ROOFTOP,success,1
110000463891,77619,"6287 Gulfway Dr, Groves, TX 77619, USA",29.9343737,-93.8991651,ROOFTOP,success,1
110000463917,77627,"6350 N Twin City Hwy, Nederland, TX 77627, USA",30.0164211,-94.0320959,ROOFTOP,success,1
110000464006,77640,"1801 S Gulfway Dr, Port Arthur, TX 77640, USA",29.8663591,-93.9651858,ROOFTOP,success,1
110000464015,77705,"1212 Brai Dr, Beaumont, TX 77705, USA",29.9520647,-94.0393307,ROOFTOP,success,1
110000464024,77640,"Roosevelt Ave & 53rd St, Port Arthur, TX 77640, USA",29.8923148,-93.9909106,GEOMETRIC_CENTER,success,1
110000464042,77640,"2450 S Gulfway Dr, Port Arthur, TX 77640, USA",29.8272932,-93.9637315,ROOFTOP,success,1
110000464051,77640,"4245 Savannah Ave, Port Arthur, TX 77640, USA",29.9018655,-93.96487,ROOFTOP,success,1
110000464088,77651,"2401 TX-136 Spur, Port Neches, TX 77651, USA",29.9745077,-93.9449928,RANGE_INTERPOLATED,success,1
110000464131,77701,"2775 Gulf States Rd, Beaumont, TX 77701, USA",30.0630821,-94.0595461,ROOFTOP,success,1
110000464140,77701,"2655 Gulf States Rd, Beaumont, TX 77701, USA",30.0615546,-94.0616009,ROOFTOP,success,1
110000464159,77701,"3510 Gulf States Rd, Beaumont, TX 77701, USA",30.0608335,-94.0481994,ROOFTOP,success,1
110000464168,77701,"2810 Gulf States Rd, Beaumont, TX 77701, USA",30.0600952,-94.0585072,ROOFTOP,success,1
110000464177,77705,"15651 W Port Arthur Rd, Beaumont, TX 77705, USA",29.9828836,-94.0599994,ROOFTOP,success,1
110000464195,77705,"1400 Olin Rd, Beaumont, TX 77705, USA",30.0439561,-94.0682279,ROOFTOP,success,1
110000464211,77701,"3980 Gulf States Rd, Beaumont, TX 77701, USA",30.0619895,-94.0481941,RANGE_INTERPOLATED,success,1
110000464239,77705,"14385 W Port Arthur Rd, Beaumont, TX 77705, USA",29.9677884,-94.0507143,ROOFTOP,success,1
110000495223,77541,"1811 FM523, Oyster Creek, TX 77541, USA",28.9870761,-95.3357853,ROOFTOP,success,1
110000497793,77465,"County Rd 372, Texas 77465, USA",28.6863259,-96.1793043,GEOMETRIC_CENTER,success,1
110000503688,77627,"4200 N Twin City Hwy, Nederland, TX 77627, USA",30.002111,-94.021782,ROOFTOP,success,1
110000504703,77445,"1275 Zach Rd, Hempstead, TX 77445, USA",30.1096479,-96.0809515,ROOFTOP,success,1
110000504801,77651,"2102 TX-136 Spur, Port Neches, TX 77651, USA",29.9763813,-93.9447915,ROOFTOP,success,1
110000505007,77868,"108 Peeples St, Navasota, TX 77868, USA",30.3836697,-96.1008496,ROOFTOP,success,1
110000505908,77868,"510 Malcolm St, Navasota, TX 77868, USA",30.3838669,-96.0886843,ROOFTOP,success,1
110000506097,77095,"10700 Telge Rd, Houston, TX 77095, USA",29.9263521,-95.6430018,ROOFTOP,success,1
110000599326,77363,"Hwy 105 W, Todd Mission, TX 77363, USA",30.3548674,-95.8048312,GEOMETRIC_CENTER,success,1
110000599433,77541,"1000 County Rd 227, Freeport, TX 77541, USA",29.0524128,-95.3359716,ROOFTOP,success,1
110000599451,77541,"6213 TX-332, Freeport, TX 77541, USA",28.9925606,-95.3609983,ROOFTOP,success,1
110000599488,77586,"5306 N Hwy 146, Seabrook, TX 77586, USA",29.5921886,-95.0296014,ROOFTOP,success,1
110000599567,77651,"Hogaboom Rd, Port Neches, TX 77651, USA",29.9568814,-93.9306334,GEOMETRIC_CENTER,success,1
110000599576,77651,"100 Port Neches Atlantic Rd, Port Neches, TX 77651, USA",29.9913753,-93.9403285,ROOFTOP,success,1
110000602170,77541,"TX-36, Quintana, TX 77541, USA",28.9699565,-95.4481579,GEOMETRIC_CENTER,success,1
110000606942,77575,"Liberty, TX 77575, USA",30.0265679,-94.7691586,APPROXIMATE,success,1
110000608263,77533,"Bobcat Ln, Daisetta, TX 77533, USA",30.113498,-94.6393085,GEOMETRIC_CENTER,success,1
110000608272,77665,"TX-124 & Rollins Rd, Texas 77665, USA",29.8326578,-94.3434625,GEOMETRIC_CENTER,success,1
110000619545,77511,"401 Callaway Dr, Alvin, TX 77511, USA",29.419846,-95.2656655,RANGE_INTERPOLATED,success,1
110000743839,77541,"5618 TX-332, Freeport, TX 77541, USA",28.9922718,-95.3534364,ROOFTOP,success,1
110000743848,77541,"5500 TX-332, Freeport, TX 77541, USA",28.9908524,-95.3547861,ROOFTOP,success,1
110000743893,77705,"6275 TX-347, Beaumont, TX 77705, USA",30.0320755,-94.0427225,GEOMETRIC_CENTER,success,1
110000743900,77627,"5470 N Twin City Hwy, Nederland, TX 77627, USA",30.0123826,-94.031561,ROOFTOP,success,1
110000746499,77627,"5500 Hwy 366, Nederland, TX 77627, USA",29.9866257,-93.9944462,RANGE_INTERPOLATED,success,1
110000746505,77713,"10658 US-90, Beaumont, TX 77713, USA",30.063438,-94.2207211,ROOFTOP,success,1
110000747318,77511,"FM 2917, Texas 77511, USA",29.2950372,-95.2249013,GEOMETRIC_CENTER,success,1
110000754167,77541,"2322 County Rd 229, Freeport, TX 77541, USA",28.9584405,-95.336119299999993,ROOFTOP,success,1
110000755022,77564,"Hull, TX 77564, USA",30.190141,-94.7070616,APPROXIMATE,success,1
110000755200,77627,"Hwy 366, Texas 77627, USA",29.9866237,-93.9944564,GEOMETRIC_CENTER,success,1
110000757734,77571,"Exel, 11935 Hwy 225, La Porte, TX 77571, USA",29.6914508,-95.0414762,ROOFTOP,success,1
110000757752,77571,"2759 Independence Pkwy, La Porte, TX 77571, USA",29.7429171,-95.0908621,ROOFTOP,success,1
110000822628,77503,"2216 Catalina Ave, Pasadena, TX 77503, USA",29.6786199,-95.1443878,ROOFTOP,success,1
110000825135,77041,"9341 Baythorne Dr, Houston, TX 77041, USA",29.842066,-95.5213929,ROOFTOP,success,1
110000825242,77303,"Rollingwood Loop, Texas 77303, USA",30.3958224,-95.3913522,GEOMETRIC_CENTER,success,1
110000861862,77640,"4241 Savannah Ave, Port Arthur, TX 77640, USA",29.8997725,-93.9697084,ROOFTOP,success,1
110000874723,77701,"1700 Doucette Ave, Beaumont, TX 77701, USA",30.0634062,-94.0785083,RANGE_INTERPOLATED,success,1
110001140391,77575,"Co Rd 126, Texas 77575, USA",29.9194833,-94.6771031,GEOMETRIC_CENTER,success,1
110001148749,77320,"2200 TX-19, Huntsville, TX 77320, USA",30.709646,-95.524923,ROOFTOP,success,1
110001148954,77873,"Co Rd 242A, Texas 77873, USA",30.5975261,-95.9170215,GEOMETRIC_CENTER,success,1
110001867588,77547,"1201 Mayo Shell Rd, Galena Park, TX 77547, USA",29.7239263,-95.2436265,ROOFTOP,success,1
110001867677,77587,"300 Christy Pl, South Houston, TX 77587, USA",29.6633152,-95.2350735,ROOFTOP,success,1
110001869274,77705,"3275 Amoco Rd, Beaumont, TX 77705, USA",30.0281403,-94.0437597,ROOFTOP,success,1
110002042502,77640,"3901 Coke Dock Rd, Port Acres, TX 77640, USA",29.8344659,-93.9623768,ROOFTOP,success,1
110002134155,77541,"1711 FM523, Oyster Creek, TX 77541, USA",28.9858583,-95.3358953,RANGE_INTERPOLATED,success,1
110002134226,77642,"5100 N Twin City Hwy, Port Arthur, TX 77642, USA",30.0034609,-94.0232527,GEOMETRIC_CENTER,success,1
110002134253,77640,"4545 Savannah Ave, Port Arthur, TX 77640, USA",29.9019221,-93.9648161,RANGE_INTERPOLATED,success,1
110002134280,77707,"1530 Lindbergh Dr, Beaumont, TX 77707, USA",30.0582575,-94.1558953,ROOFTOP,success,1
110002134324,77713,"8645 Broussard Rd, Beaumont, TX 77713, USA",30.1742758,-94.2165912,ROOFTOP,success,1
110002339568,77531,"6220 TX-332, Clute, TX 77531, USA",28.9940213,-95.3625832,RANGE_INTERPOLATED,success,1
110002339586,77705,"6895 TX-347, Beaumont, TX 77705, USA",30.0177155,-94.0438625,RANGE_INTERPOLATED,success,1
110005016945,26059,"Distribution Rd, West Virginia 26059, USA",40.0541366,-80.6127982,GEOMETRIC_CENTER,success,1
110005020645,77584,"18401 Amoco St, Pearland, TX 77584, USA",29.5091083,-95.2713836,RANGE_INTERPOLATED,success,1
110005021207,77520,"I-10, OLD RVR-WNFRE, TX 77520, USA",29.7917632,-95.0592913,GEOMETRIC_CENTER,success,1
110005023839,77706,"4190 Gladys Ave, Beaumont, TX 77706, USA",30.0935849,-94.1470979,ROOFTOP,success,1
110005028120,77503,"601 N South St, Pasadena, TX 77503, USA",29.7222221,-95.1732949,ROOFTOP,success,1
110005035470,77021,"3131 Holcombe Blvd, Houston, TX 77021, USA",29.7019347,-95.3796117,ROOFTOP,success,1
110005036923,77705,"Taylor Landing, TX 77705, USA",29.9564118,-94.1104449,APPROXIMATE,success,1
110005037209,77541,"608 E 2nd St, Freeport, TX 77541, USA",28.9482128,-95.337008,ROOFTOP,success,1
110005050014,77099,"10700 Rockley Rd, Houston, TX 77099, USA",29.6645398,-95.5664943,ROOFTOP,success,1
110005052003,77055,"3833 W 11th St, Houston, TX 77055, USA",29.7888299,-95.447435,ROOFTOP,success,1
110005052441,77705,"13300 W Port Arthur Rd, Beaumont, TX 77705, USA",29.9570388,-94.0434338,ROOFTOP,success,1
110005054403,77708,"7950 Eastex Fwy, Beaumont, TX 77708, USA",30.1432074,-94.1758947,ROOFTOP,success,1
110005067195,77026,"3684 Eastex Fwy, Houston, TX 77026, USA",29.7810835,-95.3403875,RANGE_INTERPOLATED,success,1
110005071796,77017,"5800 Surrey Square St, Houston, TX 77017, USA",29.6732681,-95.2540185,ROOFTOP,success,1
110005072303,77029,"701 Gellhorn Dr, Houston, TX 77029, USA",29.7850323,-95.2713823,ROOFTOP,success,1
110005078021,77541,"408 Holly St, Freeport, TX 77541, USA",28.9517815,-95.3668909,RANGE_INTERPOLATED,success,1
110005078110,77001,"Houston, TX 77001, USA",29.77,-95.37,APPROXIMATE,success,1
110005079066,77573,"FM1266, League City, TX 77573, USA",29.5024404,-95.0447785,GEOMETRIC_CENTER,success,1
110005079672,77651,"Avenue L, Texas 77651, USA",29.9823798,-93.9507749,GEOMETRIC_CENTER,success,1
110005080401,77043,"10902 Shadow Wood Dr, Houston, TX 77043, USA",29.8048862,-95.5701579,ROOFTOP,success,1
110005093362,77515,"1401 E Cedar St, Angleton, TX 77515, USA",29.1708872,-95.4156368,ROOFTOP,success,1
110005102913,77705,"Industrial Rd, Taylor Landing, TX 77705, USA",29.986077,-94.207612,GEOMETRIC_CENTER,success,1
110005108374,77051,"3701 Holmes Rd, Houston, TX 77051, USA",29.6799185,-95.3698468,ROOFTOP,success,1
110005129761,77068,"Bammel, Houston, TX 77068, USA",30.0068875,-95.4635502,APPROXIMATE,success,1
110005147876,77471,"120 Anton Stade Rd, Rosenberg, TX 77471, USA",29.5207947,-95.8821946,ROOFTOP,success,1
110005152707,77486,"801 S 17th St, West Columbia, TX 77486, USA",29.1374708,-95.6534155,ROOFTOP,success,1
110005166774,77090,"17211 North Fwy, Houston, TX 77090, USA",30.0160846,-95.4301109,ROOFTOP,success,1
110005175675,77478,"14141 Southwest Fwy, Sugar Land, TX 77478, USA",29.613826,-95.6049339,ROOFTOP,success,1
110005180295,77478,"12835 Jess Pirtle Blvd, Sugar Land, TX 77478, USA",29.6363337,-95.608262,ROOFTOP,success,1
110005183620,77478,"12645 W Airport Blvd, Sugar Land, TX 77478, USA",29.6461084,-95.603336,ROOFTOP,success,1
110005183853,77471,"6801 Biotics Research Dr, Rosenberg, TX 77471, USA",29.5379205,-95.7584551,ROOFTOP,success,1
110005184497,77541,"2398 Victoria Ln, Freeport, TX 77541, USA",28.9804052,-95.3845715,ROOFTOP,success,1
110005184521,77011,"Houston, TX 77011, USA",29.7461065,-95.3154784,APPROXIMATE,success,1
110005187056,77713,"16646 Old Nome Rd, Beaumont, TX 77713, USA",30.0429898,-94.375203,ROOFTOP,success,1
110005192255,77503,"Tenneco Rd, Texas 77503, USA",29.713349,-95.148759,GEOMETRIC_CENTER,success,1
110005193352,77049,"17403 Wallisville Rd, Houston, TX 77049, USA",29.824611,-95.1124494,ROOFTOP,success,1
110006123854,77445,"Cemetery Rd, Hempstead, TX 77445, USA",30.0856347,-96.0671973,GEOMETRIC_CENTER,success,1
110006124336,77531,"1402 County Rd 434, Clute, TX 77531, USA",29.0136744,-95.3841254,ROOFTOP,success,1
110006124381,77511,"County Rd 169, Alvin, TX 77511, USA",29.3390704,-95.2350181,GEOMETRIC_CENTER,success,1
110006124746,77640,"5959 US-69, Port Arthur, TX 77640, USA",29.9268162,-93.968254,ROOFTOP,success,1
110006129661,77665,"Winnie, TX 77665, USA",29.8310204,-94.4182089,APPROXIMATE,success,1
110006130258,77477,"4850 Wright Rd #150, Stafford, TX 77477, USA",29.630925,-95.5864657,ROOFTOP,success,1
110006130515,77471,"445 TX-36, Rosenberg, TX 77471, USA",29.5615271,-95.8239288,ROOFTOP,success,1
110006132504,77511,"1030 1/2 County Rd 129, Alvin, TX 77511, USA",29.5027847,-95.2263617,ROOFTOP,success,1
110006134691,77642,"7501 Gulfway Dr, Port Arthur, TX 77642, USA",29.9532931,-93.8820646,RANGE_INTERPOLATED,success,1
110006686700,77445,"18121 Cochran Rd, Hempstead, TX 77445, USA",30.034978,-95.992878,ROOFTOP,success,1
110006800989,77339,"1701 Northpark Dr Ste 1, Humble, TX 77339, USA",30.0699886,-95.2287723,ROOFTOP,success,1
110007177571,77459,"Missouri City, TX 77459, USA",29.4773092,-95.5302337,APPROXIMATE,success,1
110007182360,77480,"8189 Old FM 524 Rd, Sweeny, TX 77480, USA",29.0701563,-95.7378356,RANGE_INTERPOLATED,success,1
110007200377,77651,"Magnolia Ave, Port Neches, TX 77651, USA",29.9833678,-93.9676932,GEOMETRIC_CENTER,success,1
110007200386,77665,"TX-124 & Rollins Rd, Texas 77665, USA",29.8326578,-94.3434625,GEOMETRIC_CENTER,success,1
110007206095,77640,"2350 S Gulfway Dr, Port Arthur, TX 77640, USA",29.832317,-93.9665481,ROOFTOP,success,1
110008060622,77704,"1 Gulf States Rd, Beaumont, TX 77704, USA",30.0600802,-94.0391711,ROOFTOP,success,1
110008139941,77515,"FM523 & FM 2004, Texas 77515, USA",29.1189388,-95.3808471,GEOMETRIC_CENTER,success,1
110008146158,77627,"TX-347, Nederland, TX 77627, USA",29.9902477,-94.007161,GEOMETRIC_CENTER,success,1
110008147273,77651,"100 Port Neches Atlantic Rd, Port Neches, TX 77651, USA",29.9913753,-93.9403285,ROOFTOP,success,1
110008147371,77541,"Freeport, TX 77541, USA",29.0119861,-95.2893433,APPROXIMATE,success,1
110008153078,77640,"FM 365, Port Acres, TX 77640, USA",29.922619,-94.016408,GEOMETRIC_CENTER,success,1
110008153844,NA,"Hwy 255, Texas, USA",31.0635821,-94.0689756,GEOMETRIC_CENTER,success,1
110008153871,77306,"Hwy 105 E, Cut and Shoot, TX 77306, USA",30.3251535,-95.3939878,GEOMETRIC_CENTER,success,1
110008154335,77640,"Port Acres, TX 77640, USA",29.8796363,-93.9776389,APPROXIMATE,success,1
110008156967,77564,"Hull, TX 77564, USA",30.190141,-94.7070616,APPROXIMATE,success,1
110008157680,77566,"State Hwy 288, Lake Jackson, TX 77566, USA",29.0648211,-95.4521155,GEOMETRIC_CENTER,success,1
110008160195,77422,"2611 County Rd 314, Brazoria, TX 77422, USA",28.9856757,-95.5566828,ROOFTOP,success,1
110008160337,77571,"1230 Miller Cut Off Rd #10, La Porte, TX 77571, USA",29.7103018,-95.0667713,ROOFTOP,success,1
110008167982,77640,"Port Acres, TX 77640, USA",29.8796363,-93.9776389,APPROXIMATE,success,1
110008170237,77541,"2301 N Brazosport Blvd, Freeport, TX 77541, USA",28.9871482,-95.3784966,ROOFTOP,success,1
110008172057,77461,"Farm-To-Market Rd 1994 & Farm-To-Market Rd 361, Texas 77461, USA",29.3913036,-95.7333851,GEOMETRIC_CENTER,success,1
110009493226,77541,"FM1495, Quintana, TX 77541, USA",28.943657,-95.3464857,GEOMETRIC_CENTER,success,1
110009495894,77015,"13609 Industrial Rd, Houston, TX 77015, USA",29.7570639,-95.210032,ROOFTOP,success,1
110009495901,77713,"11440 US-90, Beaumont, TX 77713, USA",30.0694798,-94.2294908,GEOMETRIC_CENTER,success,1
110009501949,77026,"2505 Collingsworth St w, Houston, TX 77026, USA",29.7938925,-95.3448,ROOFTOP,success,1
110009503741,77099,"12720 S Dairy Ashford Rd, Houston, TX 77099, USA",29.6625034,-95.5982222,RANGE_INTERPOLATED,success,1
110009504526,77506,"404 Jefferson Rd, Pasadena, TX 77506, USA",29.7156287,-95.1838216,ROOFTOP,success,1
110009504937,77493,"802 Avenue A, Katy, TX 77493, USA",29.786231,-95.8205298,ROOFTOP,success,1
110009506070,77619,"6710 Hogaboom Rd, Groves, TX 77619, USA",29.9628401,-93.9248784,ROOFTOP,success,1
110009771390,77705,"W Port Arthur Rd, Taylor Landing, TX 77705, USA",29.9579504,-94.0443294,GEOMETRIC_CENTER,success,1
110010578188,77651,"Park St & FM366, Texas 77651, USA",29.975406,-93.953334,GEOMETRIC_CENTER,success,1
110011448987,77011,"7600 J W Peavy Dr, Houston, TX 77011, USA",29.7438399,-95.287241,ROOFTOP,success,1
110011818603,77015,"Houston, TX 77015, USA",29.7690048,-95.1744903,APPROXIMATE,success,1
110012255040,77015,"15155 Jacintoport Blvd, Houston, TX 77015, USA",29.7554953,-95.1408246,ROOFTOP,success,1
110012256076,77541,"307 County Rd 624, Freeport, TX 77541, USA",28.9560739,-95.3371919,ROOFTOP,success,1
110012491721,77011,"Houston, TX 77011, USA",29.7461065,-95.3154784,APPROXIMATE,success,1
110012495335,77002,"Houston, TX 77002, USA",29.752554,-95.3704009,APPROXIMATE,success,1
110013328283,77701,"Sycamore St, Texas 77701, USA",30.0622656,-94.0797649,GEOMETRIC_CENTER,success,1
110013362770,77541,"5650 TX-332, Freeport, TX 77541, USA",28.9923687,-95.3581967,ROOFTOP,success,1
110013864808,77701,"Sycamore St, Texas 77701, USA",30.0622656,-94.0797649,GEOMETRIC_CENTER,success,1
110013864997,77498,"518 Imperial Blvd, Sugar Land, TX 77498, USA",29.6236521,-95.6409269,ROOFTOP,success,1
110014407846,77651,"2121 Park St, Port Neches, TX 77651, USA",29.9778169,-93.9524701,ROOFTOP,success,1
110015582911,77047,"14715 Park Almeda Dr, Houston, TX 77047, USA",29.5906661,-95.4218155,ROOFTOP,success,1
110015666091,77357,"FM 1485, Roman Forest, TX 77357, USA",30.1544538,-95.2117486,GEOMETRIC_CENTER,success,1
110015685891,77705,"11703 W Port Arthur Rd, Beaumont, TX 77705, USA",29.9465163,-94.0378943,ROOFTOP,success,1
110015743070,NA,"FM1495, Texas, USA",28.9433045,-95.3466063,GEOMETRIC_CENTER,success,1
110015764252,77477,"1209 Moore Rd, Stafford, TX 77477, USA",29.60076,-95.551433,ROOFTOP,success,1
110016761823,77640,"2555 Savannah Ave, Port Arthur, TX 77640, USA",29.8907173,-93.9492663,ROOFTOP,success,1
110017285560,77041,"16250 Port NW Dr, Houston, TX 77041, USA",29.8779924,-95.5725579,ROOFTOP,success,1
110017713125,77571,"11505 TX-225, La Porte, TX 77571, USA",29.6956009,-95.0512491,ROOFTOP,success,1
110017836699,77640,"1349 Austin Ave, Port Arthur, TX 77640, USA",29.8774646,-93.9435819,ROOFTOP,success,1
110017867030,77547,"922 Mayo Shell Rd, Galena Park, TX 77547, USA",29.7235846,-95.2460141,ROOFTOP,success,1
110017877751,77651,"Port Neches, TX 77651, USA",29.9726308,-93.9572374,APPROXIMATE,success,1
110018936099,77640,"W 7th St, Texas 77640, USA",29.851235,-93.9583679,GEOMETRIC_CENTER,success,1
110020056384,77640,"2706 S Gulfway Dr, Port Arthur, TX 77640, USA",29.8151372,-93.9602359,ROOFTOP,success,1
110020148008,77640,"2001 S Gulfway Dr, Port Arthur, TX 77640, USA",29.8506138,-93.9730881,ROOFTOP,success,1
110020478990,77571,"10925 Hwy 225, La Porte, TX 77571, USA",29.6975454,-95.0618207,GEOMETRIC_CENTER,success,1
110020479935,77630,"10 Sulphur Plant Rd, Orange, TX 77630, USA",30.0342823,-94.0490282,ROOFTOP,success,1
110020515735,77651,"Port Neches, TX 77651, USA",29.9726308,-93.9572374,APPROXIMATE,success,1
110021081979,77001,"Houston, TX 77001, USA",29.77,-95.37,APPROXIMATE,success,1
110021132594,NA,NA,NA,NA,NA,error,1
110022523946,77541,"1122 Marlin Ave, Freeport, TX 77541, USA",28.9686593,-95.2859344,ROOFTOP,success,1
110022523955,77541,"1018 Tarpon Ln, Freeport, TX 77541, USA",28.9577058,-95.294367,ROOFTOP,success,1
110022523991,77655,"7680 S 1st Ave, Sabine Pass, TX 77655, USA",29.7214057,-93.8668426,ROOFTOP,success,1
110022830409,77704,"1 Gulf States Rd, Beaumont, TX 77704, USA",30.0600802,-94.0391711,ROOFTOP,success,1
110022832746,77032,"16602 Central Green Blvd, Houston, TX 77032, USA",29.9619247,-95.375389,ROOFTOP,success,1
110022832791,77640,"2001 Gulfway Dr #1746, Port Arthur, TX 77640, USA",29.8919623,-93.93548,ROOFTOP,success,1
110023009689,77015,"12510 American Petroleum Rd, Houston, TX 77015, USA",29.7416542,-95.2123787,RANGE_INTERPOLATED,success,1
110024035970,77478,"7701 Hwy 90a, Sugar Land, TX 77478, USA",29.6189267,-95.6418012,ROOFTOP,success,1
110024422472,77705,"14713 W Port Arthur Rd, Beaumont, TX 77705, USA",29.9746128,-94.054941,ROOFTOP,success,1
110024599031,77713,"11455 I-10, Beaumont, TX 77713, USA",29.97741,-94.2164512,ROOFTOP,success,1
110025330620,77640,"3901 Texaco Island Rd, Port Arthur, TX 77640, USA",29.8352025,-93.9554121,ROOFTOP,success,1
110025333994,77474,"835 Texas 36 N, Sealy, TX 77474, USA",29.7748357,-96.1562999,RANGE_INTERPOLATED,success,1
110027375472,77541,"302 Midway Rd, Freeport, TX 77541, USA",28.9548018,-95.3383857,ROOFTOP,success,1
110028042507,77541,"2301 N Brazosport Blvd, Freeport, TX 77541, USA",28.9871482,-95.3784966,ROOFTOP,success,1
110028042589,77590,"2023 5th Ave S, Texas City, TX 77590, USA",29.3782154,-94.9239202,RANGE_INTERPOLATED,success,1
110028042598,77590,"2023 5th Ave S, Texas City, TX 77590, USA",29.3782154,-94.9239202,RANGE_INTERPOLATED,success,1
110028052461,NA,"FM 2004, Texas, USA",29.1848683,-95.2371228,GEOMETRIC_CENTER,success,1
110031267064,77536,"5900 Hwy 225, Deer Park, TX 77536, USA",29.7128849,-95.1220456,ROOFTOP,success,1
110031291288,77523,"8406 FM 1405, Baytown, TX 77523, USA",29.7614643,-94.8933707,ROOFTOP,success,1
110031298405,77479,"2735 Town Center Blvd N Q, Sugar Land, TX 77479, USA",29.5931375,-95.6216668,ROOFTOP,success,1
110031302365,77530,"1007 Lakeside Dr, Channelview, TX 77530, USA",29.7683751,-95.1028702,ROOFTOP,success,1
110031316350,77340,"500 TX-19, Huntsville, TX 77340, USA",30.7098489,-95.5244944,ROOFTOP,success,1
110031337202,77523,"4554 Oscar Nelson Jr Dr, Baytown, TX 77523, USA",29.7149056,-94.9071864,ROOFTOP,success,1
110031428202,77703,"Beaumont, TX 77703, USA",30.1123243,-94.1053307,APPROXIMATE,success,1
110032604652,77627,"2300 N Twin City Hwy, Nederland, TX 77627, USA",29.9899615,-94.0031123,ROOFTOP,success,1
110032621492,77056,"4800 San Felipe St, Houston, TX 77056, USA",29.7497466,-95.4579035,ROOFTOP,success,1
110032955853,77536,"2759 Battleground Rd, Deer Park, TX 77536, USA",29.6906701,-95.0886921,ROOFTOP,success,1
110033019454,77477,"12650 Directors Dr, Stafford, TX 77477, USA",29.6359494,-95.5916795,ROOFTOP,success,1
110033180769,77564,"834 Farm to Market Rd 770, Hull, TX 77564, USA",30.1470712,-94.6484574,RANGE_INTERPOLATED,success,1
110033279672,77029,"Houston, TX 77029, USA",29.7597385,-95.2632201,APPROXIMATE,success,1
110033392905,77592,"Texas City, TX 77592, USA",29.3952791,-94.9240083,APPROXIMATE,success,1
110033444850,77627,"TX-347, Nederland, TX 77627, USA",29.9902477,-94.007161,GEOMETRIC_CENTER,success,1
110033486555,77705,"TX-347, Taylor Landing, TX 77705, USA",30.0072372,-94.0301727,GEOMETRIC_CENTER,success,1
110033488330,77572,"La Porte, TX 77572, USA",29.6522813,-95.0272789,APPROXIMATE,success,1
110033528644,77705,"9406 W Port Arthur Rd, Beaumont, TX 77705, USA",29.9973155,-94.0693458,ROOFTOP,success,1
110033566246,77459,"4811 Hwy 6, Missouri City, TX 77459, USA",29.5812123,-95.5805587,ROOFTOP,success,1
110033595312,77580,"Mont Belvieu, TX 77580, USA",29.8485897,-94.8908817,APPROXIMATE,success,1
110033767252,77040,"5650 Guhn Rd, Houston, TX 77040, USA",29.8466809,-95.5134311,ROOFTOP,success,1
110033778446,77868,"9363 Industrial Dr, Navasota, TX 77868, USA",30.3701251,-96.0840962,ROOFTOP,success,1
110033794945,14623,"1100 Jefferson Rd, Rochester, NY 14623, USA",43.0889362,-77.607148,ROOFTOP,success,1
110033860365,77086,"8615 Golden Spike Ln, Houston, TX 77086, USA",29.9095753,-95.5047391,ROOFTOP,success,1
110033915994,77651,"Grigsby Ave, Texas 77651, USA",29.9937625,-93.9532775,GEOMETRIC_CENTER,success,1
110033939246,77571,"10925 Hwy 225, La Porte, TX 77571, USA",29.6975454,-95.0618207,GEOMETRIC_CENTER,success,1
110033940118,77507,"9770 New Century Dr, Pasadena, TX 77507, USA",29.6475966,-95.0883397,ROOFTOP,success,1
110033949592,77362,"527A Goodson Loop, Pinehurst, TX 77362, USA",30.1636376,-95.6854975,ROOFTOP,success,1
110034061299,77506,"Pasadena, TX 77506, USA",29.7160112,-95.2005729,APPROXIMATE,success,1
110034088314,77547,"920 Mayo Shell Rd, Galena Park, TX 77547, USA",29.7245484,-95.2449774,ROOFTOP,success,1
110034102450,77015,"16800 Peninsula St, Houston, TX 77015, USA",29.7437507,-95.1076165,ROOFTOP,success,1
110034105091,77571,"11427 Hwy 225, La Porte, TX 77571, USA",29.6951408,-95.0538511,ROOFTOP,success,1
110034197946,77640,"W 7th St, Texas 77640, USA",29.851235,-93.9583679,GEOMETRIC_CENTER,success,1
110034205189,77520,"I-10, OLD RVR-WNFRE, TX 77520, USA",29.7917632,-95.0592913,GEOMETRIC_CENTER,success,1
110034205991,77590,"Grant St, Texas City, TX 77590, USA",29.3665727,-94.9415197,GEOMETRIC_CENTER,success,1
110034210636,77059,"3215 Long Bough Ct, Houston, TX 77059, USA",29.6072785,-95.1333231,ROOFTOP,success,1
110034219664,77022,"9135 Irvington Blvd, Houston, TX 77022, USA",29.8442338,-95.3630249,ROOFTOP,success,1
110034262152,77480,"21689 TX-35, Sweeny, TX 77480, USA",29.0874109,-95.7232062,ROOFTOP,success,1
110034354437,77020,"5311 Clinton Dr, Houston, TX 77020, USA",29.7642029,-95.316377,ROOFTOP,success,1
110034380195,77562,"222 Kerry Rd, Highlands, TX 77562, USA",29.8177619,-95.0540951,ROOFTOP,success,1
110034388856,77520,"Mont Belvieu, TX 77520, USA",29.7299827,-94.9870491,APPROXIMATE,success,1
110034393378,77627,"5470 N Twin City Hwy, Nederland, TX 77627, USA",30.0123826,-94.031561,ROOFTOP,success,1
110034453062,77041,"9530 Baythorne Dr, Houston, TX 77041, USA",29.8439937,-95.5281134,ROOFTOP,success,1
110034475379,77583,"20525 FM 521 Rd, Rosharon, TX 77583, USA",29.2950003,-95.4506753,ROOFTOP,success,1
110034484476,77655,"7680 S 1st Ave, Sabine Pass, TX 77655, USA",29.7214057,-93.8668426,ROOFTOP,success,1
110034713095,77651,"Port Neches, TX 77651, USA",29.9726308,-93.9572374,APPROXIMATE,success,1
110034786346,77704,"1 Gulf States Rd, Beaumont, TX 77704, USA",30.0600802,-94.0391711,ROOFTOP,success,1
110034823797,77701,"1655 Louisiana St, Beaumont, TX 77701, USA",30.0950283,-94.1041549,RANGE_INTERPOLATED,success,1
110035012223,77507,"5000 Underwood Rd, Pasadena, TX 77507, USA",29.6403847,-95.0880142,ROOFTOP,success,1
110035054909,77705,"17691 TX-124, Beaumont, TX 77705, USA",29.918118,-94.2549881,ROOFTOP,success,1
110035098248,77020,"5707 Old Clinton Rd, Houston, TX 77020, USA",29.763839,-95.308576,ROOFTOP,success,1
110035115862,77640,"1841 Procter St, Port Arthur, TX 77640, USA",29.8827369,-93.9248604,RANGE_INTERPOLATED,success,1
110035367643,77640,"2100 Houston Ave, Port Arthur, TX 77640, USA",29.8796623,-93.9541699,ROOFTOP,success,1
110035384143,77340,"Huntsville, TX 77340, USA",30.6631264,-95.5407299,APPROXIMATE,success,1
110035388540,77640,"2420 Gulfway Dr, Port Arthur, TX 77640, USA",29.8950874,-93.9320606,ROOFTOP,success,1
110035812822,77380,"10003 Woodloch Forest Dr, The Woodlands, TX 77380, USA",30.159585,-95.456647,ROOFTOP,success,1
110035817060,77009,"1918 Collingsworth St, Houston, TX 77009, USA",29.7909076,-95.3475919,ROOFTOP,success,1
110035842817,77494,"608 Pederson Rd, Katy, TX 77494, USA",29.7842613,-95.8829576,ROOFTOP,success,1
110037147156,77701,"860 Pine St, Beaumont, TX 77701, USA",30.0897898,-94.0993035,ROOFTOP,success,1
110037542914,77536,"1943 Battleground Rd, Deer Park, TX 77536, USA",29.694691,-95.0920803,RANGE_INTERPOLATED,success,1
110037566185,77507,"12222 Port Rd, Pasadena, TX 77507, USA",29.6024049,-95.0166614,ROOFTOP,success,1
110037846007,77704,"1 Gulf States Rd #3, Beaumont, TX 77704, USA",30.0600802,-94.0391711,ROOFTOP,success,1
110037878204,77705,"Erie St, Texas 77705, USA",30.0197066,-94.1088363,GEOMETRIC_CENTER,success,1
110037914175,77022,"29 Berry Rd, Houston, TX 77022, USA",29.8375257,-95.3809501,ROOFTOP,success,1
110037926625,NA,"FM523, Texas, USA",29.095009,-95.370578,GEOMETRIC_CENTER,success,1
110037966298,77073,"Farrell Rd & E Hardy Rd, Texas 77073, USA",29.977337,-95.3912573,GEOMETRIC_CENTER,success,1
110037976946,77642,"Port Arthur, TX 77642, USA",29.9051634,-93.8960811,APPROXIMATE,success,1
110038205037,77536,"550 Battleground Rd, Deer Park, TX 77536, USA",29.7027399,-95.0938635,ROOFTOP,success,1
110038258088,77041,"10551 Fisher Rd, Houston, TX 77041, USA",29.8649989,-95.5590617,ROOFTOP,success,1
110038417488,NA,"County Rd 226, Texas, USA",29.0434969,-95.3636206,GEOMETRIC_CENTER,success,1
110038487866,77060,"Aldine Bender Rd & W Hardy Rd, Houston, TX 77060, USA",29.9326145,-95.3806989,GEOMETRIC_CENTER,success,1
110038856182,77590,"1720 N Hwy 146, Texas City, TX 77590, USA",29.4011069,-94.9520011,RANGE_INTERPOLATED,success,1
110038912727,77571,"550 Independence Pkwy l8, La Porte, TX 77571, USA",29.7101919,-95.090041,ROOFTOP,success,1
110039104180,77011,"1525 75th St, Houston, TX 77011, USA",29.7432196,-95.2891445,ROOFTOP,success,1
110039119245,77541,"277 FM523, Freeport, TX 77541, USA",28.9689252,-95.3490617,RANGE_INTERPOLATED,success,1
110039516262,77012,"9325 E Ave S, Houston, TX 77012, USA",29.7225716,-95.2612806,ROOFTOP,success,1
110040548743,77627,"Hwy 366, Texas 77627, USA",29.9866237,-93.9944564,GEOMETRIC_CENTER,success,1
110040881917,NA,"I-10, United States",30.5279928,-99.852776,GEOMETRIC_CENTER,success,1
110040883764,77705,"Hebert St, Beaumont, TX 77705, USA",30.0485539,-94.1094338,GEOMETRIC_CENTER,success,1
110040890818,NA,"N Hwy 146, Texas, USA",30.0336633,-94.893978,GEOMETRIC_CENTER,success,1
110040892157,77536,"2621 Tidal Rd, Deer Park, TX 77536, USA",29.7342885,-95.0961739,ROOFTOP,success,1
110040940925,77640,"Port Acres, TX 77640, USA",29.8796363,-93.9776389,APPROXIMATE,success,1
110040962768,77015,"15602 Jacintoport Blvd, Houston, TX 77015, USA",29.7371051,-95.1293066,ROOFTOP,success,1
110041000555,77531,"FM523, Clute, TX 77531, USA",29.0500017,-95.343439,GEOMETRIC_CENTER,success,1
110041004659,77530,"Channelview, TX 77530, USA",29.7945258,-95.1119407,APPROXIMATE,success,1
110041006327,77640,"4245 Savannah Ave, Port Arthur, TX 77640, USA",29.9018655,-93.96487,ROOFTOP,success,1
110041043849,77041,"11913 Farm to Market Rd 529, Houston, TX 77041, USA",29.8800155,-95.5850582,ROOFTOP,success,1
110041043992,77049,"16950 Wallisville Rd, Houston, TX 77049, USA",29.819749,-95.1247321,ROOFTOP,success,1
110041044063,77627,"Hwy 366, Texas 77627, USA",29.9866237,-93.9944564,GEOMETRIC_CENTER,success,1
110041045160,77713,"10658 US-90, Beaumont, TX 77713, USA",30.063438,-94.2207211,ROOFTOP,success,1
110041048951,77541,"FM1495 & Levee Rd, Freeport, TX 77541, USA",28.9285327,-95.3453649,GEOMETRIC_CENTER,success,1
110041049638,77701,"2775 Gulf States Rd, Beaumont, TX 77701, USA",30.0630821,-94.0595461,ROOFTOP,success,1
110041056184,77590,"201 Dock Rd, Texas City, TX 77590, USA",29.3737509,-94.8914256,ROOFTOP,success,1
110041103187,77561,"Hardin, TX 77561, USA",30.1589385,-94.739079,APPROXIMATE,success,1
110041126484,NA,"I-10, United States",30.5279928,-99.852776,GEOMETRIC_CENTER,success,1
110041200624,77422,"TX-36, Brazoria, TX 77422, USA",29.0228488,-95.5576452,GEOMETRIC_CENTER,success,1
110041218367,77041,"7043 Satsuma Dr, Houston, TX 77041, USA",29.8809006,-95.6028845,ROOFTOP,success,1
110041220979,77301,"5150 Jefferson Chemical Rd, Conroe, TX 77301, USA",30.3184916,-95.3906831,GEOMETRIC_CENTER,success,1
110041385177,NA,"Farm to Market Rd 529, Texas, USA",29.8741936,-95.9089985,GEOMETRIC_CENTER,success,1
110041419257,77651,"TX-136 Spur, Port Neches, TX 77651, USA",29.9732838,-93.9451901,GEOMETRIC_CENTER,success,1
110041502282,77049,"17335 Wallisville Rd, Houston, TX 77049, USA",29.8255836,-95.1134873,ROOFTOP,success,1
110041548581,77665,"TX-124 & Rollins Rd, Texas 77665, USA",29.8326578,-94.3434625,GEOMETRIC_CENTER,success,1
110041626443,77571,"600 Independence Pkwy, La Porte, TX 77571, USA",29.7106952,-95.0898389,ROOFTOP,success,1
110041683675,77640,"3901 Texaco Island Rd, Port Arthur, TX 77640, USA",29.8352025,-93.9554121,ROOFTOP,success,1
110041683737,77640,"2420 S Gulfway Dr, Port Arthur, TX 77640, USA",29.8191998,-93.9640045,ROOFTOP,success,1
110041886607,77619,"6501 Hogaboom Rd, Groves, TX 77619, USA",29.9646572,-93.9342953,GEOMETRIC_CENTER,success,1
110041921034,77541,"FM1495 & 731, Freeport, TX 77541, USA",28.9285327,-95.3453649,GEOMETRIC_CENTER,success,1
110041990913,77701,"1795 Burt St, Beaumont, TX 77701, USA",30.0639809,-94.0778202,ROOFTOP,success,1
110042002784,77651,"100 Port Neches Atlantic Rd, Port Neches, TX 77651, USA",29.9913753,-93.9403285,ROOFTOP,success,1
110042351683,77587,"300 Christy Pl, South Houston, TX 77587, USA",29.6633152,-95.2350735,ROOFTOP,success,1
110042426853,77024,"7110 Old Katy Rd #190, Houston, TX 77024, USA",29.7865207,-95.4486248,ROOFTOP,success,1
110042427059,77091,"6702 Antoine Dr, Houston, TX 77091, USA",29.8615749,-95.4732795,RANGE_INTERPOLATED,success,1
110043231044,77356,"211 April Waters W, Montgomery, TX 77356, USA",30.368909,-95.6236583,ROOFTOP,success,1
110043418655,77571,"12003 Strang Rd, La Porte, TX 77571, USA",29.7044014,-95.0471226,ROOFTOP,success,1
110043799958,77506,"1423 Pasadena Fwy, Pasadena, TX 77506, USA",29.7147547,-95.1934805,ROOFTOP,success,1
110043802819,77640,"1801 S Gulfway Dr, Port Arthur, TX 77640, USA",29.8663591,-93.9651858,ROOFTOP,success,1
110043816868,77587,"1407 Pennsylvania St, South Houston, TX 77587, USA",29.6564286,-95.2472459,ROOFTOP,success,1
110043861443,77013,"8609 Citypark Loop, Houston, TX 77013, USA",29.8039206,-95.2728185,ROOFTOP,success,1
110043861452,77078,"9015 Spikewood Dr, Houston, TX 77078, USA",29.8237581,-95.2545694,ROOFTOP,success,1
110043993220,77541,"2207 FM1495, Freeport, TX 77541, USA",28.9247134,-95.3402389,ROOFTOP,success,1
110044358290,77533,"Bobcat Ln, Daisetta, TX 77533, USA",30.113498,-94.6393085,GEOMETRIC_CENTER,success,1
110044802292,77531,"5005 TX-332 #9, Richwood, TX 77531, USA",28.9906445,-95.3569615,ROOFTOP,success,1
110045562627,77515,"1508 E Cedar St, Angleton, TX 77515, USA",29.1685178,-95.4137546,ROOFTOP,success,1
110045563528,77507,"W 1st St, Texas 77507, USA",29.626112,-95.0663543,GEOMETRIC_CENTER,success,1
110045563975,77627,"5474 N Twin City Hwy, Nederland, TX 77627, USA",30.0072346,-94.0297901,ROOFTOP,success,1
110045564000,77385,"11133 Interstate 45 S k, Conroe, TX 77385, USA",30.2646893,-95.4544078,ROOFTOP,success,1
110045954954,77531,"5005 TX-332 #450, Richwood, TX 77531, USA",28.9906445,-95.3569615,ROOFTOP,success,1
110046247977,77651,"Port Neches, TX 77651, USA",29.9726308,-93.9572374,APPROXIMATE,success,1
110054094868,77058,"17629 El Camino Real #300, Houston, TX 77058, USA",29.548828,-95.108115,ROOFTOP,success,1
110054864036,77523,"10319 N Hwy 146, Mont Belvieu, TX 77523, USA",29.8451342,-94.8951714,RANGE_INTERPOLATED,success,1
110054865213,77523,"1802 Loop 207, Mont Belvieu, TX 77523, USA",29.8530421,-94.893154,RANGE_INTERPOLATED,success,1
110054866784,77304,"3607 N Loop 336 W, Conroe, TX 77304, USA",30.3131973,-95.5040425,ROOFTOP,success,1
110055261336,77640,"2420 Dowling Rd, Port Arthur, TX 77640, USA",29.8656321,-93.9639447,RANGE_INTERPOLATED,success,1
110055415224,77478,"12682 Cardinal Meadow Dr, Sugar Land, TX 77478, USA",29.6420228,-95.6039107,ROOFTOP,success,1
110055499571,77507,"4631 Old Hwy 146 a, Pasadena, TX 77507, USA",29.6029461,-95.0202776,ROOFTOP,success,1
110055948122,77507,"9770 New Century Dr #800, Pasadena, TX 77507, USA",29.647452,-95.0876275,ROOFTOP,success,1
110055948364,77040,"6400 Hollister St, Houston, TX 77040, USA",29.8580635,-95.504559,ROOFTOP,success,1
110055951288,77541,"TX-332, Quintana, TX 77541, USA",29.0097062,-95.4171362,GEOMETRIC_CENTER,success,1
110056336139,77564,"568 Co Rd 2073 #568, Hull, TX 77564, USA",30.2612075,-94.678412,ROOFTOP,success,1
110056685074,77541,"2301 N Brazosport Blvd, Freeport, TX 77541, USA",28.9871482,-95.3784966,ROOFTOP,success,1
110056955647,NA,"FM523, Oyster Creek, TX, USA",28.9951909,-95.3292546,GEOMETRIC_CENTER,success,1
110056961480,77521,"10207 FM1942, Baytown, TX 77521, USA",29.8561295,-94.9122392,ROOFTOP,success,1
110056970568,77480,"21441 TX-419 Spur, Sweeny, TX 77480, USA",29.0815514,-95.7417971,ROOFTOP,success,1
110057205162,77507,"13001 Bay Area Blvd, Pasadena, TX 77507, USA",29.6420476,-95.049135,ROOFTOP,success,1
110057651606,77032,"16602 Central Green Blvd, Houston, TX 77032, USA",29.9619247,-95.375389,ROOFTOP,success,1
110058209219,77494,"777 Igloo Rd, Katy, TX 77494, USA",29.7821093,-95.9049846,ROOFTOP,success,1
110059190021,77627,"Hwy 366, Texas 77627, USA",29.9866237,-93.9944564,GEOMETRIC_CENTER,success,1
110059337506,77651,"2701 TX-136 Spur, Port Neches, TX 77651, USA",29.9594236,-93.943455,ROOFTOP,success,1
110059441037,77507,"13001 Bay Area Blvd, Pasadena, TX 77507, USA",29.6420476,-95.049135,ROOFTOP,success,1
110059674446,77665,"14504 Rollins Rd, Winnie, TX 77665, USA",29.8339643,-94.347622,ROOFTOP,success,1
110059708678,77396,"15409 Old Humble Rd, Humble, TX 77396, USA",29.9457789,-95.2821582,GEOMETRIC_CENTER,success,1
110059763000,77506,"1423 Hwy 225, Pasadena, TX 77506, USA",29.7133472,-95.1930929,ROOFTOP,success,1
110059763536,77590,"2401 5th Ave S, Texas City, TX 77590, USA",29.3786636,-94.9298188,ROOFTOP,success,1
110059775989,77532,"307 Fontain Ln #307, Crosby, TX 77532, USA",29.882175,-95.0574901,ROOFTOP,success,1
110060240957,77507,"Pasadena, TX 77507, USA",29.6343793,-95.0702794,APPROXIMATE,success,1
110060241019,77571,"Hwy 225, La Porte, TX 77571, USA",29.6990724,-95.0749422,GEOMETRIC_CENTER,success,1
110060241126,77571,"Hwy 225, La Porte, TX 77571, USA",29.6990724,-95.0749422,GEOMETRIC_CENTER,success,1
110060241885,77640,"1801 Gulfway Dr, Port Arthur, TX 77640, USA",29.8900334,-93.9372526,ROOFTOP,success,1
110061565747,77520,"5200 Bayway Dr, Baytown, TX 77520, USA",29.7423785,-95.0245037,ROOFTOP,success,1
110061575576,77041,"9280 Baythorne Dr, Houston, TX 77041, USA",29.8440247,-95.5205686,ROOFTOP,success,1
110061654856,77530,"1015 Lakeside Dr, Channelview, TX 77530, USA",29.7676352,-95.1033333,ROOFTOP,success,1
110061715791,77015,"13609 Industrial Rd, Houston, TX 77015, USA",29.7570639,-95.210032,ROOFTOP,success,1
110062118505,77705,"11357 I-10, Beaumont, TX 77705, USA",29.9747079,-94.2166772,GEOMETRIC_CENTER,success,1
110062250031,77627,"6001 Hwy 366, Nederland, TX 77627, USA",29.9866257,-93.9944462,RANGE_INTERPOLATED,success,1
110062306598,77541,"TX-36 & FM1495, Freeport, TX 77541, USA",28.9384273,-95.3483046,GEOMETRIC_CENTER,success,1
110062913147,77028,"8635 Howton St, Houston, TX 77028, USA",29.8195221,-95.2675663,ROOFTOP,success,1
110063186403,77539,"4401 Park Ave, Dickinson, TX 77539, USA",29.4607468,-95.0432201,ROOFTOP,success,1
110063385661,77053,"8130 McHard Rd, Houston, TX 77053, USA",29.5777576,-95.4455481,ROOFTOP,success,1
110063681724,77445,"38106 FM 3346, Hempstead, TX 77445, USA",30.0547353,-96.0413259,ROOFTOP,success,1
110063945085,77015,"8 Jacintoport Blvd, Houston, TX 77015, USA",29.7620012,-95.1550904,RANGE_INTERPOLATED,success,1
110063958016,77627,"Memorial Blvd & S Hwy 69, Port Arthur, TX 77627, USA",29.9556331,-94.0069613,GEOMETRIC_CENTER,success,1
110064014347,77338,"8120 Humble Westfield Rd, Humble, TX 77338, USA",29.9999156,-95.3022824,ROOFTOP,success,1
110064034922,77571,"S 16th St, La Porte, TX 77571, USA",29.6477003,-95.0356117,GEOMETRIC_CENTER,success,1
110064116781,77571,"552 Independence Pkwy, La Porte, TX 77571, USA",29.7102005,-95.0900375,RANGE_INTERPOLATED,success,1
110064117012,77012,"9317 E Ave S, Houston, TX 77012, USA",29.7244962,-95.2623223,ROOFTOP,success,1
110064203847,77705,"I-10, Taylor Landing, TX 77705, USA",29.9282892,-94.2729452,GEOMETRIC_CENTER,success,1
110064212276,77507,"4631 Old Hwy 146, Pasadena, TX 77507, USA",29.6029461,-95.0202776,ROOFTOP,success,1
110064436374,79360,"1891 US-62, Seminole, TX 79360, USA",32.7270287,-102.9393535,RANGE_INTERPOLATED,success,1
110064450277,77640,"2420 S Gulfway Dr, Port Arthur, TX 77640, USA",29.8191998,-93.9640045,ROOFTOP,success,1
110064465127,77423,"34011 Sunset Ln, Brookshire, TX 77423, USA",29.8769806,-95.9584314,ROOFTOP,success,1
110064671886,77445,"612 3rd St, Hempstead, TX 77445, USA",30.0986641,-96.0696155,ROOFTOP,success,1
110064847206,77015,"2500 Appelt Dr, Houston, TX 77015, USA",29.7643449,-95.1427114,RANGE_INTERPOLATED,success,1
110064847652,77507,"13100 Bay Area Blvd, Pasadena, TX 77507, USA",29.6432918,-95.0449071,GEOMETRIC_CENTER,success,1
110066943605,77541,"2301 N Brazosport Blvd, Freeport, TX 77541, USA",28.9871482,-95.3784966,ROOFTOP,success,1
110066988120,77571,"1836 Miller Cut Off Rd, La Porte, TX 77571, USA",29.7209209,-95.0693346,ROOFTOP,success,1
110067042006,77701,"2775 Gulf States Rd, Beaumont, TX 77701, USA",30.0630821,-94.0595461,ROOFTOP,success,1
110067107151,77539,"4401 Park Ave, Dickinson, TX 77539, USA",29.4607468,-95.0432201,ROOFTOP,success,1
110067115981,77053,"4311 South Dr, Houston, TX 77053, USA",29.5850911,-95.4433438,ROOFTOP,success,1
110067130660,77507,"11450 W Fairmont Pkwy, Pasadena, TX 77507, USA",29.6477264,-95.0559451,ROOFTOP,success,1
110067249267,77523,"300B Delta Pkwy, Baytown, TX 77523, USA",29.7755774,-94.8867249,ROOFTOP,success,1
110067267638,77029,"680 Gellhorn Dr, Houston, TX 77029, USA",29.7776435,-95.2721295,ROOFTOP,success,1
110067659064,77389,"616 Spring Hill Dr, Spring, TX 77389, USA",30.1223243,-95.4317469,ROOFTOP,success,1
110067678392,77627,"5470 N Twin City Hwy a, Nederland, TX 77627, USA",30.0123826,-94.031561,ROOFTOP,success,1
110069234661,77547,"407 Clinton Dr, Galena Park, TX 77547, USA",29.7367977,-95.2227526,GEOMETRIC_CENTER,success,1
110069265066,77301,"116 Industrial Ct, Conroe, TX 77301, USA",30.3145088,-95.4338474,ROOFTOP,success,1
110069408876,77523,"8500 W Bay Rd, Baytown, TX 77523, USA",29.7458275,-94.9151186,ROOFTOP,success,1
110069446157,77651,"Port Neches, TX 77651, USA",29.9726308,-93.9572374,APPROXIMATE,success,1
110069449270,77571,"1230 Independence Pkwy, La Porte, TX 77571, USA",29.7191601,-95.089072,ROOFTOP,success,1
110069449289,77627,"5470 N Twin City Hwy, Nederland, TX 77627, USA",30.0123826,-94.031561,ROOFTOP,success,1
110069453184,77571,"2727 Miller Cut Off Rd, La Porte, TX 77571, USA",29.7254626,-95.0859394,ROOFTOP,success,1
110069465867,77098,"3737 Buffalo Speedway, Houston, TX 77098, USA",29.7334843,-95.4280296,ROOFTOP,success,1
110069496959,77640,"2450 Gulfway Dr, Port Arthur, TX 77640, USA",29.8954228,-93.9317667,ROOFTOP,success,1
110069525785,77506,"Pasadena, TX 77506, USA",29.7160112,-95.2005729,APPROXIMATE,success,1
110069639564,77571,"1445 Sens Rd, La Porte, TX 77571, USA",29.6883384,-95.045915,ROOFTOP,success,1
110069708007,77092,"7170 W 43rd St #150, Houston, TX 77092, USA",29.8364162,-95.5009976,ROOFTOP,success,1
110069715703,77640,"2450 Gulfway Dr, Port Arthur, TX 77640, USA",29.8954228,-93.9317667,ROOFTOP,success,1
110069719665,77506,"901 Light Company Rd, Pasadena, TX 77506, USA",29.7198628,-95.2251484,ROOFTOP,success,1
110070049106,77590,"2301 N Hwy 146, Texas City, TX 77590, USA",29.3609979,-94.9468177,ROOFTOP,success,1
110070055385,77531,"5619 TX-332, Clute, TX 77531, USA",28.9909351,-95.3571252,ROOFTOP,success,1
110070061386,77503,"1030 Ethyl Rd, Pasadena, TX 77503, USA",29.7246255,-95.1642846,ROOFTOP,success,1
110070070427,77515,"22614 State Hwy 288, Angleton, TX 77515, USA",29.2648153,-95.4511895,ROOFTOP,success,1
110070070486,77640,"947 Procter St, Port Arthur, TX 77640, USA",29.8753233,-93.9315684,ROOFTOP,success,1
110070070487,77640,"1349 Austin Ave, Port Arthur, TX 77640, USA",29.8774646,-93.9435819,ROOFTOP,success,1
110070070787,77015,"2701 Appelt Dr, Houston, TX 77015, USA",29.769687,-95.148447,ROOFTOP,success,1
110070071770,77627,"5470 N Twin City Hwy, Nederland, TX 77627, USA",30.0123826,-94.031561,ROOFTOP,success,1
110070081647,77521,"12901 Hatcherville Rd, Baytown, TX 77521, USA",29.8684459,-94.919414,ROOFTOP,success,1
110070081820,77641,"Port Arthur, TX 77641, USA",29.8688563,-93.9337944,APPROXIMATE,success,1
110070101941,77302,"14632 Exxon Rd, Conroe, TX 77302, USA",30.2430657,-95.3764106,RANGE_INTERPOLATED,success,1
110070118609,77704,"Beaumont, TX 77704, USA",30.0802412,-94.0997344,APPROXIMATE,success,1
110070122927,77640,"947 W Procter St #947, Port Arthur, TX 77640, USA",29.861677,-93.944874,RANGE_INTERPOLATED,success,1
110070123032,77541,"102 W 8th St, Freeport, TX 77541, USA",28.9479831,-95.3473876,ROOFTOP,success,1
110070123048,77705,"2366 Sulphur Plant Rd, Beaumont, TX 77705, USA",30.0323012,-94.0515481,ROOFTOP,success,1
110070124252,77038,"10550 Ella Blvd, Houston, TX 77038, USA",29.934448,-95.4283222,ROOFTOP,success,1
110070126631,77489,"521 US-90 ALT a 140, Missouri City, TX 77489, USA",29.6238753,-95.5199034,ROOFTOP,success,1
110070135386,77012,"9701 Manchester St, Houston, TX 77012, USA",29.7193217,-95.2578348,ROOFTOP,success,1
110070135413,77503,"1000 N South St, Pasadena, TX 77503, USA",29.7345653,-95.1714752,ROOFTOP,success,1
110070135427,77015,"2701 Appelt Dr, Houston, TX 77015, USA",29.769687,-95.148447,ROOFTOP,success,1
110070144053,77536,"1900 Tidal Rd, Deer Park, TX 77536, USA",29.731585,-95.1041234,ROOFTOP,success,1
110070151869,77523,"4505 Ameriport Pkwy, Baytown, TX 77523, USA",29.7658016,-94.8830229,ROOFTOP,success,1
110070158531,77511,"2330 FM 2917, Alvin, TX 77511, USA",29.316337,-95.2563633,ROOFTOP,success,1
110070164098,77571,"102 Old Underwood Rd, La Porte, TX 77571, USA",29.7020662,-95.089967,ROOFTOP,success,1
110070165077,77083,"15100 Bellaire Blvd, Houston, TX 77083, USA",29.701402,-95.6532511,ROOFTOP,success,1
110070165078,77014,"13210 Veterans Memorial Dr, Houston, TX 77014, USA",29.9802411,-95.4921394,ROOFTOP,success,1
110070165083,77099,"11905 Bissonnet St, Houston, TX 77099, USA",29.6747882,-95.5877799,ROOFTOP,success,1
110070165618,77422,"Brazoria, TX 77422, USA",29.0444147,-95.5691126,APPROXIMATE,success,1
110070167735,77009,"102 Cavalcade St, Houston, TX 77009, USA",29.804429,-95.3716888,ROOFTOP,success,1
110070167935,77541,"Freeport, TX 77541, USA",29.0119861,-95.2893433,APPROXIMATE,success,1
110070168607,77512,"Alvin, TX 77512, USA",29.4187707,-95.2390673,APPROXIMATE,success,1
110070170381,77373,"22560 Aldine Westfield Rd, Spring, TX 77373, USA",30.0421834,-95.3823813,ROOFTOP,success,1
110070170409,77042,"11019 Briar Forest Dr, Houston, TX 77042, USA",29.7475471,-95.5715323,ROOFTOP,success,1
110070170419,77450,"890 S Mason Rd, Katy, TX 77450, USA",29.7062785,-95.7433756,RANGE_INTERPOLATED,success,1
110070176192,77041,"6400 N Eldridge Pkwy, Houston, TX 77041, USA",29.8684753,-95.6079365,ROOFTOP,success,1
110070176195,77545,"10140 Hwy 6, Fresno, TX 77545, USA",29.5316871,-95.5119929,ROOFTOP,success,1
110070177778,NA,NA,NA,NA,NA,error,1
110070178123,77095,"8477 Hwy 6 N, Houston, TX 77095, USA",29.9012783,-95.634907,RANGE_INTERPOLATED,success,1
110070178124,77377,"11902 Spring Cypress Rd, Tomball, TX 77377, USA",30.0131839,-95.6062915,ROOFTOP,success,1
110070178127,77429,"13739 Cypress North Houston Rd, Cypress, TX 77429, USA",29.9469681,-95.6273541,ROOFTOP,success,1
110070180005,77507,"13103 Bay Park Rd, Pasadena, TX 77507, USA",29.6440451,-95.0678392,ROOFTOP,success,1
110070183112,77705,"2366 Sulphur Plant Rd, Beaumont, TX 77705, USA",30.0323012,-94.0515481,ROOFTOP,success,1
110070186276,77705,"Olin Rd, Texas 77705, USA",30.0436381,-94.0669081,GEOMETRIC_CENTER,success,1
110070188225,77705,"946 Spindletop Ave, Beaumont, TX 77705, USA",30.0187,-94.0674646,ROOFTOP,success,1
110070188909,77701,"2110 Carroll St, Beaumont, TX 77701, USA",30.0668736,-94.0797872,ROOFTOP,success,1
110070189812,77507,"4331 Underwood Rd # 400, Pasadena, TX 77507, USA",29.6488428,-95.0841527,ROOFTOP,success,1
110070191337,77571,"10925 Hwy 225, La Porte, TX 77571, USA",29.6975454,-95.0618207,GEOMETRIC_CENTER,success,1
110070198458,77539,"4501 Attwater Ave, Dickinson, TX 77539, USA",29.4278408,-94.9699144,ROOFTOP,success,1
110070207319,77064,"11810 N Gessner Rd, Houston, TX 77064, USA",29.9432249,-95.5444098,ROOFTOP,success,1
110070225313,77493,"31555 Katy Brookshire Rd, Katy, TX 77493, USA",29.7860614,-95.8896114,RANGE_INTERPOLATED,success,1
110070225316,77571,"1445 Sens Rd, La Porte, TX 77571, USA",29.6883384,-95.045915,ROOFTOP,success,1
110070225688,77571,"2345 Tidal Rd, Shoreacres, TX 77571, USA",29.7323886,-95.0991904,ROOFTOP,success,1
110070239253,77640,"1349 Austin Ave, Port Arthur, TX 77640, USA",29.8774646,-93.9435819,ROOFTOP,success,1
110070240998,77017,"12000 Lawndale St, Houston, TX 77017, USA",29.709829,-95.235765,ROOFTOP,success,1
110070261730,77640,"2350 Gulfway Dr, Port Arthur, TX 77640, USA",29.8945016,-93.9323444,RANGE_INTERPOLATED,success,1
110070274447,77471,"239 TX-36, Rosenberg, TX 77471, USA",29.5605249,-95.8215598,ROOFTOP,success,1
110070289334,77478,"12620 W Airport Blvd #130, Sugar Land, TX 77478, USA",29.6482329,-95.6043212,ROOFTOP,success,1
110070293489,77571,"6913 Hwy 225, La Porte, TX 77571, USA",29.7075508,-95.0980044,ROOFTOP,success,1
110070298694,77003,"2005 Canal St, Houston, TX 77003, USA",29.760024,-95.3487483,ROOFTOP,success,1
110070308095,77041,"4701 Blalock Rd, Houston, TX 77041, USA",29.8403609,-95.5246317,ROOFTOP,success,1
110070334362,77091,"5658 Wheatley St, Houston, TX 77091, USA",29.8485354,-95.4281176,ROOFTOP,success,1
110070337042,77590,"1301 Loop 197 S, Texas City, TX 77590, USA",29.3688933,-94.9133607,ROOFTOP,success,1
110070363214,77571,"10900 Strang Rd, La Porte, TX 77571, USA",29.700555,-95.0613429,ROOFTOP,success,1
110070364074,77627,"2300 N Twin City Hwy, Nederland, TX 77627, USA",29.9899615,-94.0031123,ROOFTOP,success,1
110070365318,77571,"100 Strang Rd, La Porte, TX 77571, USA",29.6917795,-95.0356901,ROOFTOP,success,1
110070366998,77507,"9900 Bayport Blvd, Pasadena, TX 77507, USA",29.6136224,-95.0603568,ROOFTOP,success,1
110070368589,77550,"4800 Old Port Industrial, Galveston, TX 77550, USA",29.3071319,-94.8217965,ROOFTOP,success,1
110070368851,77571,"1818 Independence Pkwy, La Porte, TX 77571, USA",29.7282872,-95.0892669,ROOFTOP,success,1
110070373940,77531,"Hwy 288 B @ Timbercreek Dr, Richwood, TX 77531, USA",29.0359153,-95.3991767,GEOMETRIC_CENTER,success,1
110070375269,77507,"11450 W Fairmont Pkwy, Pasadena, TX 77507, USA",29.6477264,-95.0559451,ROOFTOP,success,1
110070376092,77705,"3795 Stone Oak Dr, Beaumont, TX 77705, USA",30.0367735,-94.1210744,ROOFTOP,success,1
110070379462,77503,"Pasadena Fwy, Pasadena, TX 77503, USA",29.7119671,-95.1540876,GEOMETRIC_CENTER,success,1
110070380556,77040,"6911 Fairbanks North Houston Rd, Houston, TX 77040, USA",29.8685866,-95.5261342,ROOFTOP,success,1
110070435102,77029,"1815 Turning Basin Dr # 240, Houston, TX 77029, USA",29.752739,-95.2668631,ROOFTOP,success,1
110070435166,77040,"7301 Security Way, Jersey Village, TX 77040, USA",29.8754314,-95.5570114,ROOFTOP,success,1
110070435174,77064,"9851 Fallbrook Pines, Houston, TX 77064, USA",29.9208474,-95.5346616,ROOFTOP,success,1
110070435215,77029,"1220 McCarty St, Houston, TX 77029, USA",29.7671047,-95.2845342,ROOFTOP,success,1
110070435223,77541,"4057 TX-332, Freeport, TX 77541, USA",28.979143,-95.3318315,ROOFTOP,success,1
110070454213,77541,"2301 N Brazosport Blvd b 7701, Freeport, TX 77541, USA",28.9871482,-95.3784966,ROOFTOP,success,1
110070498744,77015,"15855 Jacintoport Blvd, Houston, TX 77015, USA",29.7498101,-95.1227679,ROOFTOP,success,1
110070507083,77705,"2366 Sulphur Plant Rd, Beaumont, TX 77705, USA",30.0323012,-94.0515481,ROOFTOP,success,1
110070516144,77478,"1113 Gillingham Ln A, Sugar Land, TX 77478, USA",29.6412835,-95.6167693,ROOFTOP,success,1
110070520804,77640,"2450 Gulfway Dr, Port Arthur, TX 77640, USA",29.8954228,-93.9317667,ROOFTOP,success,1
110070525259,77541,"2301 N Brazosport Blvd, Freeport, TX 77541, USA",28.9871482,-95.3784966,ROOFTOP,success,1
110070527900,77480,"8985 County Rd 359 #8985, Sweeny, TX 77480, USA",29.0680056,-95.735644,ROOFTOP,success,1
110070557810,77073,"910 Rankin Rd, Houston, TX 77073, USA",29.9644532,-95.3951004,ROOFTOP,success,1
110070557969,77571,"11605 Strang Rd, La Porte, TX 77571, USA",29.7024365,-95.0550286,ROOFTOP,success,1
110070558426,77541,"2301 N Brazosport Blvd b7701, Freeport, TX 77541, USA",28.9871482,-95.3784966,ROOFTOP,success,1
110070602361,77085,"5615 W Fuqua St d, Houston, TX 77085, USA",29.608434,-95.472994,ROOFTOP,success,1
110070615797,77541,"4057 TX-332, Freeport, TX 77541, USA",28.979143,-95.3318315,ROOFTOP,success,1
110070626827,77049,"16950 Wallisville Rd, Houston, TX 77049, USA",29.8205224,-95.1236838,ROOFTOP,success,1
110070628300,77023,"1875 S Lockwood Dr, Houston, TX 77023, USA",29.729329,-95.3344425,RANGE_INTERPOLATED,success,1
110070633527,77541,"4057 TX-332, Freeport, TX 77541, USA",28.979143,-95.3318315,ROOFTOP,success,1
110070633528,77511,"2004 Hill Rd, Alvin, TX 77511, USA",29.4091639,-95.2470604,RANGE_INTERPOLATED,success,1
110070671732,77523,"8500 W Bay Rd, Baytown, TX 77523, USA",29.7458275,-94.9151186,ROOFTOP,success,1
110070672299,77713,"11455 I-10, Beaumont, TX 77713, USA",29.97741,-94.2164512,ROOFTOP,success,1
110070675765,77541,"Midway Rd, Texas 77541, USA",28.9555025,-95.3369783,GEOMETRIC_CENTER,success,1
110070676912,77512,"Alvin, TX 77512, USA",29.4187707,-95.2390673,APPROXIMATE,success,1
110070686490,77493,"28420 W Ten Blvd., Katy, TX 77493, USA",29.7792297,-95.8561566,ROOFTOP,success,1
110070716064,77396,"8541 E N Belt, Humble, TX 77396, USA",29.9401188,-95.2592627,ROOFTOP,success,1
110070789259,77530,"16518 De Zavalla Rd, Channelview, TX 77530, USA",29.7620291,-95.0990971,RANGE_INTERPOLATED,success,1
110070790674,77619,"6501 Hogaboom Rd, Groves, TX 77619, USA",29.9646572,-93.9342953,GEOMETRIC_CENTER,success,1
110070791092,77541,"Freeport, TX 77541, USA",29.0119861,-95.2893433,APPROXIMATE,success,1
110070793791,77478,"12900 W Airport Blvd, Sugar Land, TX 77478, USA",29.647756,-95.612009,ROOFTOP,success,1
110070801659,77380,"2319 Timberloch Pl h, The Woodlands, TX 77380, USA",30.1591345,-95.4732757,ROOFTOP,success,1
110070801660,77523,"5121 Ameriport Pkwy, Baytown, TX 77523, USA",29.7739286,-94.8875256,ROOFTOP,success,1
110070813779,NA,"15916 FM 2004, Texas, USA",29.2269949,-95.1920061,RANGE_INTERPOLATED,success,1
110070819603,77571,"10207 Strang Rd, La Porte, TX 77571, USA",29.7016801,-95.0682052,ROOFTOP,success,1
110070826640,77064,"16225 Tomball Pkwy a, Houston, TX 77064, USA",29.9453419,-95.5286888,ROOFTOP,success,1
110070827820,77536,"5900 Hwy 225, Deer Park, TX 77536, USA",29.7128849,-95.1220456,ROOFTOP,success,1
110070830066,77047,"3031 S Sam Houston Pkwy E, Houston, TX 77047, USA",29.6001192,-95.3776904,ROOFTOP,success,1
110070835766,77520,"5000 Bayway Dr, Baytown, TX 77520, USA",29.7404465,-95.024826,ROOFTOP,success,1
110070838669,77449,"22525 Clay Rd, Katy, TX 77449, USA",29.8292521,-95.7678394,ROOFTOP,success,1
110070863213,77523,"5121 Ameriport Pkwy h, Baytown, TX 77523, USA",29.7739286,-94.8875256,ROOFTOP,success,1
110070863245,77095,"22008 N Berwick Dr, Houston, TX 77095, USA",29.9295804,-95.6433305,ROOFTOP,success,1
110070864284,77571,"1230 Independence Pkwy, La Porte, TX 77571, USA",29.7191601,-95.089072,ROOFTOP,success,1
110070868473,77064,"9155 Derrington Rd #9155, Houston, TX 77064, USA",29.9205916,-95.5364656,ROOFTOP,success,1
110070870644,77515,"1508 E Cedar St, Angleton, TX 77515, USA",29.1685178,-95.4137546,ROOFTOP,success,1
110070879004,77713,"12060 US-90, Beaumont, TX 77713, USA",30.0602067,-94.242114,RANGE_INTERPOLATED,success,1
110070882039,77571,"Miller Cut Off Rd, Texas 77571, USA",29.7136299,-95.0686127,GEOMETRIC_CENTER,success,1
110070887224,NA,"LA-1, Louisiana, USA",31.0569968,-92.02754,GEOMETRIC_CENTER,success,1
110070887225,77049,"7101 Miller Rd 2, Houston, TX 77049, USA",29.8254082,-95.1430639,ROOFTOP,success,1
110070887227,77547,"407 Clinton Dr, Galena Park, TX 77547, USA",29.7367977,-95.2227526,GEOMETRIC_CENTER,success,1
110070887513,NA,"15916 FM 2004, Texas, USA",29.2269949,-95.1920061,RANGE_INTERPOLATED,success,1
110070888286,77536,"Hwy 225, Deer Park, TX 77536, USA",29.7114642,-95.121986,GEOMETRIC_CENTER,success,1
110070889524,77532,"16503 Ramsey Rd, Crosby, TX 77532, USA",29.9229839,-95.0540138,GEOMETRIC_CENTER,success,1
110070932452,77480,"8985 County Rd 359, Sweeny, TX 77480, USA",29.0680056,-95.735644,ROOFTOP,success,1
110070935626,77571,"100 Strang Rd, La Porte, TX 77571, USA",29.6917795,-95.0356901,ROOFTOP,success,1
110070935704,77507,"9602 Bayport Blvd, Pasadena, TX 77507, USA",29.626104,-95.067727,ROOFTOP,success,1
110070942904,77489,"1023 Buffalo Run, Missouri City, TX 77489, USA",29.6118534,-95.5165701,ROOFTOP,success,1
110070946720,77507,"10611 Red Bluff Rd, Pasadena, TX 77507, USA",29.6092595,-95.073572,ROOFTOP,success,1
110071042124,77536,"2525 Independence Pkwy, Deer Park, TX 77536, USA",29.7363509,-95.0920623,ROOFTOP,success,1
110071043824,77015,"2701 Appelt Dr, Houston, TX 77015, USA",29.769687,-95.148447,ROOFTOP,success,1
110071046351,77642,"7600 32nd St, Port Arthur, TX 77642, USA",29.9602411,-93.8884417,GEOMETRIC_CENTER,success,1
110071071864,77590,"FM 519, Texas City, TX 77590, USA",29.3584312,-94.9450881,GEOMETRIC_CENTER,success,1
110071074818,77041,"5215 Campbell Rd, Houston, TX 77041, USA",29.8455529,-95.5326532,ROOFTOP,success,1
110071075811,77545,"2303 Hurricane Ln, Fresno, TX 77545, USA",29.5462714,-95.4995574,ROOFTOP,success,1
110071140323,77389,"22300 Northcrest Dr, Spring, TX 77389, USA",30.089831,-95.5131316,ROOFTOP,success,1
110071140326,77064,"11311 N Gessner Rd, Houston, TX 77064, USA",29.9409794,-95.5496885,ROOFTOP,success,1
110071140341,77541,"2301 N Brazosport Blvd a 2813, Freeport, TX 77541, USA",28.9871482,-95.3784966,ROOFTOP,success,1
110071140342,77478,"1005 Industrial Blvd, Sugar Land, TX 77478, USA",29.6408898,-95.608303,ROOFTOP,success,1
110071159352,77536,"1900 Tidal Rd, Deer Park, TX 77536, USA",29.731585,-95.1041234,ROOFTOP,success,1
110071159551,77627,"6001 Hwy 366, Nederland, TX 77627, USA",29.9866257,-93.9944462,RANGE_INTERPOLATED,success,1
110071159763,77512,"Alvin, TX 77512, USA",29.4187707,-95.2390673,APPROXIMATE,success,1
110071159860,77547,"407 Clinton Dr, Galena Park, TX 77547, USA",29.7367977,-95.2227526,GEOMETRIC_CENTER,success,1
110071159899,77536,"5900 Hwy 225 #8a, Deer Park, TX 77536, USA",29.7128849,-95.1220456,ROOFTOP,success,1
110071160095,77627,"6350 N Twin City Hwy, Nederland, TX 77627, USA",30.0164211,-94.0320959,ROOFTOP,success,1
110071160421,77503,"Hwy 225, Pasadena, TX 77503, USA",29.7120826,-95.1524181,GEOMETRIC_CENTER,success,1
110071160743,77568,"2800 FM 519, La Marque, TX 77568, USA",29.3604985,-94.9288976,ROOFTOP,success,1
110071161653,77507,"12222 Port Rd, Pasadena, TX 77507, USA",29.6024049,-95.0166614,ROOFTOP,success,1
110071161725,77530,"Channelview, TX 77530, USA",29.7945258,-95.1119407,APPROXIMATE,success,1
110071162173,77507,"12212 Port Rd, Pasadena, TX 77507, USA",29.6027969,-95.0158487,ROOFTOP,success,1
110071162250,77713,"11440 US-90, Beaumont, TX 77713, USA",30.0694798,-94.2294908,GEOMETRIC_CENTER,success,1
110071162497,77530,"Channelview, TX 77530, USA",29.7945258,-95.1119407,APPROXIMATE,success,1
110071175656,77507,"Bayport Blvd, Texas 77507, USA",29.6160395,-95.0599018,GEOMETRIC_CENTER,success,1
110071192960,77024,"8560 Katy Fwy #200, Houston, TX 77024, USA",29.7863219,-95.4960112,ROOFTOP,success,1
110071256767,77541,"County Rd 242, Texas 77541, USA",28.9131899,-95.378246,GEOMETRIC_CENTER,success,1
